Record_ID,Store_Name,Store_Street_Address,Additonal_Address,City,State,Zip_Code,Zip4,County,Store_Type,Latitude,Longitude,Incentive_Program,Grantee_Name,ObjectId,geometry
1625088,Carniceria Novillo,1619 N 59th Ave,Ste 4,Phoenix,AZ,85035,5102,MARICOPA,Supermarket,33.466923,-112.18543,NA,NA,271,"c(-112.18543, 33.466923)"
1137517,Cremeria La Ordena 2,3810 W Lawrence Ave,NA,Chicago,IL,60625,6206,COOK,Grocery Store,41.968315,-87.72377,NA,NA,1576,"c(-87.72377, 41.968315)"
1640994,Evans Food & More Inc.,1853 E 71st St,NA,Chicago,IL,60649,2018,COOK,Grocery Store,41.765915,-87.579155,NA,NA,1690,"c(-87.579155, 41.765915)"
254467,Jewel Food Store 3455,4355 N Sheridan Rd,NA,Chicago,IL,60613,1497,COOK,Supermarket,41.961384,-87.654655,NA,NA,2006,"c(-87.654655, 41.961384)"
243342,FRY'S 79,2626 S 83rd Ave,NA,Phoenix,AZ,85043,7207,MARICOPA,Super Store,33.423901,-112.23867,NA,NA,2155,"c(-112.23867, 33.423901)"
244293,LA HEREFORD ROMAN,4002 N 67th Ave,Ste 2,Phoenix,AZ,85033,4037,MARICOPA,Grocery Store,33.49379,-112.20328,NA,NA,2234,"c(-112.20328, 33.49379)"
249916,Supermer Y Carniceria El Ranchito,2414 W 47th St,NA,Chicago,IL,60632,1336,COOK,Grocery Store,41.808674,-87.685234,NA,NA,2348,"c(-87.685234, 41.808674)"
246061,Whole Foods Market 10172,10810 N Tatum Blvd,NA,Phoenix,AZ,85028,6055,MARICOPA,Super Store,33.584911,-111.97803,NA,NA,3154,"c(-111.97803, 33.584911)"
246359,HONEY BEE (LA COLMENA) MARKET,2443 Bagley St,NA,Detroit,MI,48216,1815,WAYNE,Super Store,42.325859,-83.076439,NA,NA,3180,"c(-83.076439, 42.325859)"
267108,Kurowski Sausage Shop & Rich,2976 N Milwaukee Ave,NA,Chicago,IL,60618,7345,COOK,Grocery Store,41.935211,-87.718056,NA,NA,3275,"c(-87.718056, 41.935211)"
248389,ALDI 62083 62083,8333 S Cicero Ave,NA,Chicago,IL,60652,3562,COOK,Supermarket,41.741074,-87.741028,NA,NA,3453,"c(-87.741028, 41.741074)"
269138,Jewel Food Store 3441,2940 N Ashland Ave,NA,Chicago,IL,60657,4004,COOK,Supermarket,41.93515,-87.668571,NA,NA,3835,"c(-87.668571, 41.93515)"
247115,Saturn Super Foods,20221 Joy Rd,NA,Detroit,MI,48228,1636,WAYNE,Supermarket,42.357491,-83.238968,NA,NA,3913,"c(-83.238968, 42.357491)"
1573913,Urban Chilli 1,18425 N 19th Ave,Ste 110,Phoenix,AZ,85023,1386,MARICOPA,Grocery Store,33.653328,-112.09843,NA,NA,4012,"c(-112.09843, 33.653328)"
238469,Jewel Food Store 230,7530 S Stony Island Ave,NA,Chicago,IL,60649,3914,COOK,Supermarket,41.757832,-87.586174,NA,NA,4111,"c(-87.586174, 41.757832)"
237000,Jewel Food Store 3181,87 W 87th St,NA,Chicago,IL,60620,1315,COOK,Supermarket,41.73624,-87.626495,NA,NA,4203,"c(-87.626495, 41.73624)"
238733,Food City 135,5114 W McDowell Rd,NA,Phoenix,AZ,85035,3862,MARICOPA,Super Store,33.466038,-112.1698,NA,NA,4427,"c(-112.1698, 33.466038)"
226444,ALDI 40004 40004,800 N Kedzie Ave,Ste 122,Chicago,IL,60651,4100,COOK,Supermarket,41.895607,-87.706619,NA,NA,4980,"c(-87.706619, 41.895607)"
229576,Best Farmers Market LLC,4825 N 27th Ave,NA,Phoenix,AZ,85017,3603,MARICOPA,Grocery Store,33.508476,-112.11692,NA,NA,5306,"c(-112.11692, 33.508476)"
263399,FRY'S 628,3949 E Chandler Blvd,NA,Phoenix,AZ,85048,0302,MARICOPA,Super Store,33.305065,-111.99894,NA,NA,5593,"c(-111.99894, 33.305065)"
230172,ALDI 40026 40026,2600 N Clybourn Ave,NA,Chicago,IL,60614,1004,COOK,Supermarket,41.928886,-87.674263,NA,NA,5620,"c(-87.674263, 41.928886)"
261467,FRY'S 81,2250 E Baseline Rd,NA,Phoenix,AZ,85042,6947,MARICOPA,Super Store,33.37788,-112.03316,NA,NA,5959,"c(-112.03316, 33.37788)"
308665,FOOD TOWN,935 E 79th St,NA,Chicago,IL,60619,3244,COOK,Grocery Store,41.751259,-87.601448,NA,NA,6139,"c(-87.601448, 41.751259)"
249482,Jewel Food Store 2602,3644 S Archer Ave,NA,Chicago,IL,60609,1044,COOK,Supermarket,41.827286,-87.682854,NA,NA,6247,"c(-87.682854, 41.827286)"
264067,Seaway Marketplace,18330 W Chicago St,NA,Detroit,MI,48228,1839,WAYNE,Supermarket,42.365017,-83.219673,NA,Fair Food Network,6339,"c(-83.219673, 42.365017)"
279107,ALDI 62053 62053,5501 S Harlem Ave,NA,Chicago,IL,60638,2206,COOK,Supermarket,41.791592,-87.801506,NA,NA,6354,"c(-87.801506, 41.791592)"
280326,SUPERMERCADO CHAPULTEPEC #2,4159 S Campbell Ave,NA,Chicago,IL,60632,1121,COOK,Grocery Store,41.817608,-87.686836,NA,NA,6379,"c(-87.686836, 41.817608)"
278290,Supercarniceria La Hereford 2,8931 N 7th St,NA,Phoenix,AZ,85020,2911,MARICOPA,Grocery Store,33.566936,-112.06519,NA,NA,6443,"c(-112.06519, 33.566936)"
278916,A & L Market,10826 Joy Rd,NA,Detroit,MI,48204,3022,WAYNE,Grocery Store,42.358788,-83.167,NA,NA,6500,"c(-83.167, 42.358788)"
264231,Bari Foods,1120 W Grand Ave,NA,Chicago,IL,60642,5880,COOK,Grocery Store,41.891365,-87.65554,NA,NA,6520,"c(-87.65554, 41.891365)"
279672,SAFEWAY  240,3450 W Bell Rd,NA,Phoenix,AZ,85053,2926,MARICOPA,Supermarket,33.639709,-112.13302,NA,NA,6839,"c(-112.13302, 33.639709)"
309574,COUNTY FAIR,10800 S Western Ave,NA,Chicago,IL,60643,3226,COOK,Super Store,41.69714,-87.681366,NA,NA,6847,"c(-87.681366, 41.69714)"
313739,MINI MERCADO LA BETANIA,2800 S Tripp Ave,NA,Chicago,IL,60623,4336,COOK,Grocery Store,41.840359,-87.730545,NA,NA,7122,"c(-87.730545, 41.840359)"
312486,TAI NAM CORPORATION,4925 N Broadway St,Ste J,Chicago,IL,60640,3056,COOK,Super Store,41.972275,-87.659737,NA,NA,7145,"c(-87.659737, 41.972275)"
311357,Jewel Food Store 3514,3531 N Broadway St,NA,Chicago,IL,60657,1825,COOK,Supermarket,41.946617,-87.646767,NA,NA,7216,"c(-87.646767, 41.946617)"
292508,SAFEWAY  174,520 W Osborn Rd,NA,Phoenix,AZ,85013,3808,MARICOPA,Supermarket,33.487629,-112.08275,NA,NA,7481,"c(-112.08275, 33.487629)"
232539,Fairplay Foods,2200 S Western Ave,NA,Chicago,IL,60608,3816,COOK,Super Store,41.851994,-87.685715,NA,NA,7677,"c(-87.685715, 41.851994)"
333063,El Ranchito Food Mart,3900 W 71st St,NA,Chicago,IL,60629,4316,COOK,Grocery Store,41.764168,-87.720131,NA,NA,8010,"c(-87.720131, 41.764168)"
334037,AJ's Fine Foods 159,4430 E Camelback Rd,NA,Phoenix,AZ,85018,2834,MARICOPA,Super Store,33.509438,-111.98293,NA,NA,8097,"c(-111.98293, 33.509438)"
381365,Devon Market,1440 W Devon Ave,NA,Chicago,IL,60660,1326,COOK,Super Store,41.998375,-87.667152,NA,NA,8578,"c(-87.667152, 41.998375)"
381546,RAINBOW FINER FOOD & LIQUOR,6316 S Ashland Ave,NA,Chicago,IL,60636,2725,COOK,Grocery Store,41.778748,-87.664246,NA,NA,8591,"c(-87.664246, 41.778748)"
296074,SUPERMERCADO EL GUERO 10,4023 S Archer Ave,NA,Chicago,IL,60632,1139,COOK,Super Store,41.820545,-87.693657,NA,NA,8845,"c(-87.693657, 41.820545)"
272793,CHICAGO FOOD CORP,3333 N Kimball Ave,NA,Chicago,IL,60618,5503,COOK,Supermarket,41.941982,-87.712517,NA,NA,8970,"c(-87.712517, 41.941982)"
356174,FTEX FOOD & LIQUOR INC.,5756 W Chicago Ave,NA,Chicago,IL,60651,2623,COOK,Grocery Store,41.894951,-87.770027,NA,NA,9049,"c(-87.770027, 41.894951)"
346969,SOUTHTOWN HEALTH FOODS,2100 W 95th St,NA,Chicago,IL,60643,1118,COOK,Grocery Store,41.721291,-87.674805,NA,NA,9103,"c(-87.674805, 41.721291)"
348405,FOOD STATE MARKET,3202 E Broadway Rd,NA,Phoenix,AZ,85040,2828,MARICOPA,Grocery Store,33.407089,-112.01196,NA,NA,9156,"c(-112.01196, 33.407089)"
347278,FRY'S 609,850 E Hatcher Rd,NA,Phoenix,AZ,85020,2693,MARICOPA,Super Store,33.571369,-112.06132,NA,NA,9346,"c(-112.06132, 33.571369)"
347458,Jewel Food Store 3344,1220 S Ashland Ave,NA,Chicago,IL,60608,1402,COOK,Supermarket,41.866371,-87.666481,NA,NA,9361,"c(-87.666481, 41.866371)"
349632,SAFEWAY  2651,340 E McDowell Rd,NA,Phoenix,AZ,85004,1533,MARICOPA,Supermarket,33.465736,-112.06743,NA,NA,9523,"c(-112.06743, 33.465736)"
350065,MR G'S FOOD & LIQUOR,332 E 58th St,NA,Chicago,IL,60637,1349,COOK,Grocery Store,41.789368,-87.618011,NA,NA,9771,"c(-87.618011, 41.789368)"
351440,Bashas' 11,4855 E Warner Rd,NA,Phoenix,AZ,85044,3308,MARICOPA,Super Store,33.330803,-111.9803,NA,NA,9825,"c(-111.9803, 33.330803)"
355109,Food City 149,6025 N 27th Ave,NA,Phoenix,AZ,85017,1763,MARICOPA,Super Store,33.524452,-112.11684,NA,NA,10071,"c(-112.11684, 33.524452)"
452601,Fair Share Foods,6422 W 63rd St,NA,Chicago,IL,60638,5004,COOK,Super Store,41.777702,-87.78212,NA,NA,10653,"c(-87.78212, 41.777702)"
257333,Sprouts Farmers Market 4,12415 N Tatum Blvd,NA,Phoenix,AZ,85032,7708,MARICOPA,Supermarket,33.599819,-111.97973,NA,NA,11206,"c(-111.97973, 33.599819)"
344143,Save A Lot 61313,7240 S Stony Island Ave,NA,Chicago,IL,60649,2838,COOK,Supermarket,41.763069,-87.587303,NA,NA,11447,"c(-87.587303, 41.763069)"
256150,Food Pride Super Market,500 E Warren Ave,NA,Detroit,MI,48201,1436,WAYNE,Super Store,42.359032,-83.058914,NA,NA,11473,"c(-83.058914, 42.359032)"
281991,Food City 107,7227 S Central Ave,NA,Phoenix,AZ,85042,5455,MARICOPA,Super Store,33.380314,-112.07184,NA,NA,11859,"c(-112.07184, 33.380314)"
342254,Albertsons 2952,8035 N 19th Ave,NA,Phoenix,AZ,85021,5159,MARICOPA,Supermarket,33.55431,-112.09965,NA,NA,11985,"c(-112.09965, 33.55431)"
336153,Jewel Food Store 92,1655 E 95th St,NA,Chicago,IL,60617,4707,COOK,Supermarket,41.722313,-87.583588,NA,NA,12135,"c(-87.583588, 41.722313)"
240540,Bashas' 113,731 E Union Hills Dr,NA,Phoenix,AZ,85024,2900,MARICOPA,Super Store,33.654823,-112.06391,NA,NA,12179,"c(-112.06391, 33.654823)"
299004,Grand Price,12955 Grand River Ave,NA,Detroit,MI,48227,3821,WAYNE,Super Store,42.381634,-83.171089,NA,NA,12305,"c(-83.171089, 42.381634)"
319000,Imperial Kosher Market,737 E Glendale Ave,Ste A,Phoenix,AZ,85020,5351,MARICOPA,Grocery Store,33.538223,-112.06339,NA,NA,12469,"c(-112.06339, 33.538223)"
337052,ALDI 40090 40090,2828 N Central Ave,NA,Chicago,IL,60634,5306,COOK,Supermarket,41.931793,-87.766312,NA,NA,12998,"c(-87.766312, 41.931793)"
324101,Mercado Y Carniceria El Rancho 2,2601 E Bell Rd,Ste 6,Phoenix,AZ,85032,2439,MARICOPA,Supermarket,33.640423,-112.02634,NA,NA,13006,"c(-112.02634, 33.640423)"
396567,Food City 103,4239 W McDowell Rd,NA,Phoenix,AZ,85009,2080,MARICOPA,Super Store,33.465942,-112.14997,NA,NA,13284,"c(-112.14997, 33.465942)"
396612,Best Food,5751 W Augusta Blvd,NA,Chicago,IL,60651,2616,COOK,Grocery Store,41.898392,-87.769508,NA,NA,13288,"c(-87.769508, 41.898392)"
454824,PATEL BROTHERS,2610 W Devon Ave,NA,Chicago,IL,60659,1804,COOK,Super Store,41.997688,-87.695335,NA,NA,13360,"c(-87.695335, 41.997688)"
454200,Charlies Supermarket Inc,2941 W Montrose Ave,NA,Chicago,IL,60618,1414,COOK,Grocery Store,41.960915,-87.702515,NA,NA,13426,"c(-87.702515, 41.960915)"
454911,Super Carniceria Las Cuatro Milpa,6639 W McDowell Rd,NA,Phoenix,AZ,85035,4749,MARICOPA,Grocery Store,33.465832,-112.20224,NA,NA,13467,"c(-112.20224, 33.465832)"
323096,Food City 140,6544 W Thomas Rd,NA,Phoenix,AZ,85033,5738,MARICOPA,Super Store,33.480389,-112.20187,NA,NA,13493,"c(-112.20187, 33.480389)"
265619,LA FRUTERIA INC.,8909 S Commercial Ave,NA,Chicago,IL,60617,3202,COOK,Supermarket,41.733368,-87.551048,NA,NA,13655,"c(-87.551048, 41.733368)"
265628,ALDI 40030 40030,4030 W Wrightwood Ave,NA,Chicago,IL,60639,2125,COOK,Supermarket,41.928169,-87.727654,NA,NA,13657,"c(-87.727654, 41.928169)"
327003,Greenfield Super Market,15530 Puritan St,NA,Detroit,MI,48227,2342,WAYNE,Super Store,42.408787,-83.199432,NA,NA,13744,"c(-83.199432, 42.408787)"
452966,FRY'S 46,520 E Baseline Rd,NA,Phoenix,AZ,85042,6554,MARICOPA,Super Store,33.377796,-112.06664,NA,NA,13778,"c(-112.06664, 33.377796)"
357944,Jewel Food Store 1296,7342 W Foster,NA,Chicago,IL,60656,    ,COOK,Supermarket,41.974514,-87.810669,NA,NA,14013,"c(-87.810669, 41.974514)"
358667,SAFEWAY  752,4747 E Elliot Rd,NA,Phoenix,AZ,85044,1627,MARICOPA,Supermarket,33.348904,-111.98187,NA,NA,14071,"c(-111.98187, 33.348904)"
322918,Imperial Supermarket,1940 E 8 Mile Rd,NA,Detroit,MI,48234,1008,WAYNE,Super Store,42.446995,-83.082436,NA,Fair Food Network,14123,"c(-83.082436, 42.446995)"
372308,Walmart 2113,1607 W Bethany Home Rd,NA,Phoenix,AZ,85015,2507,MARICOPA,Super Store,33.524014,-112.09458,NA,NA,14481,"c(-112.09458, 33.524014)"
371934,FRY'S 610,4230 W McDowell Rd,NA,Phoenix,AZ,85009,2096,MARICOPA,Super Store,33.466,-112.15036,NA,NA,14891,"c(-112.15036, 33.466)"
455931,Tony's Fresh Market 967,4137 N Elston Ave,NA,Chicago,IL,60618,2107,COOK,Super Store,41.956028,-87.72245,NA,NA,14903,"c(-87.72245, 41.956028)"
456339,ALDI  28,4934 S Kedzie Ave,NA,Chicago,IL,60632,3008,COOK,Supermarket,41.803101,-87.703896,NA,NA,14932,"c(-87.703896, 41.803101)"
442763,CERMAK PRODUCE #4,2701 W North Ave,NA,Chicago,IL,60647,5236,COOK,Super Store,41.910221,-87.695114,NA,NA,15011,"c(-87.695114, 41.910221)"
439392,Food City 105,3514 W Glendale Ave,NA,Phoenix,AZ,85051,8394,MARICOPA,Super Store,33.53854,-112.13519,NA,NA,15112,"c(-112.13519, 33.53854)"
438932,Tony's Fresh Market 867,4608 W Belmont Ave,NA,Chicago,IL,60641,4401,COOK,Super Store,41.938908,-87.742691,NA,NA,15415,"c(-87.742691, 41.938908)"
362118,SUPERMERCADO ELGUERO #8 INC,2101 W Cermak Rd,NA,Chicago,IL,60608,4005,COOK,Supermarket,41.851879,-87.679153,NA,NA,15562,"c(-87.679153, 41.851879)"
360992,La Cienega Superfood Inc,10736 S Ewing Ave,NA,Chicago,IL,60617,6605,COOK,Supermarket,41.69968,-87.535309,NA,NA,15730,"c(-87.535309, 41.69968)"
375710,MARIBEL JIMENEZ INC,3850 W Fullerton Ave,NA,Chicago,IL,60647,2246,COOK,Super Store,41.924835,-87.723633,NA,NA,16133,"c(-87.723633, 41.924835)"
373850,Jewel Food Store 3443,5343 N Broadway St,NA,Chicago,IL,60640,2311,COOK,Supermarket,41.978928,-87.659859,NA,NA,16611,"c(-87.659859, 41.978928)"
413370,Alnour Super Market 1,8716 Michigan Ave,NA,Detroit,MI,48210,2060,WAYNE,Grocery Store,42.330013,-83.149033,NA,NA,16914,"c(-83.149033, 42.330013)"
414163,GREEN FOOD & LIQUOR INC.,1026 E 67th St,NA,Chicago,IL,60637,4727,COOK,Grocery Store,41.773251,-87.600243,NA,NA,16977,"c(-87.600243, 41.773251)"
327703,Fairplay Foods,2323 W 111th St,NA,Chicago,IL,60643,3923,COOK,Super Store,41.691738,-87.679504,NA,NA,17107,"c(-87.679504, 41.691738)"
405167,ROSA'S CARNICERIA,3324 W 55th St,NA,Chicago,IL,60632,3209,COOK,Grocery Store,41.793488,-87.707031,NA,NA,17219,"c(-87.707031, 41.793488)"
501689,Joe's Food & Liquor,3626 W Lawrence Ave,NA,Chicago,IL,60625,5684,COOK,Grocery Store,41.96841,-87.719284,NA,NA,17246,"c(-87.719284, 41.96841)"
330918,Granado's Supermercado,1855 W 47th St,NA,Chicago,IL,60609,3844,COOK,Grocery Store,41.808384,-87.671913,NA,NA,17352,"c(-87.671913, 41.808384)"
500393,FRY'S 27,3616 E Ray Rd,NA,Phoenix,AZ,85044,7114,MARICOPA,Super Store,33.315517,-112.00566,NA,NA,17413,"c(-112.00566, 33.315517)"
504306,ZAVALAS GROCERY,2657 S Kolin Ave,NA,Chicago,IL,60623,4353,COOK,Grocery Store,41.84243,-87.732986,NA,NA,17467,"c(-87.732986, 41.84243)"
502809,CARNICERIA EL PORVENIR,150 E Kensington Ave,NA,Chicago,IL,60628,5639,COOK,Grocery Store,41.68417,-87.618675,NA,NA,17505,"c(-87.618675, 41.68417)"
328662,FRY'S 129,4724 N 20th St,NA,Phoenix,AZ,85016,4704,MARICOPA,Super Store,33.505974,-112.03893,NA,NA,17808,"c(-112.03893, 33.505974)"
329623,Indian Village Market,8415 E Jefferson Ave,NA,Detroit,MI,48214,2721,WAYNE,Supermarket,42.354481,-82.991249,NA,NA,17990,"c(-82.991249, 42.354481)"
476331,Jewel Food Store 3442,4042 W Foster Ave,NA,Chicago,IL,60630,2747,COOK,Supermarket,41.975582,-87.729843,NA,NA,18037,"c(-87.729843, 41.975582)"
504977,Fry's 698,1311 E Bell Rd,NA,Phoenix,AZ,85022,2724,MARICOPA,Super Store,33.640251,-112.05468,NA,NA,18143,"c(-112.05468, 33.640251)"
505582,Fruteria San Jose,1748 W Chicago Ave,NA,Chicago,IL,60622,5012,COOK,Grocery Store,41.896198,-87.671677,NA,NA,18197,"c(-87.671677, 41.896198)"
477403,Leamington Foods Store,5467 W Madison St,NA,Chicago,IL,60644,4030,COOK,Supermarket,41.879978,-87.763824,NA,NA,18343,"c(-87.763824, 41.879978)"
517194,Cermak Produce #5,3435 S Archer Ave,NA,Chicago,IL,60608,6836,COOK,Super Store,41.830929,-87.676186,NA,Experimental Station Chicago,18355,"c(-87.676186, 41.830929)"
519431,LOS DOS RIOS,2939 W 63rd St,NA,Chicago,IL,60629,2753,COOK,Grocery Store,41.779015,-87.69722,NA,NA,18398,"c(-87.69722, 41.779015)"
517944,EDGEWATER PRODUCE,5509 N Clark St,NA,Chicago,IL,60640,1213,COOK,Supermarket,41.982117,-87.668465,NA,NA,18838,"c(-87.668465, 41.982117)"
475912,Rigo's Grocery,2858 S Lawndale Ave,NA,Chicago,IL,60623,4556,COOK,Grocery Store,41.83897,-87.717117,NA,NA,18897,"c(-87.717117, 41.83897)"
516290,ALDI 67070 67070,15415 Gratiot Ave,NA,Detroit,MI,48205,1374,WAYNE,Supermarket,42.449146,-82.968498,NA,NA,18940,"c(-82.968498, 42.449146)"
516294,Trader Joe's 90,4821 N 20th St,NA,Phoenix,AZ,85016,4707,MARICOPA,Supermarket,33.507065,-112.0388,NA,NA,18941,"c(-112.0388, 33.507065)"
541446,US Quality Food Supermarket,15690 Joy Rd,NA,Detroit,MI,48228,2118,WAYNE,Supermarket,42.359173,-83.19928,NA,NA,19006,"c(-83.19928, 42.359173)"
479125,SMART & FINAL 491,2742 E Indian School Rd,NA,Phoenix,AZ,85016,6854,MARICOPA,Super Store,33.495026,-112.02221,NA,NA,19222,"c(-112.02221, 33.495026)"
344466,LA ESTRELLA INC,3835 W 26th St,NA,Chicago,IL,60623,3810,COOK,Grocery Store,41.844284,-87.721222,NA,NA,19362,"c(-87.721222, 41.844284)"
345022,Pete's Fresh Market 1,5724 S Kedzie Ave,NA,Chicago,IL,60629,2408,COOK,Super Store,41.788853,-87.703461,NA,NA,19410,"c(-87.703461, 41.788853)"
540420,Super Food & Liquor Inc,1049 W Bryn Mawr Ave,NA,Chicago,IL,60660,4631,COOK,Grocery Store,41.983601,-87.657455,NA,NA,19427,"c(-87.657455, 41.983601)"
481350,DISCOUNT MEAT CO.,339 W 79th St,NA,Chicago,IL,60620,1132,COOK,Super Store,41.750774,-87.633423,NA,NA,19706,"c(-87.633423, 41.750774)"
480227,Jewel Food Store 3368,550 N State St,NA,Chicago,IL,60610,4315,COOK,Supermarket,41.903862,-87.6287,NA,NA,19774,"c(-87.6287, 41.903862)"
346172,Albertsons 4,3130 W Carefree Hwy,NA,Phoenix,AZ,85086,3200,MARICOPA,Supermarket,33.798428,-112.12767,NA,NA,19938,"c(-112.12767, 33.798428)"
430613,Food City 148,3205 E McDowell Rd,NA,Phoenix,AZ,85008,3886,MARICOPA,Super Store,33.465706,-112.01279,NA,NA,20027,"c(-112.01279, 33.465706)"
1585807,ALDI 40083,3930 N Kilpatrick,NA,Chicago,IL,60641,    ,COOK,Supermarket,41.952511,-87.744667,NA,NA,20110,"c(-87.744667, 41.952511)"
433649,Kaps Retail LLC,2630 Riopelle St,NA,Detroit,MI,48207,4511,WAYNE,Supermarket,42.347424,-83.039124,NA,NA,20118,"c(-83.039124, 42.347424)"
431543,KOL TUV KOSHER FDS INC.,2938 W Devon Ave,NA,Chicago,IL,60659,1556,COOK,Grocery Store,41.997555,-87.703331,NA,NA,20272,"c(-87.703331, 41.997555)"
389505,Food City 95,1940 W Indian School Rd,NA,Phoenix,AZ,85015,5112,MARICOPA,Super Store,33.495049,-112.10096,NA,NA,20342,"c(-112.10096, 33.495049)"
388158,EL CASTILLO MEAT MARKET,3704 W 55th St,NA,Chicago,IL,60632,3229,COOK,Grocery Store,41.793678,-87.716156,NA,NA,20509,"c(-87.716156, 41.793678)"
389754,L & P Foods,7047 S State St,NA,Chicago,IL,60637,4513,COOK,Super Store,41.765995,-87.624863,NA,NA,20530,"c(-87.624863, 41.765995)"
432840,PAR BIRDIE FOODS,2234 W Devon Ave,NA,Chicago,IL,60659,2043,COOK,Grocery Store,41.997837,-87.686455,NA,NA,20925,"c(-87.686455, 41.997837)"
628843,Jewel Food Store 3345,1224 S Wabash Ave,NA,Chicago,IL,60605,2401,COOK,Supermarket,41.866753,-87.625885,NA,NA,21525,"c(-87.625885, 41.866753)"
398898,LOI PHAT MARKET,1702 W Camelback Rd,Ste 5,Phoenix,AZ,85015,3347,MARICOPA,Grocery Store,33.509647,-112.09615,NA,NA,21600,"c(-112.09615, 33.509647)"
398964,Tony's Fresh Market 767,2500 N Central Ave,NA,Chicago,IL,60639,1322,COOK,Super Store,41.926708,-87.766129,NA,NA,21639,"c(-87.766129, 41.926708)"
545304,FRY'S 128,744 W Camelback Rd,NA,Phoenix,AZ,85013,2207,MARICOPA,Super Store,33.509453,-112.08347,NA,NA,21954,"c(-112.08347, 33.509453)"
563508,Imperial Fresh Markets,14424 Schaefer Hwy,NA,Detroit,MI,48227,3668,WAYNE,Super Store,42.39418,-83.178734,NA,Fair Food Network,22066,"c(-83.178734, 42.39418)"
411402,ALDI 40003 40003,4500 N Broadway St,NA,Chicago,IL,60640,5602,COOK,Supermarket,41.963585,-87.65625,NA,NA,22774,"c(-87.65625, 41.963585)"
410631,Jewel Food Store 901,3400 N Western Ave,NA,Chicago,IL,60618,6012,COOK,Supermarket,41.943146,-87.68824,NA,NA,22856,"c(-87.68824, 41.943146)"
406005,Trader Joe's 691,1840 N Clybourn Ave # 200,NA,Chicago,IL,60614,7923,COOK,Supermarket,41.914436,-87.654495,NA,NA,22982,"c(-87.654495, 41.914436)"
363876,FIESTA SUPERMERCADO INC.,3307 W 63rd St,NA,Chicago,IL,60629,3316,COOK,Supermarket,41.778885,-87.705757,NA,NA,23483,"c(-87.705757, 41.778885)"
364240,Grand Food Market Inc,5202 W Grand Ave,NA,Chicago,IL,60639,3008,COOK,Grocery Store,41.917377,-87.756203,NA,NA,23522,"c(-87.756203, 41.917377)"
303735,Food City 12,2124 E McDowell Rd,NA,Phoenix,AZ,85006,2458,MARICOPA,Super Store,33.465824,-112.03589,NA,NA,23770,"c(-112.03589, 33.465824)"
363423,SAFEWAY  413,550 E Bell Rd,NA,Phoenix,AZ,85022,2313,MARICOPA,Supermarket,33.640434,-112.06716,NA,NA,23877,"c(-112.06716, 33.640434)"
304623,PEORIA PACKING LTD.,1300 W Lake St,NA,Chicago,IL,60607,1512,COOK,Super Store,41.885525,-87.658905,NA,NA,23990,"c(-87.658905, 41.885525)"
364574,Bashas' 15,10631 N 32nd St,NA,Phoenix,AZ,85028,3201,MARICOPA,Super Store,33.582794,-112.01305,NA,NA,24128,"c(-112.01305, 33.582794)"
443262,MAZEN FOODS,12740 Gratiot Ave,NA,Detroit,MI,48205,3944,WAYNE,Super Store,42.41954,-82.987823,NA,Fair Food Network,24150,"c(-82.987823, 42.41954)"
595044,AJ's Fine Foods 64,5017 N Central Ave,NA,Phoenix,AZ,85012,1520,MARICOPA,Super Store,33.509506,-112.07369,NA,NA,24307,"c(-112.07369, 33.509506)"
597044,FRY'S 617,2727 W Bell Rd,NA,Phoenix,AZ,85053,3059,MARICOPA,Super Store,33.639782,-112.11904,NA,NA,24513,"c(-112.11904, 33.639782)"
595912,FRY'S 612,4707 E Shea Blvd,NA,Phoenix,AZ,85028,4215,MARICOPA,Super Store,33.582596,-111.97975,NA,NA,24533,"c(-111.97975, 33.582596)"
596241,Guadalajara Meat & Fish 2,1630 Lawndale St,NA,Detroit,MI,48209,1734,WAYNE,Grocery Store,42.304749,-83.129417,NA,NA,24609,"c(-83.129417, 42.304749)"
598548,PETE'S PRODUCE,1411 W 87th St,NA,Chicago,IL,60620,4013,COOK,Super Store,41.735806,-87.658607,NA,NA,24799,"c(-87.658607, 41.735806)"
598604,Food City 132,2709 W Van Buren St,NA,Phoenix,AZ,85009,4914,MARICOPA,Super Store,33.451069,-112.118,NA,NA,24824,"c(-112.118, 33.451069)"
395800,Save A Lot 61314,2858 E 83rd St,NA,Chicago,IL,60617,2107,COOK,Supermarket,41.745186,-87.554321,NA,NA,24987,"c(-87.554321, 41.745186)"
449007,Jewel Food Store 3349,2520 N Narragansett Ave,NA,Chicago,IL,60639,1041,COOK,Supermarket,41.925873,-87.785606,NA,NA,25022,"c(-87.785606, 41.925873)"
630596,CERMAK PRODUCE #6 INC.,4234 N Kedzie Ave,NA,Chicago,IL,60618,2402,COOK,Super Store,41.958241,-87.708191,NA,NA,25112,"c(-87.708191, 41.958241)"
369930,ALDI 62092 62092,620 W 63rd St,NA,Chicago,IL,60621,2012,COOK,Supermarket,41.779881,-87.640762,NA,NA,25195,"c(-87.640762, 41.779881)"
450819,Food City 154,9020 W Thomas Rd,NA,Phoenix,AZ,85037,3234,MARICOPA,Super Store,33.479759,-112.25314,NA,NA,25289,"c(-112.25314, 33.479759)"
368138,7 Mile Foods,8115 E 7 Mile Rd,NA,Detroit,MI,48234,3626,WAYNE,Supermarket,42.434048,-83.021454,NA,Fair Food Network,25323,"c(-83.021454, 42.434048)"
447000,SAFEWAY 2716,4750 E Indian School Rd,NA,Phoenix,AZ,85018,5440,MARICOPA,Supermarket,33.494701,-111.97955,NA,NA,25645,"c(-111.97955, 33.494701)"
370336,Jewel Food Store 3407,5516 N Clark St,NA,Chicago,IL,60640,1214,COOK,Supermarket,41.982166,-87.668579,NA,NA,25715,"c(-87.668579, 41.982166)"
448245,Potash Markets,1525 N Clark St,NA,Chicago,IL,60610,1783,COOK,Supermarket,41.909916,-87.63121,NA,NA,25951,"c(-87.63121, 41.909916)"
716157,Supermercado Barrera,2336 N Milwaukee Ave,NA,Chicago,IL,60647,2909,COOK,Grocery Store,41.923695,-87.698685,NA,NA,26203,"c(-87.698685, 41.923695)"
717466,ALDI 40062 40062,6220 N California Ave,NA,Chicago,IL,60659,2608,COOK,Supermarket,41.994373,-87.699608,NA,NA,26474,"c(-87.699608, 41.994373)"
600071,Farmers Food Center,2411 Central St,NA,Detroit,MI,48209,1111,WAYNE,Supermarket,42.313999,-83.12532,NA,NA,26666,"c(-83.12532, 42.313999)"
486431,FRY'S 126,6601 W Indian School Rd,NA,Phoenix,AZ,85033,3339,MARICOPA,Super Store,33.494793,-112.20178,NA,NA,27426,"c(-112.20178, 33.494793)"
419210,SAFEWAY  1654,4811 N 83rd Ave,NA,Phoenix,AZ,85033,1000,MARICOPA,Supermarket,33.506866,-112.23765,NA,NA,27539,"c(-112.23765, 33.506866)"
419351,SAFEWAY  1201,4005 E Chandler Blvd,NA,Phoenix,AZ,85048,8888,MARICOPA,Supermarket,33.305092,-111.99655,NA,NA,27590,"c(-111.99655, 33.305092)"
483192,MEXICANTOWN BAKERY,4300 W Vernor Hwy,NA,Detroit,MI,48209,2114,WAYNE,Grocery Store,42.320587,-83.095108,NA,NA,27679,"c(-83.095108, 42.320587)"
421548,SUPERMERCADO CUAUHTEMOC,2506 S Kedzie Ave,NA,Chicago,IL,60623,4007,COOK,Grocery Store,41.846031,-87.705437,NA,NA,27782,"c(-87.705437, 41.846031)"
511291,Savon Foods Super Store,18000 Livernois Ave,NA,Detroit,MI,48221,2763,WAYNE,Supermarket,42.423241,-83.140984,NA,NA,28131,"c(-83.140984, 42.423241)"
508357,City Fresh Market,3201 W Devon Ave,NA,Chicago,IL,60659,1306,COOK,Super Store,41.997162,-87.709961,NA,NA,28461,"c(-87.709961, 41.997162)"
719795,Jewel Food Store 4043,443 E 34th St,NA,Chicago,IL,60616,4135,COOK,Supermarket,41.833061,-87.614952,NA,NA,28574,"c(-87.614952, 41.833061)"
718261,Americana Food Store,15041 Plymouth Rd,NA,Detroit,MI,48227,2433,WAYNE,Supermarket,42.372673,-83.192863,NA,Fair Food Network,28700,"c(-83.192863, 42.372673)"
685721,KUDUS HEALTH FOODS,8515 S Cottage Grove Ave,NA,Chicago,IL,60619,6115,COOK,Grocery Store,41.739616,-87.6045,NA,NA,29257,"c(-87.6045, 41.739616)"
689460,NAYAB MART,2449 W Devon Ave,NA,Chicago,IL,60659,1914,COOK,Supermarket,41.997692,-87.691872,NA,NA,29413,"c(-87.691872, 41.997692)"
687396,Carniceria Sonora 2,17 W Baseline Rd,NA,Phoenix,AZ,85041,7102,MARICOPA,Grocery Store,33.377693,-112.07403,NA,NA,29797,"c(-112.07403, 33.377693)"
426447,CARNICERIA JIMENEZ INC,4204 W North Ave,NA,Chicago,IL,60639,4829,COOK,Super Store,41.91013,-87.73159,NA,NA,29863,"c(-87.73159, 41.91013)"
459977,Food City 104,3202 E Greenway Rd,NA,Phoenix,AZ,85036,    ,MARICOPA,Super Store,33.626461,-112.0132,NA,NA,30172,"c(-112.0132, 33.626461)"
461998,Family Fair Food Center Inc,700 Chene St,NA,Detroit,MI,48207,3978,WAYNE,Supermarket,42.340565,-83.024086,NA,NA,30607,"c(-83.024086, 42.340565)"
463456,La Altena,8827 S Escanaba Ave,NA,Chicago,IL,60617,3134,COOK,Grocery Store,41.73502,-87.554054,NA,NA,30801,"c(-87.554054, 41.73502)"
462568,SUPERMERCADO SANCHEZ,2824 W 59th St,NA,Chicago,IL,60629,2201,COOK,Grocery Store,41.7864,-87.69458,NA,NA,30959,"c(-87.69458, 41.7864)"
568716,La Casa Del Pueblo Inc,1810 S Blue Island Ave,NA,Chicago,IL,60608,3098,COOK,Super Store,41.857563,-87.661804,NA,NA,31118,"c(-87.661804, 41.857563)"
606077,SAFEWAY  1979,13440 N 7th St,NA,Phoenix,AZ,85022,4844,MARICOPA,Supermarket,33.609509,-112.06541,NA,NA,31416,"c(-112.06541, 33.609509)"
603765,Pete's Fresh Market 3,4343 S Pulaski Rd,NA,Chicago,IL,60632,4008,COOK,Super Store,41.813801,-87.723808,NA,NA,31763,"c(-87.723808, 41.813801)"
604073,Mi Mexico Grocery,2601 W 59th St,NA,Chicago,IL,60629,1505,COOK,Grocery Store,41.786312,-87.688942,NA,Experimental Station Chicago,31785,"c(-87.688942, 41.786312)"
604173,Jewel Food Store 3170,5320 S Pulaski Rd,NA,Chicago,IL,60632,4224,COOK,Supermarket,41.796551,-87.723312,NA,NA,31796,"c(-87.723312, 41.796551)"
837555,Save-A-Lot 24598,3681 Gratiot Ave,NA,Detroit,MI,48207,1831,WAYNE,Supermarket,42.363415,-83.024956,NA,Fair Food Network,31964,"c(-83.024956, 42.363415)"
558889,ALDI 62095 62095,2333 E 95th St,NA,Chicago,IL,60617,4806,COOK,Supermarket,41.722546,-87.567421,NA,NA,32445,"c(-87.567421, 41.722546)"
467850,Apollo Supermarket,20250 W 7 Mile Rd,NA,Detroit,MI,48219,3469,WAYNE,Super Store,42.429546,-83.241234,NA,Fair Food Network,32770,"c(-83.241234, 42.429546)"
468129,Tony's Fresh Market 567,3607 W Fullerton Ave,NA,Chicago,IL,60647,2389,COOK,Super Store,41.924564,-87.717224,NA,NA,32874,"c(-87.717224, 41.924564)"
514819,ALDI 62079 62079,7800 S South Chicago Ave,NA,Chicago,IL,60619,2724,COOK,Supermarket,41.753151,-87.587952,NA,NA,32920,"c(-87.587952, 41.753151)"
556027,Harvestime Foods,2632 W Lawrence Ave,NA,Chicago,IL,60625,2945,COOK,Super Store,41.968826,-87.695282,NA,NA,32961,"c(-87.695282, 41.968826)"
572904,Armitage Produce Inc,3334 W Armitage Ave,NA,Chicago,IL,60647,3718,COOK,Super Store,41.917377,-87.711662,NA,NA,33107,"c(-87.711662, 41.917377)"
498723,Shop Amstar,3759 W Chicago Ave,NA,Chicago,IL,60651,3822,COOK,Grocery Store,41.895039,-87.720779,NA,NA,33425,"c(-87.720779, 41.895039)"
498870,One Stop Food & Liquor Inc,4301 S Lake Park Ave,NA,Chicago,IL,60653,3703,COOK,Supermarket,41.816879,-87.598755,NA,NA,33442,"c(-87.598755, 41.816879)"
490347,Beebes Market,7250 Lafayette Blvd,NA,Detroit,MI,48209,1912,WAYNE,Grocery Store,42.305107,-83.115356,NA,NA,33516,"c(-83.115356, 42.305107)"
574311,Sprouts Farmers Market 8,2824 E Indian School Rd,Ste 126,Phoenix,AZ,85016,6822,MARICOPA,Supermarket,33.495079,-112.02023,NA,NA,33566,"c(-112.02023, 33.495079)"
570772,Wonder Foods Supermarket,10450 Shoemaker St,NA,Detroit,MI,48213,3353,WAYNE,Grocery Store,42.389362,-82.996849,NA,NA,33732,"c(-82.996849, 42.389362)"
1479590,Go Grocer #6 GG6,4250 N Marine Dr,NA,Chicago,IL,60613,1744,COOK,Grocery Store,41.960129,-87.647621,NA,NA,34247,"c(-87.647621, 41.960129)"
798999,Walmart 5402,4650 W North Ave,NA,Chicago,IL,60639,4611,COOK,Super Store,41.909733,-87.74276,NA,NA,34285,"c(-87.74276, 41.909733)"
797268,CARNICERIA LA MEJOR 2,2915 N Milwaukee Ave,NA,Chicago,IL,60618,7404,COOK,Grocery Store,41.934422,-87.715614,NA,NA,34488,"c(-87.715614, 41.934422)"
798222,Trader Joe's 696,44 E Ontario St,NA,Chicago,IL,60611,4755,COOK,Supermarket,41.893356,-87.626564,NA,NA,34671,"c(-87.626564, 41.893356)"
547032,SUPER CARNICERIA LOS PINOS 2,4832 N 27th Ave,NA,Phoenix,AZ,85017,3678,MARICOPA,Supermarket,33.508636,-112.11705,NA,NA,34793,"c(-112.11705, 33.508636)"
547047,Kaneshie Supermarket,4552 N Broadway St,NA,Chicago,IL,60640,5602,COOK,Grocery Store,41.9645,-87.656853,NA,NA,34795,"c(-87.656853, 41.9645)"
799827,Food 4 Less Midwest 552,7030 S Ashland Ave,NA,Chicago,IL,60636,3948,COOK,Super Store,41.766037,-87.66391,NA,NA,34994,"c(-87.66391, 41.766037)"
841415,Liang Corp.,211 W 22nd Pl,NA,Chicago,IL,60616,1901,COOK,Grocery Store,41.852135,-87.63253,NA,NA,35172,"c(-87.63253, 41.852135)"
840425,South Chicago Gas,8903 S South Chicago Ave,NA,Chicago,IL,60617,    ,COOK,Grocery Store,41.733315,-87.560379,NA,NA,35595,"c(-87.560379, 41.733315)"
534616,LINDO MICHOACAN,3142 W Lawrence Ave,NA,Chicago,IL,60625,4228,COOK,Super Store,41.968487,-87.707619,NA,NA,35691,"c(-87.707619, 41.968487)"
535032,ALDI 62014 62014,5629 W Fillmore St,NA,Chicago,IL,60644,5504,COOK,Supermarket,41.867374,-87.765144,NA,NA,35821,"c(-87.765144, 41.867374)"
561115,SAFEWAY 2042,3132 E Camelback Rd,NA,Phoenix,AZ,85016,4502,MARICOPA,Supermarket,33.510056,-112.015,NA,NA,36147,"c(-112.015, 33.510056)"
614170,Walmart 1549,2020 N 75th Ave,NA,Phoenix,AZ,85035,3200,MARICOPA,Super Store,33.470814,-112.22352,NA,NA,36452,"c(-112.22352, 33.470814)"
473427,ALDI 40058 40058,2431 W Montrose Ave,NA,Chicago,IL,60618,1605,COOK,Supermarket,41.961258,-87.689941,NA,NA,36471,"c(-87.689941, 41.961258)"
473554,Jewel Food Store 3224,6430 W Irving Park Rd,NA,Chicago,IL,60634,2459,COOK,Supermarket,41.952953,-87.7873,NA,NA,36485,"c(-87.7873, 41.952953)"
609151,FRY'S 619,8325 W Indian School Rd,NA,Phoenix,AZ,85037,2125,MARICOPA,Super Store,33.494228,-112.2385,NA,NA,36521,"c(-112.2385, 33.494228)"
559868,Sprouts Farmers Market 7,8040 N 19th Ave,NA,Phoenix,AZ,85021,5101,MARICOPA,Supermarket,33.55508,-112.09972,NA,NA,36522,"c(-112.09972, 33.55508)"
562836,Windy City Inc,324 S Cicero Ave,NA,Chicago,IL,60644,4902,COOK,Grocery Store,41.876041,-87.745453,NA,NA,36664,"c(-87.745453, 41.876041)"
525990,Food City 143,4430 E McDowell Rd,NA,Phoenix,AZ,85008,4504,MARICOPA,Super Store,33.465847,-111.98631,NA,NA,37080,"c(-111.98631, 33.465847)"
574661,CARNICERIA DEL PUEBLO,2644 E Greenway Pkwy,NA,Phoenix,AZ,85032,3601,MARICOPA,Grocery Store,33.628979,-112.02538,NA,NA,37627,"c(-112.02538, 33.628979)"
474037,CENTRAL PARK FOODS,3552 W Grand Ave,NA,Chicago,IL,60651,4009,COOK,Super Store,41.901924,-87.71508,NA,NA,37926,"c(-87.71508, 41.901924)"
474058,Fairline Food Center,16520 W Warren Ave,NA,Detroit,MI,48228,3707,WAYNE,Supermarket,42.343555,-83.207474,NA,NA,37927,"c(-83.207474, 42.343555)"
549144,Food City 94,3442 W Van Buren St,NA,Phoenix,AZ,85009,4708,MARICOPA,Super Store,33.451477,-112.13351,NA,NA,38192,"c(-112.13351, 33.451477)"
553461,Mercado Y Carniceria El Rancho #3,413 W Hatcher Rd,NA,Phoenix,AZ,85021,2455,MARICOPA,Grocery Store,33.571224,-112.08051,NA,NA,38534,"c(-112.08051, 33.571224)"
551096,Safeway 2097,4747 E Greenway Rd,NA,Phoenix,AZ,85032,4818,MARICOPA,Supermarket,33.624435,-111.97899,NA,NA,38616,"c(-111.97899, 33.624435)"
621105,Jewel Food Store 1241,1341 N Paulina St,NA,Chicago,IL,60622,2145,COOK,Supermarket,41.906151,-87.66993,NA,NA,38952,"c(-87.66993, 41.906151)"
621338,LA CHIQUITA SUPERMARKET,3555 W 26th St,NA,Chicago,IL,60623,3913,COOK,Supermarket,41.844372,-87.714531,NA,NA,38976,"c(-87.714531, 41.844372)"
1463983,Everyday Meat Market,3102 W Devon Ave,NA,Chicago,IL,60659,1408,COOK,Grocery Store,41.997734,-87.707375,NA,NA,39083,"c(-87.707375, 41.997734)"
1633337,Uptown Food LLC,4661 N Broadway St,NA,Chicago,IL,60640,5011,COOK,Grocery Store,41.967091,-87.658127,NA,NA,39145,"c(-87.658127, 41.967091)"
1124169,Tamazula Grocery,2458 W Moffat St,NA,Chicago,IL,60647,4311,COOK,Grocery Store,41.915039,-87.689621,NA,NA,39146,"c(-87.689621, 41.915039)"
1381648,Carniceria Del Pacifico,2911 N 36th St,NA,Phoenix,AZ,85018,7452,MARICOPA,Grocery Store,33.481045,-112.00417,NA,NA,39162,"c(-112.00417, 33.481045)"
804026,Food City 162,845 W Southern Ave,NA,Phoenix,AZ,85041,4705,MARICOPA,Super Store,33.392147,-112.08385,NA,NA,39233,"c(-112.08385, 33.392147)"
535684,Bashas' 158,5521 N 7th St,NA,Phoenix,AZ,85014,2503,MARICOPA,Super Store,33.517525,-112.06494000000001,NA,NA,39408,"c(-112.06494, 33.517525)"
804075,MORELIA SUPERMARKET INC. # 2,4833 W Diversey Ave,NA,Chicago,IL,60639,1703,COOK,Super Store,41.931263,-87.747856,NA,NA,39657,"c(-87.747856, 41.931263)"
1640267,Sams Food Incorporated 1,6401 S Kedzie Ave,Ste 1,Chicago,IL,60629,3261,COOK,Grocery Store,41.777008,-87.702904,NA,NA,39920,"c(-87.702904, 41.777008)"
1635997,New York Food Mart Inc.,4136 N Broadway St,NA,Chicago,IL,60613,2121,COOK,Grocery Store,41.957821,-87.652695,NA,NA,39935,"c(-87.652695, 41.957821)"
845751,Whole Foods Market 10246,7111 E Mayo Blvd,NA,Phoenix,AZ,85054,5165,MARICOPA,Super Store,33.655075,-111.92751,NA,NA,40257,"c(-111.92751, 33.655075)"
536743,Jewel Food Store 3262,4660 W Irving Park Rd,NA,Chicago,IL,60641,2888,COOK,Supermarket,41.95351,-87.744469,NA,NA,40497,"c(-87.744469, 41.95351)"
587017,FRY'S 40,3421 W Thunderbird Rd,NA,Phoenix,AZ,85053,5602,MARICOPA,Super Store,33.610733,-112.13192,NA,NA,40690,"c(-112.13192, 33.610733)"
537389,Jewel Food Store 3721,6107 S Archer Ave,NA,Chicago,IL,60638,2743,COOK,Supermarket,41.794281,-87.771408,NA,NA,40701,"c(-87.771408, 41.794281)"
537638,SMART & FINAL 499,1450 N 43rd Ave,NA,Phoenix,AZ,85009,3130,MARICOPA,Super Store,33.464241,-112.15188,NA,NA,40894,"c(-112.15188, 33.464241)"
705309,Case Hernandez,1725 W Lunt Ave,NA,Chicago,IL,60626,3212,COOK,Grocery Store,42.008957,-87.673042,NA,NA,41110,"c(-87.673042, 42.008957)"
704805,SAFEWAY  1591,6202 S 16th St,NA,Phoenix,AZ,85042,4434,MARICOPA,Supermarket,33.391029,-112.04742,NA,NA,41170,"c(-112.04742, 33.391029)"
703588,FRY'S 641,3511 W Peoria Ave,NA,Phoenix,AZ,85029,4037,MARICOPA,Super Store,33.581825,-112.13506,NA,NA,41583,"c(-112.13506, 33.581825)"
702964,ALDI 62094 62094,6025 S Western Ave,NA,Chicago,IL,60636,2019,COOK,Supermarket,41.784275,-87.683693,NA,NA,41778,"c(-87.683693, 41.784275)"
616004,FRY'S 2,3036 E Thomas Rd,NA,Phoenix,AZ,85016,8014,MARICOPA,Super Store,33.480499,-112.01661,NA,NA,41798,"c(-112.01661, 33.480499)"
706728,Hyde Park Produce Ltd,1226 E 53rd St,NA,Chicago,IL,60615,4008,COOK,Super Store,41.799522,-87.596184,NA,NA,41902,"c(-87.596184, 41.799522)"
616307,WORLD FRESH MARKET,2434 W Devon Ave,NA,Chicago,IL,60659,1913,COOK,Super Store,41.997787,-87.6912,NA,NA,41917,"c(-87.6912, 41.997787)"
580908,MIRANDA'S GROCERY,1037 W 19th St,NA,Chicago,IL,60608,3351,COOK,Grocery Store,41.856602,-87.652992,NA,NA,42006,"c(-87.652992, 41.856602)"
622383,SUPERMERCADO EL GUERO NO  1,1701 W 47th St,NA,Chicago,IL,60609,3823,COOK,Supermarket,41.808544,-87.66758,NA,NA,42094,"c(-87.66758, 41.808544)"
579801,BRISA FOODS INC.,2156 N Kimball Ave,NA,Chicago,IL,60647,3566,COOK,Grocery Store,41.92086,-87.712273,NA,NA,42112,"c(-87.712273, 41.92086)"
579851,Fairplay Foursome Foods,4640 S Halsted St,NA,Chicago,IL,60609,4467,COOK,Super Store,41.809929,-87.645638,NA,NA,42146,"c(-87.645638, 41.809929)"
622908,Bonne Sante' Health Foods,1512 E 53rd St,NA,Chicago,IL,60615,4503,COOK,Grocery Store,41.799767,-87.58857,NA,NA,42576,"c(-87.58857, 41.799767)"
617519,LA MERCED INC,4335 W 26th St,NA,Chicago,IL,60623,4364,COOK,Grocery Store,41.844097,-87.732628,NA,NA,42694,"c(-87.732628, 41.844097)"
618116,LA PLACITA,1840 W 35th St,NA,Chicago,IL,60609,1201,COOK,Grocery Store,41.830486,-87.671379,NA,NA,42792,"c(-87.671379, 41.830486)"
581902,CERMAK PRODUCE #2 INC.,4401 W Armitage Ave,NA,Chicago,IL,60639,3523,COOK,Super Store,41.916996,-87.736328,NA,NA,42821,"c(-87.736328, 41.916996)"
709359,ALDI 62010 62010,4501 S Pulaski Rd,NA,Chicago,IL,60632,4035,COOK,Supermarket,41.811489,-87.723663,NA,NA,43058,"c(-87.723663, 41.811489)"
710211,ALDI 62062 62062,1739 W Cermak Rd,NA,Chicago,IL,60608,4315,COOK,Supermarket,41.852219,-87.669441,NA,NA,43126,"c(-87.669441, 41.852219)"
710746,Carniceria La Providencia Inc,1658 W 21st St,NA,Chicago,IL,60608,2914,COOK,Grocery Store,41.854118,-87.668365,NA,NA,43229,"c(-87.668365, 41.854118)"
711568,CARNICERIA LEON GUANAJUATO,4301 W Armitage Ave,NA,Chicago,IL,60639,3511,COOK,Grocery Store,41.916878,-87.734055,NA,NA,43275,"c(-87.734055, 41.916878)"
714243,Jewel Food Store 1214,3128 W 103rd St,NA,Chicago,IL,60655,2010,COOK,Supermarket,41.706261,-87.700111,NA,NA,43541,"c(-87.700111, 41.706261)"
713116,VIETHOA PLAZA,1051 W Argyle St,NA,Chicago,IL,60640,3707,COOK,Supermarket,41.973217,-87.656624,NA,NA,43604,"c(-87.656624, 41.973217)"
714347,Carniceria Ruiz,3001 N Kedzie Ave,NA,Chicago,IL,60618,6906,COOK,Grocery Store,41.935848,-87.707275,NA,NA,43666,"c(-87.707275, 41.935848)"
624942,MORGAN MINI MART,6600 S Morgan St,NA,Chicago,IL,60621,1226,COOK,Grocery Store,41.774097,-87.649849,NA,Experimental Station Chicago,43672,"c(-87.649849, 41.774097)"
711100,Trader Joe's 177,4025 E Chandler Blvd Ste 38,NA,Phoenix,AZ,85048,8832,MARICOPA,Supermarket,33.305065,-111.99641,NA,NA,43692,"c(-111.99641, 33.305065)"
624239,Jewel Food Store 3176,9400 S Ashland Ave,NA,Chicago,IL,60620,5121,COOK,Supermarket,41.722801,-87.662766,NA,NA,43744,"c(-87.662766, 41.722801)"
583260,FRY'S 121,4025 E Thunderbird Rd,NA,Phoenix,AZ,85032,5836,MARICOPA,Super Store,33.611801,-111.99395,NA,NA,43793,"c(-111.99395, 33.611801)"
645243,ALGO ESPECIAL VARIETY,2628 Bagley St,NA,Detroit,MI,48216,1722,WAYNE,Grocery Store,42.325352,-83.078476,NA,NA,44303,"c(-83.078476, 42.325352)"
663898,SAFEWAY  1515,810 E Glendale Ave,NA,Phoenix,AZ,85020,5332,MARICOPA,Supermarket,33.538277,-112.06188,NA,NA,44417,"c(-112.06188, 33.538277)"
665350,Papaya Fruit & Groceries,16322 W Warren Ave,NA,Detroit,MI,48228,3703,WAYNE,Super Store,42.343815,-83.205185,NA,NA,44418,"c(-83.205185, 42.343815)"
663113,Gonellas Food,295 S Oakwood,NA,Detroit,MI,48217,1450,WAYNE,Grocery Store,42.290161,-83.145416,NA,NA,44482,"c(-83.145416, 42.290161)"
663447,Atlas Market,2645 W Davison,NA,Detroit,MI,48238,3443,WAYNE,Supermarket,42.392551,-83.123215,NA,NA,44706,"c(-83.123215, 42.392551)"
585289,Public Foods Inc,16226 E Warren Ave,NA,Detroit,MI,48224,3267,WAYNE,Supermarket,42.402172,-82.940346,NA,Fair Food Network,44834,"c(-82.940346, 42.402172)"
639752,ALDI 40002 40002,4627 W Diversey Ave,NA,Chicago,IL,60639,1828,COOK,Supermarket,41.931564,-87.743011,NA,NA,45289,"c(-87.743011, 41.931564)"
640158,SUPERMERCADO LA CHIQUITA #4,2623 S Pulaski Rd,NA,Chicago,IL,60623,4410,COOK,Super Store,41.843307,-87.72419,NA,NA,45320,"c(-87.72419, 41.843307)"
638782,El Ranchito Food,8327 S Pulaski Rd,NA,Chicago,IL,60652,3117,COOK,Grocery Store,41.741531,-87.721184,NA,NA,45511,"c(-87.721184, 41.741531)"
637763,New Redford Food Center,21673 Grand River Ave,NA,Detroit,MI,48219,3219,WAYNE,Grocery Store,42.415844,-83.256111,NA,Fair Food Network,45844,"c(-83.256111, 42.415844)"
714999,Pete's Fresh Market 2,4700 S Kedzie Ave,NA,Chicago,IL,60632,3002,COOK,Super Store,41.807789,-87.703995,NA,NA,45933,"c(-87.703995, 41.807789)"
651706,ALDI 40064 40064,1767 N Milwaukee Ave,NA,Chicago,IL,60647,5423,COOK,Supermarket,41.913616,-87.682343,NA,NA,46386,"c(-87.682343, 41.913616)"
640853,FRY'S 623,1815 W Glendale Ave,NA,Phoenix,AZ,85021,8582,MARICOPA,Super Store,33.538563,-112.09845,NA,NA,46470,"c(-112.09845, 33.538563)"
641770,Imperial Fresh Markets,5800 Caniff St,NA,Detroit,MI,48212,2537,WAYNE,Super Store,42.405899,-83.043373,NA,NA,46558,"c(-83.043373, 42.405899)"
667007,Joe Randazzos Fruit & Vegetable 200,5240 E Outer Dr,NA,Detroit,MI,48234,3445,WAYNE,Super Store,42.43681,-83.016975,NA,NA,46686,"c(-83.016975, 42.43681)"
1602529,Carniceria La Hacienda Inc,3459 W 59th St,NA,Chicago,IL,60629,3620,COOK,Supermarket,41.785938,-87.710411,NA,NA,47020,"c(-87.710411, 41.785938)"
730594,Gratiot Fairmount Market,14999 Gratiot Ave,NA,Detroit,MI,48205,1944,WAYNE,Grocery Store,42.443756,-82.972054,NA,NA,47198,"c(-82.972054, 42.443756)"
730685,Farmer John Food Center,9731 Harper Ave,NA,Detroit,MI,48213,2700,WAYNE,Supermarket,42.393017,-83.006393,NA,NA,47201,"c(-83.006393, 42.393017)"
731190,Morse Food and Meat Market,1430 W Morse Ave,NA,Chicago,IL,60626,3480,COOK,Super Store,42.008228,-87.666992,NA,NA,47238,"c(-87.666992, 42.008228)"
805800,Pete's Fresh Market 6,2526 W Cermak Rd,NA,Chicago,IL,60608,3710,COOK,Super Store,41.852058,-87.68882,NA,NA,47339,"c(-87.68882, 41.852058)"
806825,Target Store T-0909,4734 E Ray Rd,NA,Phoenix,AZ,85044,6225,MARICOPA,Super Store,33.31992,-111.98186,NA,NA,47525,"c(-111.98186, 33.31992)"
807151,Fry's 78,39508 N Daisy Mountain Dr,NA,Phoenix,AZ,85086,6056,MARICOPA,Super Store,33.844429,-112.1338,NA,NA,47584,"c(-112.1338, 33.844429)"
730095,LA ROSITA,7849 McGraw St,NA,Detroit,MI,48210,1947,WAYNE,Grocery Store,42.334915,-83.142014,NA,NA,47817,"c(-83.142014, 42.334915)"
726867,Jewel Food Store 3454,4250 N Lincoln Ave,NA,Chicago,IL,60618,2902,COOK,Supermarket,41.959141,-87.682289,NA,NA,47868,"c(-87.682289, 41.959141)"
805147,Target Store T-0233,12602 N Paradise Village Pkwy W,NA,Phoenix,AZ,85032,7671,MARICOPA,Super Store,33.599678,-111.98798,NA,NA,47943,"c(-111.98798, 33.599678)"
768759,ALDI 75042 75042,1508 W 47th St,NA,Chicago,IL,60609,3236,COOK,Supermarket,41.808659,-87.663055,NA,NA,48048,"c(-87.663055, 41.808659)"
768080,PANCHOS PALACE,6421 Regular St,NA,Detroit,MI,48209,2381,WAYNE,Grocery Store,42.311504,-83.108871,NA,NA,48235,"c(-83.108871, 42.311504)"
809783,Save More & Discount Inc,6835 Michigan Ave,NA,Detroit,MI,48210,3097,WAYNE,Grocery Store,42.33112,-83.12793,NA,NA,49208,"c(-83.12793, 42.33112)"
593218,University Food Center Inc.,1131 W Warren Ave,NA,Detroit,MI,48201,3601,WAYNE,Super Store,42.353382,-83.074379,NA,Fair Food Network,49333,"c(-83.074379, 42.353382)"
589262,SAFEWAY  1980,1334 W Chandler Blvd,NA,Phoenix,AZ,85048,    ,MARICOPA,Supermarket,33.305435,-111.97303,NA,NA,49689,"c(-111.97303, 33.305435)"
781237,KAPATID ORIENTIAL STORE,3538 W Lawrence Ave,NA,Chicago,IL,60625,5628,COOK,Grocery Store,41.968414,-87.717171,NA,NA,50381,"c(-87.717171, 41.968414)"
994998,New York Deli Inc,316 E 47th St,NA,Chicago,IL,60653,4004,COOK,Grocery Store,41.809425,-87.61895,NA,NA,50941,"c(-87.61895, 41.809425)"
693937,Food City 152,4727 E Southern Ave,NA,Phoenix,AZ,85042,4100,MARICOPA,Super Store,33.392735,-111.97949,NA,NA,51021,"c(-111.97949, 33.392735)"
694749,FRY'S 618,3246 E Bell Rd,NA,Phoenix,AZ,85032,2727,MARICOPA,Super Store,33.640739,-112.01221,NA,NA,51099,"c(-112.01221, 33.640739)"
676570,Jewel Food Store 3477,4734 N Pueblo,NA,Chicago,IL,60656,    ,COOK,Supermarket,41.960049,-87.83667,NA,NA,51433,"c(-87.83667, 41.960049)"
695796,FRY'S 12,18420 N 19th Ave,NA,Phoenix,AZ,85023,1361,MARICOPA,Super Store,33.653904,-112.09983,NA,NA,51573,"c(-112.09983, 33.653904)"
677592,Trader Joe's 688,3745 N Lincoln Ave,NA,Chicago,IL,60613,3517,COOK,Supermarket,41.94981,-87.675697,NA,NA,51690,"c(-87.675697, 41.94981)"
682149,RED APPLE FD & LIQ,317 E 51st St,NA,Chicago,IL,60615,3503,COOK,Grocery Store,41.801842,-87.618706,NA,NA,52277,"c(-87.618706, 41.801842)"
773342,THREE STARS FOOD MARKET INC,252 N Kedzie Ave,NA,Chicago,IL,60612,1869,COOK,Grocery Store,41.885677,-87.706314,NA,NA,52713,"c(-87.706314, 41.885677)"
825685,ALDI 76033 76033,10532 S Indianapolis Ave,NA,Chicago,IL,60617,6355,COOK,Supermarket,41.703789,-87.525749,NA,NA,52848,"c(-87.525749, 41.703789)"
734063,Sprouts Farmers Market 18,245 E Bell Rd Ste 15,NA,Phoenix,AZ,85022,2354,MARICOPA,Supermarket,33.640163,-112.07101,NA,NA,52948,"c(-112.07101, 33.640163)"
774954,El Super 8,5127 W Indian School Rd,NA,Phoenix,AZ,85031,2611,MARICOPA,Supermarket,33.493603,-112.17036,NA,NA,53090,"c(-112.17036, 33.493603)"
1598825,Pete's Market 18,3250 W 87th St,NA,Chicago,IL,60652,3768,COOK,Super Store,41.737289,-87.703354,NA,NA,53677,"c(-87.703354, 41.737289)"
783516,Target Store T-1905,2140 E Baseline Rd,NA,Phoenix,AZ,85042,6910,MARICOPA,Super Store,33.37785,-112.03417,NA,NA,54081,"c(-112.03417, 33.37785)"
655651,WILLIE'S GROCERY STORE,4958 S Wolcott Ave,NA,Chicago,IL,60609,4849,COOK,Grocery Store,41.8032,-87.672417,NA,NA,54224,"c(-87.672417, 41.8032)"
654900,Walmart 2512,1825 W Bell Rd,NA,Phoenix,AZ,85023,    ,MARICOPA,Super Store,33.637218,-112.09807,NA,NA,54679,"c(-112.09807, 33.637218)"
783099,WMI SYRIA INC,7600 S Exchange Ave,NA,Chicago,IL,60649,4310,COOK,Grocery Store,41.756939,-87.558014,NA,NA,54719,"c(-87.558014, 41.756939)"
655059,NORTH WATER MARKET INC,2626 W Devon Ave,NA,Chicago,IL,60659,1804,COOK,Super Store,41.997711,-87.695786,NA,NA,54782,"c(-87.695786, 41.997711)"
657953,NEIGHBORHOOD GROCERY & DELI,9001 S Ashland Ave,NA,Chicago,IL,60620,5027,COOK,Grocery Store,41.730118,-87.662514,NA,NA,54818,"c(-87.662514, 41.730118)"
810777,Moon Star Grocery Inc,733 W 69th St,NA,Chicago,IL,60621,2435,COOK,Grocery Store,41.768787,-87.642792,NA,NA,55151,"c(-87.642792, 41.768787)"
696884,LIBERTY FOOD CENTER INC,10620 W McNichols Rd,NA,Detroit,MI,48221,2366,WAYNE,Super Store,42.416744,-83.167961,NA,NA,55241,"c(-83.167961, 42.416744)"
811865,ALDI 66067 66067,7345 S State St,NA,Chicago,IL,60619,1622,COOK,Supermarket,41.761047,-87.624748,NA,NA,55672,"c(-87.624748, 41.761047)"
999269,Eves Market,1411 Washington Blvd,NA,Detroit,MI,48226,1745,WAYNE,Grocery Store,42.334049,-83.051262,NA,NA,55673,"c(-83.051262, 42.334049)"
999612,Cermak Produce No. 12 Inc,3033 S Halsted St,NA,Chicago,IL,60608,5804,COOK,Super Store,41.838833,-87.646263,NA,Experimental Station Chicago,55772,"c(-87.646263, 41.838833)"
827614,Whole Foods Market 10203,3640 N Halsted St,NA,Chicago,IL,60613,4316,COOK,Super Store,41.948441,-87.649529,NA,NA,56118,"c(-87.649529, 41.948441)"
734896,Al Bayan Grocery Inc,3134 N Narragansett Ave,NA,Chicago,IL,60634,4919,COOK,Grocery Store,41.937119,-87.785973,NA,NA,56392,"c(-87.785973, 41.937119)"
1001622,Trader Joe's 703,667 W Diversey Pkwy,NA,Chicago,IL,60614,1510,COOK,Supermarket,41.932724,-87.64621,NA,NA,56650,"c(-87.64621, 41.932724)"
683282,Super Mercado LaPiedad,7105 W Vernor Hwy,NA,Detroit,MI,48209,1554,WAYNE,Grocery Store,42.314312,-83.120132,NA,NA,56775,"c(-83.120132, 42.314312)"
829278,Whole Foods Market 10171,1100 S Canal St,Ste 107,Chicago,IL,60607,    ,COOK,Super Store,41.868481,-87.639336,NA,NA,57336,"c(-87.639336, 41.868481)"
779368,Luciano's Grocery - 18th St,1714 W 18th St,NA,Chicago,IL,60608,1914,COOK,Grocery Store,41.858013,-87.66935,NA,NA,57546,"c(-87.66935, 41.858013)"
669153,FRY'S 135,4505 E Thomas Rd,NA,Phoenix,AZ,85018,7614,MARICOPA,Super Store,33.480114,-111.9849,NA,NA,58229,"c(-111.9849, 33.480114)"
670388,ROGERS PARK FRUIT MARKET,7401 N Clark St,NA,Chicago,IL,60626,1660,COOK,Super Store,42.015968,-87.675148,NA,NA,58389,"c(-87.675148, 42.015968)"
669834,Jewel Food Store 1282,4729 N Central Ave,NA,Chicago,IL,60630,3269,COOK,Supermarket,41.9669,-87.767395,NA,NA,58769,"c(-87.767395, 41.9669)"
672084,PETE'S PRODUCE,1543 E 87th St,NA,Chicago,IL,60619,6548,COOK,Super Store,41.736649,-87.586517,NA,NA,58781,"c(-87.586517, 41.736649)"
672288,ALDI 40006 40006,5001 N Pulaski Rd,NA,Chicago,IL,60630,2706,COOK,Supermarket,41.971878,-87.72805,NA,NA,58800,"c(-87.72805, 41.971878)"
787758,Target Store T-0950,4515 E Thomas Rd,NA,Phoenix,AZ,85018,7614,MARICOPA,Super Store,33.48008,-111.9845,NA,NA,59259,"c(-111.9845, 33.48008)"
813601,Super Carniceria La Guera 1,5950 W McDowell Rd,Ste 107,Phoenix,AZ,85035,4989,MARICOPA,Grocery Store,33.465988,-112.18906,NA,NA,59452,"c(-112.18906, 33.465988)"
813615,Supermercado Alexs,4134 W 31st St,NA,Chicago,IL,60623,4803,COOK,Grocery Store,41.837067,-87.728165,NA,NA,59473,"c(-87.728165, 41.837067)"
813785,Whole Foods Market 10170,6020 N Cicero Ave,NA,Chicago,IL,60646,4302,COOK,Super Store,41.990185,-87.74839,NA,NA,59639,"c(-87.74839, 41.990185)"
1004769,ALDI 62088 62088,8500 S Holland Rd,NA,Chicago,IL,60620,1338,COOK,Supermarket,41.739433,-87.632027,NA,NA,60474,"c(-87.632027, 41.739433)"
1005180,Chava Grocery Inc. ,2349 S California Ave,NA,Chicago,IL,60608,3628,COOK,Grocery Store,41.848534,-87.695183,NA,NA,60525,"c(-87.695183, 41.848534)"
1007683,Lafayette Foods,1565 E Lafayette St,NA,Detroit,MI,48207,2958,WAYNE,Supermarket,42.338276,-83.032272,NA,Fair Food Network,61605,"c(-83.032272, 42.338276)"
794198,Target Store 2079,2112 W Peterson Ave,NA,Chicago,IL,60659,4277,COOK,Super Store,41.990681,-87.682671,NA,NA,61719,"c(-87.682671, 41.990681)"
739354,Baltimore Food & Liquor,13322 S Baltimore Ave,NA,Chicago,IL,60633,1425,COOK,Grocery Store,41.653236,-87.547211,NA,NA,61866,"c(-87.547211, 41.653236)"
739515,Walmart 5190,2501 W Happy Valley Rd,Ste 34,Phoenix,AZ,85085,3712,MARICOPA,Super Store,33.708569,-112.11029,NA,NA,61929,"c(-112.11029, 33.708569)"
741880,MUNICIPAL FOODS,2559 W Division St,NA,Chicago,IL,60622,2805,COOK,Grocery Store,41.902935,-87.691734,NA,NA,62021,"c(-87.691734, 41.902935)"
743104,Mikes Fresh Market,14383 Gratiot Ave,NA,Detroit,MI,48205,    ,WAYNE,Super Store,42.436218,-82.976997,NA,NA,62162,"c(-82.976997, 42.436218)"
743118,Cermak Produce,5220 S Pulaski Rd,NA,Chicago,IL,60632,4222,COOK,Super Store,41.798019,-87.723328,NA,NA,62167,"c(-87.723328, 41.798019)"
741357,ALDI 63038 63038,3030 S Kedzie Ave,NA,Chicago,IL,60623,4713,COOK,Supermarket,41.838482,-87.704926,NA,NA,62382,"c(-87.704926, 41.838482)"
817565,Moroleon Foods #2,4257 S Rockwell St,NA,Chicago,IL,60632,1215,COOK,Grocery Store,41.815746,-87.689255,NA,NA,63262,"c(-87.689255, 41.815746)"
831822,Target Store T-2236,16806 N 7th St,NA,Phoenix,AZ,85022,2662,MARICOPA,Super Store,33.637863,-112.06557,NA,NA,63325,"c(-112.06557, 33.637863)"
1365223,Carniceria Y Taqueria Sinaloa,1834 N 35th Ave,NA,Phoenix,AZ,85009,2301,MARICOPA,Grocery Store,33.469296,-112.13467,NA,NA,63504,"c(-112.13467, 33.469296)"
831849,Target Store T-2354,5715 N 19th Ave,NA,Phoenix,AZ,85015,2433,MARICOPA,Super Store,33.520859,-112.09957,NA,NA,63624,"c(-112.09957, 33.520859)"
916793,M K Poultry Inc,2600 W 51st St,NA,Chicago,IL,60632,1543,COOK,Grocery Store,41.801414,-87.689407,NA,NA,64064,"c(-87.689407, 41.801414)"
848364,Community Gas,150 W 127th St,NA,Chicago,IL,60628,7332,COOK,Grocery Store,41.663429,-87.626579,NA,NA,64529,"c(-87.626579, 41.663429)"
848139,FOOD 4 LESS MIDWEST 567,4821 W North Ave,NA,Chicago,IL,60639,4529,COOK,Super Store,41.909561,-87.746773,NA,NA,64925,"c(-87.746773, 41.909561)"
1013807,Livernois Fresh Fish Seafood Llc,18280 Livernois Ave,NA,Detroit,MI,48221,2773,WAYNE,Grocery Store,42.425625,-83.140831,NA,NA,65520,"c(-83.140831, 42.425625)"
833884,The Warehouse Corp,538 W 119th St,NA,Chicago,IL,60628,5948,COOK,Super Store,41.678131,-87.63623,NA,NA,66126,"c(-87.63623, 41.678131)"
835067,Carniceria El Bronco,6305 W McDowell Rd,Ste 5,Phoenix,AZ,85035,4792,MARICOPA,Grocery Store,33.465885,-112.19557,NA,NA,66271,"c(-112.19557, 33.465885)"
853390,Trader Joe's 282,4726 E Shea Blvd,NA,Phoenix,AZ,85028,3043,MARICOPA,Supermarket,33.582836,-111.97871,NA,NA,66824,"c(-111.97871, 33.582836)"
820230,ALDI 72077 72077,6520 W Fullerton Ave,NA,Chicago,IL,60707,    ,COOK,Supermarket,41.923725,-87.787956,NA,NA,66979,"c(-87.787956, 41.923725)"
820654,Millender Center Food Plaza,575 Brush St,NA,Detroit,MI,48226,4310,WAYNE,Grocery Store,42.331417,-83.042381,NA,NA,67059,"c(-83.042381, 42.331417)"
673507,FRY'S 127,4204 W Cactus Rd,NA,Phoenix,AZ,85029,2924,MARICOPA,Super Store,33.59758,-112.15028,NA,NA,67132,"c(-112.15028, 33.59758)"
675814,Jewel Food Store 3470,3570 N Elston Ave,NA,Chicago,IL,60618,4318,COOK,Supermarket,41.946033,-87.708069,NA,NA,67263,"c(-87.708069, 41.946033)"
822422,Chicago Produce,3500 W Lawrence Ave,NA,Chicago,IL,60625,5612,COOK,Super Store,41.968636,-87.716103,NA,NA,67709,"c(-87.716103, 41.968636)"
879026,Sam's Club 6606,8340 W McDowell Rd,NA,Phoenix,AZ,85037,    ,MARICOPA,Super Store,33.467022,-112.23955,NA,NA,68199,"c(-112.23955, 33.467022)"
879030,Sam's Club 6608,1525 W Bell Rd,NA,Phoenix,AZ,85023,    ,MARICOPA,Super Store,33.638252,-112.09269,NA,NA,68201,"c(-112.09269, 33.638252)"
917426,El Super 19,7502 W Thomas Rd,NA,Phoenix,AZ,85033,    ,MARICOPA,Supermarket,33.480244,-112.22074,NA,NA,68655,"c(-112.22074, 33.480244)"
919490,African SuperMarket & Liquors Inc,4156 W Madison St,NA,Chicago,IL,60624,2303,COOK,Grocery Store,41.880699,-87.730339,NA,NA,68798,"c(-87.730339, 41.880699)"
1287805,Jewel-Osco 3234,102 W Division St,NA,Chicago,IL,60610,    ,COOK,Supermarket,41.903938,-87.63166,NA,NA,69520,"c(-87.63166, 41.903938)"
1287907,Supermercado Martin,5155 W Addison St,NA,Chicago,IL,60641,3402,COOK,Grocery Store,41.945839,-87.756676,NA,NA,69696,"c(-87.756676, 41.945839)"
747155,West Lawn Foods 4,5838 S Pulaski Rd,NA,Chicago,IL,60629,4544,COOK,Super Store,41.786594,-87.723007,NA,NA,71298,"c(-87.723007, 41.786594)"
921154,Aldi 32,1836 N Clybourn Ave,NA,Chicago,IL,60614,4902,COOK,Supermarket,41.914635,-87.654701,NA,NA,71882,"c(-87.654701, 41.914635)"
921155,Aldi 82,3320 W Belmont Ave,NA,Chicago,IL,60618,5513,COOK,Supermarket,41.939346,-87.71022,NA,NA,71883,"c(-87.71022, 41.939346)"
745894,FRUTERIA ANDREA,2800 S Drake Ave,NA,Chicago,IL,60623,4638,COOK,Grocery Store,41.840611,-87.713501,NA,NA,71993,"c(-87.713501, 41.840611)"
752654,MARCUS MARKET,4614 2nd Ave,NA,Detroit,MI,48201,1224,WAYNE,Grocery Store,42.352421,-83.067169,NA,NA,72005,"c(-83.067169, 42.352421)"
751937,FARM SUPERMARKET,2257 W Devon Ave,NA,Chicago,IL,60659,2042,COOK,Supermarket,41.997753,-87.686684,NA,NA,72308,"c(-87.686684, 41.997753)"
929843,Dill Pickle Food Co-op,2746 N Milwaukee Ave,NA,Chicago,IL,60647,1337,COOK,Supermarket,41.930874,-87.710915,NA,Experimental Station Chicago,72421,"c(-87.710915, 41.930874)"
752385,Parkway Super Market Inc,6435 S King Dr,NA,Chicago,IL,60637,3116,COOK,Grocery Store,41.777392999999996,-87.61528,NA,NA,72644,"c(-87.61528, 41.777393)"
754358,Pete's Fresh Market 5,3448 E 118th St,NA,Chicago,IL,60617,7354,COOK,Super Store,41.681011,-87.539452,NA,NA,73429,"c(-87.539452, 41.681011)"
1576076,Wing Cheong Grocery Inc,2317 S Wentworth Ave,NA,Chicago,IL,60616,2013,COOK,Grocery Store,41.850468,-87.631668,NA,NA,73580,"c(-87.631668, 41.850468)"
882965,Food For Less 570,112 West 87th Street,NA,Chicago,IL,60620,    ,COOK,Super Store,41.736343,-87.626831,NA,NA,73612,"c(-87.626831, 41.736343)"
753763,FAMILY FOODS SUPERSTORE,8665 Rosa Parks Blvd,NA,Detroit,MI,48206,2201,WAYNE,Super Store,42.372795000000004,-83.096992,NA,NA,73891,"c(-83.096992, 42.372795)"
1290869,Target 3208,3204 N Clark St,NA,Chicago,IL,60657,1602,COOK,Super Store,41.940346,-87.651031,NA,NA,74365,"c(-87.651031, 41.940346)"
1290883,Target 3261,1625 E Camelback Rd,NA,Phoenix,AZ,85016,3901,MARICOPA,Super Store,33.509205,-112.04652,NA,NA,74371,"c(-112.04652, 33.509205)"
1291241,Harbortown Fresh Market,3472 E Jefferson Ave,NA,Detroit,MI,48207,4200,WAYNE,Grocery Store,42.342651,-83.012207,NA,NA,74428,"c(-83.012207, 42.342651)"
1292085,7 Mile & Dequindre Mini Mart,1901 E 7 Mile Rd,NA,Detroit,MI,48234,1222,WAYNE,Grocery Store,42.433041,-83.082703,NA,NA,74937,"c(-83.082703, 42.433041)"
946165,INDO-PAK MEAT & GROCERY,3922 W Lawrence Ave,NA,Chicago,IL,60625,6212,COOK,Grocery Store,41.968311,-87.726524,NA,NA,74977,"c(-87.726524, 41.968311)"
923727,Costco Wholesale 0490,19001 N 27th Ave,NA,Phoenix,AZ,85027,5036,MARICOPA,Super Store,33.658649,-112.11718,NA,NA,75160,"c(-112.11718, 33.658649)"
1579273,Lake Grocery Store Inc,4759 W Lake St,NA,Chicago,IL,60644,2710,COOK,Grocery Store,41.886299,-87.745285,NA,NA,75328,"c(-87.745285, 41.886299)"
923779,Costco Wholesale 0738,2450 E Beardsley Rd,NA,Phoenix,AZ,85050,1300,MARICOPA,Super Store,33.669586,-112.02971,NA,NA,75644,"c(-112.02971, 33.669586)"
923703,Costco Wholesale 0380,2746 N Clybourn Ave,NA,Chicago,IL,60614,1006,COOK,Super Store,41.931038,-87.676773,NA,NA,75737,"c(-87.676773, 41.931038)"
923798,Costco Wholesale 0827,3801 N 33rd Ave,NA,Phoenix,AZ,85017,4508,MARICOPA,Super Store,33.492001,-112.12993,NA,NA,75738,"c(-112.12993, 33.492001)"
923718,Costco Wholesale 0465,4502 E Oak St,NA,Phoenix,AZ,85008,2411,MARICOPA,Super Store,33.472946,-111.98454,NA,NA,75858,"c(-111.98454, 33.472946)"
1575854,A & S Fish & Chicken,8928 W Vernor Hwy,NA,Detroit,MI,48209,1440,WAYNE,Grocery Store,42.308521,-83.135231,NA,NA,76648,"c(-83.135231, 42.308521)"
935616,Hegewisch Fruit Market,13209 S Baltimore Ave,NA,Chicago,IL,60633,1431,COOK,Grocery Store,41.655239,-87.547089,NA,NA,78725,"c(-87.547089, 41.655239)"
949442,Beebes #2 Food Center,1421 Springwells St,NA,Detroit,MI,48209,1947,WAYNE,Grocery Store,42.30545,-83.122917,NA,NA,78997,"c(-83.122917, 42.30545)"
1633410,Lil Sam,4800 W Fulton St,NA,Chicago,IL,60644,2622,COOK,Grocery Store,41.886059,-87.745819,NA,NA,79100,"c(-87.745819, 41.886059)"
941853,The Unit,2523 E 75th St,NA,Chicago,IL,60649,3703,COOK,Grocery Store,41.758793,-87.562981,NA,NA,79177,"c(-87.562981, 41.758793)"
938685,Aldi 16,1440 N Kostner Ave,NA,Chicago,IL,60651,1602,COOK,Supermarket,41.906757,-87.736298,NA,NA,79223,"c(-87.736298, 41.906757)"
940126,Open Produce,1635 E 55th St,NA,Chicago,IL,60615,5838,COOK,Grocery Store,41.795162,-87.585083,NA,NA,79770,"c(-87.585083, 41.795162)"
1461203,Shureim Halal Market Llc,2916 E McDowell Rd,Unit 3,Phoenix,AZ,85008,3619,MARICOPA,Grocery Store,33.466396,-112.01883,NA,NA,79907,"c(-112.01883, 33.466396)"
759548,Glory Supermarket,8000 W Outer Dr,NA,Detroit,MI,48235,3210,WAYNE,Super Store,42.419327,-83.21846,NA,Fair Food Network,80326,"c(-83.21846, 42.419327)"
759729,Sprouts Farmers Market 9,4201 W Thunderbird Rd,NA,Phoenix,AZ,85053,    ,MARICOPA,Supermarket,33.60944,-112.14851,NA,NA,80356,"c(-112.14851, 33.60944)"
952192,El Super 22,3130 E Thomas Rd,NA,Phoenix,AZ,85016,8016,MARICOPA,Supermarket,33.480511,-112.01466,NA,NA,81143,"c(-112.01466, 33.480511)"
953632,Jordan Valley,1976 E 73rd St,NA,Chicago,IL,60649,2902,COOK,Grocery Store,41.762558,-87.577065,NA,NA,81232,"c(-87.577065, 41.762558)"
954146,EL CONDOR,2349 N Milwaukee Ave,NA,Chicago,IL,60647,2924,COOK,Grocery Store,41.923897,-87.698898,NA,NA,81250,"c(-87.698898, 41.923897)"
952962,Supermercado Guerrero,3100 W Cermak Rd,NA,Chicago,IL,60623,3448,COOK,Grocery Store,41.851856,-87.702835,NA,NA,81616,"c(-87.702835, 41.851856)"
1293053,Harlem Fresh Fish & Chicken 1,7320 Grand River Ave,NA,Detroit,MI,48204,2210,WAYNE,Grocery Store,42.357388,-83.110039,NA,NA,81666,"c(-83.110039, 42.357388)"
1566261,Maiwen International Market,17006 W Warren Ave,NA,Detroit,MI,48228,3566,WAYNE,Grocery Store,42.343639,-83.212791,NA,NA,81949,"c(-83.212791, 42.343639)"
1038804,Garden Gourmet Market,1130 N Ashland Ave,NA,Chicago,IL,60622,3935,COOK,Grocery Store,41.902443,-87.667862,NA,NA,82861,"c(-87.667862, 41.902443)"
1037969,Food Farm Super Market,11550 Dexter Ave,NA,Detroit,MI,48206,1499,WAYNE,Supermarket,42.378536,-83.123222,NA,Fair Food Network,82959,"c(-83.123222, 42.378536)"
945634,Awami Bazaar and Zabiha Meat Inc,2340 W Devon Ave,NA,Chicago,IL,60659,2011,COOK,Grocery Store,41.997787,-87.689034,NA,NA,83219,"c(-87.689034, 41.997787)"
763425,ALDI 75072 75072,14708 Mack Ave,NA,Detroit,MI,48215,2524,WAYNE,Supermarket,42.386932,-82.949608,NA,NA,83333,"c(-82.949608, 42.386932)"
763564,Target Store T-0851,7409 W Virginia Ave,NA,Phoenix,AZ,85035,1336,MARICOPA,Super Store,33.476513,-112.21807,NA,NA,83591,"c(-112.21807, 33.476513)"
763567,Target Store T-1141,2727 W Agua Fria Fwy,NA,Phoenix,AZ,85027,3929,MARICOPA,Super Store,33.667885,-112.11878,NA,NA,83595,"c(-112.11878, 33.667885)"
763569,Target Store T-1360,21001 N Tatum Blvd,Ste 20,Phoenix,AZ,85050,4207,MARICOPA,Super Store,33.676926,-111.97725,NA,NA,83597,"c(-111.97725, 33.676926)"
1041942,La Azteca Produce Corp,7067 N Clark St,NA,Chicago,IL,60626,2426,COOK,Grocery Store,42.010761,-87.674255,NA,NA,84422,"c(-87.674255, 42.010761)"
956610,Target Store 2373,4466 N Broadway St,NA,Chicago,IL,60640,5660,COOK,Super Store,41.962917,-87.65583,NA,NA,84810,"c(-87.65583, 41.962917)"
1043409,Q & H  Grocery Store,2408 W Bryn Mawr Ave,NA,Chicago,IL,60659,5102,COOK,Grocery Store,41.983227,-87.689789,NA,NA,85127,"c(-87.689789, 41.983227)"
1044464,WinCo Foods 108,330 W Bell Rd,NA,Phoenix,AZ,85023,3503,MARICOPA,Supermarket,33.640339,-112.07873,NA,NA,85508,"c(-112.07873, 33.640339)"
1043575,88 International Market,3557 W Dunlap Ave,NA,Phoenix,AZ,85051,5303,MARICOPA,Grocery Store,33.567509,-112.13584,NA,NA,85585,"c(-112.13584, 33.567509)"
1097038,Lasani Zabiha Halal Meat And Grocers,2445 W Devon Ave,NA,Chicago,IL,60659,1914,COOK,Grocery Store,41.997669,-87.691399,NA,NA,86286,"c(-87.691399, 41.997669)"
1642301,Seafood Originals,1317 E 87th St,NA,Chicago,IL,60619,7024,COOK,Grocery Store,41.736473,-87.592148,NA,NA,86297,"c(-87.592148, 41.736473)"
912596,Adrians Food Market,3700 W Diversey Ave,NA,Chicago,IL,60647,1116,COOK,Grocery Store,41.931919,-87.719879,NA,NA,87715,"c(-87.719879, 41.931919)"
910837,ALDI 40065,6221 N Broadway St,NA,Chicago,IL,60660,1902,COOK,Supermarket,41.994961000000004,-87.660355,NA,NA,87839,"c(-87.660355, 41.994961)"
890403,Whole Foods Market 10252,1550 N Kingsbury St,NA,Chicago,IL,60642,2532,COOK,Super Store,41.909481,-87.652962,NA,NA,87920,"c(-87.652962, 41.909481)"
961662,Superdollararmex Plus 2,2826 W 55th St,NA,Chicago,IL,60632,2205,COOK,Grocery Store,41.793724,-87.694885,NA,NA,88096,"c(-87.694885, 41.793724)"
959924,7 Mile & Tel Mini Mart Inc,23540 W 7 Mile Rd,NA,Detroit,MI,48219,1722,WAYNE,Grocery Store,42.429108,-83.272285,NA,NA,88105,"c(-83.272285, 42.429108)"
923822,Costco Wholesale 1058,4570 E Cactus Rd,NA,Phoenix,AZ,85032,7702,MARICOPA,Super Store,33.599850000000004,-111.98398,NA,NA,88708,"c(-111.98398, 33.59985)"
1587404,Supermercado Santos,4045 W 31st St,NA,Chicago,IL,60623,4904,COOK,Grocery Store,41.836655,-87.726097,NA,NA,88757,"c(-87.726097, 41.836655)"
924668,Huerta's Grocery Store,6509 S Kedzie Ave,NA,Chicago,IL,60629,3430,COOK,Grocery Store,41.774998,-87.702797,NA,NA,88824,"c(-87.702797, 41.774998)"
866256,Jewel 3376,370 N Desplaines St,NA,Chicago,IL,60661,1106,COOK,Supermarket,41.888374,-87.644348,NA,NA,89146,"c(-87.644348, 41.888374)"
720720,RODRIGUEZ FRUITS & VEGETABLES,2458 S Saint Louis Ave,NA,Chicago,IL,60623,3923,COOK,Grocery Store,41.846367,-87.712669,NA,NA,89361,"c(-87.712669, 41.846367)"
1101873,Whole Foods Market 10465,115 Mack Ave,NA,Detroit,MI,48201,2415,WAYNE,Super Store,42.348061,-83.056946,NA,NA,90036,"c(-83.056946, 42.348061)"
1049188,Carniceria La Hacienda No. 2 Inc,3629 W 63rd St,NA,Chicago,IL,60629,4020,COOK,Supermarket,41.778751,-87.714218,NA,NA,90400,"c(-87.714218, 41.778751)"
1441440,Yenat Enjera,1530 E McDowell Rd,NA,Phoenix,AZ,85006,2939,MARICOPA,Grocery Store,33.466042,-112.04865,NA,NA,91014,"c(-112.04865, 33.466042)"
1577500,Hook Market Inc,10600 W 7 Mile Rd,NA,Detroit,MI,48221,1969,WAYNE,Grocery Store,42.431595,-83.167976,NA,NA,91334,"c(-83.167976, 42.431595)"
893417,Target Store 1437,2939 Addison,NA,Chicago,IL,60618,4635,COOK,Super Store,41.946568,-87.701866,NA,NA,91895,"c(-87.701866, 41.946568)"
894073,Groceries Flores,5200 S California Ave,NA,Chicago,IL,60632,2242,COOK,Grocery Store,41.799034,-87.694244,NA,NA,91964,"c(-87.694244, 41.799034)"
929093,Las Isabeles Grocery,2700 S Central Park Ave,NA,Chicago,IL,60623,4632,COOK,Grocery Store,41.842499,-87.714767,NA,NA,92185,"c(-87.714767, 41.842499)"
1061541,Costco Wholesale 1107,1430 S Ashland Ave,NA,Chicago,IL,60608,2040,COOK,Super Store,41.862335,-87.666359,NA,NA,92321,"c(-87.666359, 41.862335)"
868610,Grocer Farm Market,3435 2nd Ave,NA,Detroit,MI,48201,2358,WAYNE,Grocery Store,42.343765,-83.062828,NA,NA,93028,"c(-83.062828, 42.343765)"
866926,Safeway 2821,3800 W Happy Valley Rd,NA,Phoenix,AZ,85310,    ,MARICOPA,Supermarket,33.712906,-112.13949,NA,NA,93310,"c(-112.13949, 33.712906)"
1586210,Akwaba African & Caribbean Market Llc,21308 W McNichols Rd,NA,Detroit,MI,48219,3974,WAYNE,Grocery Store,42.415054,-83.250977,NA,NA,93888,"c(-83.250977, 42.415054)"
869247,ALDI 77069 77069,6621 S Cottage Grove Ave,NA,Chicago,IL,60637,4126,COOK,Supermarket,41.774281,-87.605751,NA,NA,94658,"c(-87.605751, 41.774281)"
870388,Windy City,1756 W Chicago Ave,NA,Chicago,IL,60622,5012,COOK,Grocery Store,41.896076,-87.671417,NA,NA,94928,"c(-87.671417, 41.896076)"
1442483,Jordan First Mini Mart Inc,3608 W Chicago Ave,NA,Chicago,IL,60651,3933,COOK,Grocery Store,41.895725,-87.716759,NA,NA,95596,"c(-87.716759, 41.895725)"
895023,M & S Food Market Inc,5615 W Madison St,NA,Chicago,IL,60644,3938,COOK,Grocery Store,41.879963,-87.765495,NA,NA,95909,"c(-87.765495, 41.879963)"
895091,First Choice Market,3019 E 91st St,NA,Chicago,IL,60617,4302,COOK,Supermarket,41.73003,-87.550323,NA,NA,95996,"c(-87.550323, 41.73003)"
1136361,Mariano's 8527,2021 W Chicago Ave,NA,Chicago,IL,60622,5549,COOK,Super Store,41.895901,-87.677963,NA,NA,97162,"c(-87.677963, 41.895901)"
1108600,Little Munchkins Produce,2022 W 51st St,NA,Chicago,IL,60609,4710,COOK,Grocery Store,41.801491,-87.675568,NA,NA,97215,"c(-87.675568, 41.801491)"
1134969,Adrians's Food Market 2 Inc 1,3258 W Montrose Ave,NA,Chicago,IL,60618,1224,COOK,Grocery Store,41.961208,-87.709946,NA,NA,97334,"c(-87.709946, 41.961208)"
1135848,Cottage Grove Meat & Grocery Inc.,7458 S Cottage Grove Ave,NA,Chicago,IL,60619,1912,COOK,Grocery Store,41.758728,-87.605431,NA,NA,97405,"c(-87.605431, 41.758728)"
1107543,Walmart SuperCenter 5617,4626 W Diversey Ave,NA,Chicago,IL,60639,1829,COOK,Super Store,41.93166,-87.742905,NA,NA,97444,"c(-87.742905, 41.93166)"
1108456,Prince Valley,5931 Michigan Ave,NA,Detroit,MI,48210,3044,WAYNE,Super Store,42.331112,-83.11586,NA,Fair Food Network,97519,"c(-83.11586, 42.331112)"
1134537,Tony's Fresh Market 1167,5233 N Lincoln Ave,NA,Chicago,IL,60625,2405,COOK,Super Store,41.976883,-87.692406,NA,NA,97893,"c(-87.692406, 41.976883)"
1134643,Delobian Foods Market,7424 N Western Ave,NA,Chicago,IL,60645,1707,COOK,Grocery Store,42.01659,-87.690239,NA,NA,97985,"c(-87.690239, 42.01659)"
1443516,La Unica Foodmart Inc,1515 W Devon Ave,NA,Chicago,IL,60660,1313,COOK,Grocery Store,41.997875,-87.668564,NA,NA,98549,"c(-87.668564, 41.997875)"
899845,Jewel Food Store 0187,11730 S Marshfield Ave,NA,Chicago,IL,60643,4904,COOK,Supermarket,41.680557,-87.662514,NA,NA,99370,"c(-87.662514, 41.680557)"
1138263,Mariano'S 8515,1800 W Lawrence Ave,NA,Chicago,IL,60640,4002,COOK,Super Store,41.968845,-87.675034,NA,NA,99518,"c(-87.675034, 41.968845)"
1138264,Mariano's 8522,5201 N Sheridan Rd,NA,Chicago,IL,60640,2512,COOK,Super Store,41.97681,-87.654976,NA,NA,99522,"c(-87.654976, 41.97681)"
1066300,Sprouts Farmers Market 16,4735 E Ray Rd,Unit A001,Phoenix,AZ,85044,    ,MARICOPA,Supermarket,33.319714,-111.98251,NA,NA,100117,"c(-111.98251, 33.319714)"
1067002,Target 2799,1 S State St,NA,Chicago,IL,60603,2800,COOK,Super Store,41.881901,-87.627754,NA,NA,100195,"c(-87.627754, 41.881901)"
1017873,Trader Joe's 701,1147 South Wabash,Ste 100,Chicago,IL,60605,    ,COOK,Supermarket,41.867756,-87.625793,NA,NA,101064,"c(-87.625793, 41.867756)"
1017152,Mariano's Fresh Market 8504,3350 N Western Ave,NA,Chicago,IL,60618,6213,COOK,Super Store,41.942596,-87.688225,NA,NA,101378,"c(-87.688225, 41.942596)"
1595294,Cuates Grocery,3249 W Montrose Ave,NA,Chicago,IL,60618,1223,COOK,Grocery Store,41.960918,-87.710106,NA,NA,101748,"c(-87.710106, 41.960918)"
1142576,Walmart Neighborhood Market 2632,115 E Dunlap Ave,NA,Phoenix,AZ,85020,2841,MARICOPA,Super Store,33.567703,-112.07188,NA,NA,101760,"c(-112.07188, 33.567703)"
1079054,Ted's Fresh Market,2840 W Devon Ave,NA,Chicago,IL,60659,1513,COOK,Grocery Store,41.997566,-87.701469,NA,NA,102019,"c(-87.701469, 41.997566)"
1143004,Pete's Fresh Market 10,2333 W Madison St,NA,Chicago,IL,60612,2227,COOK,Super Store,41.881107,-87.684792,NA,NA,102612,"c(-87.684792, 41.881107)"
1145237,Mariano's 8520,3145 S Ashland Ave,NA,Chicago,IL,60608,    ,COOK,Super Store,41.83614,-87.665672,NA,NA,102776,"c(-87.665672, 41.83614)"
1152958,Jewel Food Store 3546,424 W Division St,NA,Chicago,IL,60610,1727,COOK,Supermarket,41.903725,-87.63916,NA,NA,103318,"c(-87.63916, 41.903725)"
1152960,Jewel Food Store 3538,1763 W Howard St,NA,Chicago,IL,60626,1626,COOK,Supermarket,42.017494,-87.674545,NA,NA,103320,"c(-87.674545, 42.017494)"
1068697,Grace Food Market,12055 Morang Dr,NA,Detroit,MI,48224,1621,WAYNE,Supermarket,42.426746,-82.951645,NA,NA,103683,"c(-82.951645, 42.426746)"
1152471,Mariano's 8516,2112 N Ashland Ave,NA,Chicago,IL,60614,    ,COOK,Super Store,41.919926,-87.668411,NA,NA,103915,"c(-87.668411, 41.919926)"
872325,Leamington Foods Inc,3240 W Roosevelt Rd,NA,Chicago,IL,60624,4332,COOK,Supermarket,41.866463,-87.70665,NA,NA,104556,"c(-87.70665, 41.866463)"
1114165,Universal Fruit Market,1940 W 51st St,NA,Chicago,IL,60609,4845,COOK,Grocery Store,41.801476,-87.673737,NA,NA,104660,"c(-87.673737, 41.801476)"
1238459,Eddy's Food Mart,3661 W Ogden Ave,NA,Chicago,IL,60623,2582,COOK,Grocery Store,41.853584,-87.717262,NA,NA,104850,"c(-87.717262, 41.853584)"
1116609,Wilson & Kedzie Food,4553 N Kedzie Ave,NA,Chicago,IL,60625,4553,COOK,Grocery Store,41.964527,-87.708,NA,NA,105297,"c(-87.708, 41.964527)"
1019856,Mario's Butcher Shop,5817 W Madison St,NA,Chicago,IL,60644,3840,COOK,Grocery Store,41.880123,-87.770622,NA,NA,105486,"c(-87.770622, 41.880123)"
1083707,Montrose Food Mart & Deli,6601 W Irving Park,NA,Chicago,IL,60634,    ,COOK,Super Store,41.952778,-87.791702,NA,NA,106119,"c(-87.791702, 41.952778)"
1117120,Whole Foods Market 10476,4701 N 20th St,NA,Phoenix,AZ,85016,    ,MARICOPA,Super Store,33.505699,-112.0388,NA,NA,106170,"c(-112.0388, 33.505699)"
1117938,Mariano's 8512,1615 S Clark St,NA,Chicago,IL,60616,1107,COOK,Super Store,41.859932,-87.630173,NA,NA,106525,"c(-87.630173, 41.859932)"
1239868,Andy's Deli Butcher Shop,4235 W Kinzie St,NA,Chicago,IL,60624,1716,COOK,Grocery Store,41.887672,-87.732483,NA,NA,106626,"c(-87.732483, 41.887672)"
1118100,Target Store 2613,1200 N Larrabee St,NA,Chicago,IL,60610,    ,COOK,Super Store,41.903717,-87.643272,NA,NA,106851,"c(-87.643272, 41.903717)"
1447604,Carniceria Mana,8240 W Lower Buckeye Rd,Ste 108,Phoenix,AZ,85043,7429,MARICOPA,Grocery Store,33.423512,-112.23714,NA,NA,107401,"c(-112.23714, 33.423512)"
1448585,New Austin Dollar Plus,5961 W Chicago Ave,NA,Chicago,IL,60651,2524,COOK,Grocery Store,41.894482000000004,-87.774689,NA,NA,107513,"c(-87.774689, 41.894482)"
1243727,Vitamin Cottage Natural Food Market U115,655 W Indian School Rd,NA,Phoenix,AZ,85013,3138,MARICOPA,Supermarket,33.494884,-112.08313,NA,NA,109624,"c(-112.08313, 33.494884)"
1073206,Mariano's Fresh Market 8507,5353 N Elston Ave,NA,Chicago,IL,60630,1610,COOK,Super Store,41.979218,-87.758118,NA,NA,110330,"c(-87.758118, 41.979218)"
1073215,Teresita Food,2400 S Homan Ave,NA,Chicago,IL,60623,4011,COOK,Grocery Store,41.84795,-87.710037,NA,NA,110357,"c(-87.710037, 41.84795)"
1024696,Mariano's Fresh Market 8503,333 E Benton Pl,Ste 206,Chicago,IL,60601,7411,COOK,Super Store,41.885475,-87.618462,NA,NA,110801,"c(-87.618462, 41.885475)"
1025304,Star Light Food Market II,2832 S Wentworth Ave,NA,Chicago,IL,60616,2706,COOK,Grocery Store,41.841602,-87.632164,NA,NA,110887,"c(-87.632164, 41.841602)"
1089138,Sprouts Farmers Market 17,1625 E Glendale Ave,NA,Phoenix,AZ,85020,5521,MARICOPA,Supermarket,33.538208,-112.04625,NA,NA,111014,"c(-112.04625, 33.538208)"
1090829,Bronzville Finer Foods,232 E 35th St,NA,Chicago,IL,60616,3913,COOK,Grocery Store,41.831131,-87.620445,NA,NA,112568,"c(-87.620445, 41.831131)"
1646801,107th Food Mart,10701 S Wentworth Ave,NA,Chicago,IL,60628,3342,COOK,Grocery Store,41.69968,-87.627747,NA,NA,113298,"c(-87.627747, 41.69968)"
1076820,Mariano's Fresh Market 8508,40 S Halsted St,NA,Chicago,IL,60661,3506,COOK,Super Store,41.880939,-87.647415,NA,NA,113578,"c(-87.647415, 41.880939)"
1188640,Smart & Final 720,3434 W Greenway Rd,NA,Phoenix,AZ,85053,    ,MARICOPA,Super Store,33.625309,-112.13247,NA,NA,113683,"c(-112.13247, 33.625309)"
1091977,Devries & Co. 1887,2468 Market St,NA,Detroit,MI,48207,4516,WAYNE,Grocery Store,42.3461,-83.039009,NA,NA,113686,"c(-83.039009, 42.3461)"
1188655,Sprouts Farmers Market 30,5455 E High St,Ste 107,Phoenix,AZ,85054,5464,MARICOPA,Supermarket,33.675274,-111.96326,NA,NA,113701,"c(-111.96326, 33.675274)"
1074889,Target 2781,1101 W Jackson Blvd,NA,Chicago,IL,60607,2905,COOK,Super Store,41.877811,-87.65493,NA,NA,113849,"c(-87.65493, 41.877811)"
1092313,El Super Rancho,4501 N 27th Ave,NA,Phoenix,AZ,85017,3702,MARICOPA,Grocery Store,33.502541,-112.11699,NA,NA,113937,"c(-112.11699, 33.502541)"
1215258,Target Store 3207,401 E Illinois St,NA,Chicago,IL,60611,    ,COOK,Super Store,41.891045,-87.617188,NA,NA,114360,"c(-87.617188, 41.891045)"
1214933,Carniceria La Hacienda No.3 Inc.,2744 W 55th St,NA,Chicago,IL,60632,2252,COOK,Grocery Store,41.793739,-87.693184,NA,NA,114479,"c(-87.693184, 41.793739)"
1215585,Gogo Food Market,1800 S Pulaski Rd,NA,Chicago,IL,60623,2846,COOK,Grocery Store,41.856915,-87.725166,NA,NA,114743,"c(-87.725166, 41.856915)"
1217365,Fresh Thyme Market 107CHI,2500 N Elston Ave,NA,Chicago,IL,60647,2004,COOK,Super Store,41.926853,-87.680115,NA,NA,115049,"c(-87.680115, 41.926853)"
1218036,Mariano's 8534,1500 N Clybourn Ave,NA,Chicago,IL,60610,1095,COOK,Super Store,41.908092,-87.645645,NA,NA,115112,"c(-87.645645, 41.908092)"
1189244,Whole Foods Market 10572,1 N Halsted St,NA,Chicago,IL,60661,2176,COOK,Super Store,41.881874,-87.647324,NA,NA,115123,"c(-87.647324, 41.881874)"
1217286,Daallo Meat & Grocery,2742 W Devon Ave,NA,Chicago,IL,60659,1711,COOK,Grocery Store,41.99762,-87.698883,NA,NA,115781,"c(-87.698883, 41.99762)"
1191556,Smart & Final 721,13823 N Tatum Blvd,NA,Phoenix,AZ,85032,5533,MARICOPA,Super Store,33.612377,-111.97778,NA,NA,115950,"c(-111.97778, 33.612377)"
1521973,Carniceria Rancho Alegre,4340 W Mcdowell Rd,Ste 2,Phoenix,AZ,85035,4225,MARICOPA,Grocery Store,33.466377,-112.15353,NA,NA,116202,"c(-112.15353, 33.466377)"
1221897,Moses Butcher Shop Inc,5057 W Division St,NA,Chicago,IL,60651,3034,COOK,Grocery Store,41.902252,-87.753044,NA,NA,116601,"c(-87.753044, 41.902252)"
1557898,One Stop Shop Food Market Inc,3951 N Kimball Ave,Ste A,Chicago,IL,60618,4367,COOK,Grocery Store,41.953552,-87.712677,NA,NA,116800,"c(-87.712677, 41.953552)"
1522500,Supermercado La Gloria,4117 S Kedzie Ave,NA,Chicago,IL,60632,2413,COOK,Grocery Store,41.818348,-87.704041,NA,NA,116966,"c(-87.704041, 41.818348)"
1130123,Parkway Foods,11250 E Jefferson Ave,NA,Detroit,MI,48214,3301,WAYNE,Super Store,42.366543,-82.971306,NA,Fair Food Network,117395,"c(-82.971306, 42.366543)"
1128410,Jewel Food Store 4500,1340 S Canal St,NA,Chicago,IL,60607,5208,COOK,Supermarket,41.865025,-87.639252,NA,NA,117624,"c(-87.639252, 41.865025)"
1128412,Jewel Food Store 0202,2550 N Clybourn Ave,NA,Chicago,IL,60614,1941,COOK,Supermarket,41.927776,-87.672989,NA,NA,117633,"c(-87.672989, 41.927776)"
1635982,Market Pam Tropical,5540 W North Ave,Ste 1,Chicago,IL,60639,4242,COOK,Grocery Store,41.909714,-87.764587,NA,NA,118846,"c(-87.764587, 41.909714)"
974611,Adams Food Mart,6810 S Stony Island Ave,NA,Chicago,IL,60649,1424,COOK,Grocery Store,41.771294,-87.586327,NA,NA,119172,"c(-87.586327, 41.771294)"
972390,Up Town Shop & Save Inc,4605 N Sheridan Rd,NA,Chicago,IL,60640,5019,COOK,Grocery Store,41.965549,-87.654686,NA,NA,119274,"c(-87.654686, 41.965549)"
972130,Jewel Food Store 3632,3630 N Southport Ave,NA,Chicago,IL,60613,3710,COOK,Supermarket,41.947636,-87.664024,NA,NA,119789,"c(-87.664024, 41.947636)"
1226040,Satina World Market,2056 W Devon Ave,NA,Chicago,IL,60659,2128,COOK,Grocery Store,41.997898,-87.682381,NA,NA,120243,"c(-87.682381, 41.997898)"
1223930,Save-a-lot Of Conner 24846,4703 Conner St,NA,Detroit,MI,48215,2028,WAYNE,Supermarket,42.387947,-82.972488,NA,Fair Food Network,120275,"c(-82.972488, 42.387947)"
1195005,Gns Foods Inc.,4092 N Broadway St,NA,Chicago,IL,60613,2116,COOK,Grocery Store,41.956791,-87.652,NA,NA,120340,"c(-87.652, 41.956791)"
1194554,Whole Foods Market 10568,6009 N Broadway St,NA,Chicago,IL,60660,2500,COOK,Super Store,41.990883,-87.660278,NA,NA,120650,"c(-87.660278, 41.990883)"
1524105,Wabash Seafood Market,29 E 71st St,NA,Chicago,IL,60619,1029,COOK,Grocery Store,41.765415,-87.623795,NA,NA,120847,"c(-87.623795, 41.765415)"
1032135,Jola & Hetman Deli Ltd,5513 W Belmont Ave,NA,Chicago,IL,60641,4130,COOK,Grocery Store,41.938564,-87.764641,NA,NA,121384,"c(-87.764641, 41.938564)"
1034429,Dollar Store Of Livernois,6415 W Vernor Hwy,NA,Detroit,MI,48209,2003,WAYNE,Grocery Store,42.31554,-83.111725,NA,NA,122720,"c(-83.111725, 42.31554)"
1274399,Green Line Food Mart,7701 S Racine Ave,NA,Chicago,IL,60620,2927,COOK,Grocery Store,41.753994,-87.653511,NA,NA,122970,"c(-87.653511, 41.753994)"
1037183,Mini Azteca,6924 N Clark St,NA,Chicago,IL,60626,3209,COOK,Grocery Store,42.007393,-87.67363,NA,NA,123317,"c(-87.67363, 42.007393)"
1249651,Whole Foods Market 10458,5118 S Lake Park Ave,NA,Chicago,IL,60615,4115,COOK,Super Store,41.801929,-87.587738,NA,NA,124089,"c(-87.587738, 41.801929)"
1250651,S & T Fresh Fish & Seafood 2 Inc,11395 E McNichols Rd,NA,Detroit,MI,48234,3962,WAYNE,Grocery Store,42.420155,-83.006584,NA,NA,124140,"c(-83.006584, 42.420155)"
1312192,Carniceria La Villa No. 2,5800 W Grand Ave,NA,Chicago,IL,60639,2813,COOK,Grocery Store,41.919743,-87.771019,NA,NA,124237,"c(-87.771019, 41.919743)"
1275636,FRY'S #694,2800 W Dove Valley Rd,NA,Phoenix,AZ,85085,5246,MARICOPA,Super Store,33.783962,-112.11555,NA,NA,124608,"c(-112.11555, 33.783962)"
1312427,Mg Old Fashion Meat Market Inc,7141 S State St,NA,Chicago,IL,60619,1017,COOK,Grocery Store,41.764282,-87.624855,NA,NA,124689,"c(-87.624855, 41.764282)"
1312974,Mibamyittar Grocery Store,6342 N Washtenaw Ave,NA,Chicago,IL,60659,1710,COOK,Grocery Store,41.996864,-87.697517,NA,NA,124696,"c(-87.697517, 41.996864)"
597149,Save A Lot 61316,4439 W 63rd St,NA,Chicago,IL,60629,5548,COOK,Supermarket,41.778267,-87.734047,NA,NA,125145,"c(-87.734047, 41.778267)"
1342693,La Victoria Super Carniceria,5109 W Thomas Rd,Ste 202,Phoenix,AZ,85031,3944,MARICOPA,Grocery Store,33.479218,-112.16982,NA,NA,125370,"c(-112.16982, 33.479218)"
1342760,Centrals Finer Foods,345 N Central Ave,Unit A,Chicago,IL,60644,2268,COOK,Grocery Store,41.886738,-87.765045,NA,NA,125560,"c(-87.765045, 41.886738)"
1343082,Manny's Groceries & More Corp,11543 S Michigan Ave,NA,Chicago,IL,60628,5642,COOK,Grocery Store,41.684067,-87.620667,NA,NA,125932,"c(-87.620667, 41.684067)"
1277849,Whole Foods Market 10643,3201 N Ashland Ave,NA,Chicago,IL,60657,2156,COOK,Super Store,41.940441,-87.668655,NA,California Department of Food and Agriculture,126324,"c(-87.668655, 41.940441)"
1200017,Meijer 286,21431 Grand River Ave,NA,Detroit,MI,48219,3801,WAYNE,Super Store,42.414253,-83.252075,Waiver,NA,127279,"c(-83.252075, 42.414253)"
1314295,La Bodega,5900 W Montrose Ave,NA,Chicago,IL,60634,1625,COOK,Grocery Store,41.960403,-87.774734,NA,NA,127906,"c(-87.774734, 41.960403)"
1344171,Stock 'n Save 1 Inc.,4535 W Armitage Ave,NA,Chicago,IL,60639,3403,COOK,Grocery Store,41.916748,-87.740112,NA,NA,128300,"c(-87.740112, 41.916748)"
1232084,Teresita's Grocery 1,2857 S Kedvale Ave,NA,Chicago,IL,60623,4362,COOK,Grocery Store,41.83881,-87.727753,NA,NA,128804,"c(-87.727753, 41.83881)"
1179547,Save-A-Lot Hayes 45045,15001 Houston Whittier St,NA,Detroit,MI,48205,4126,WAYNE,Supermarket,42.420788,-82.966515,NA,Fair Food Network,129297,"c(-82.966515, 42.420788)"
1438979,Supermercado La Raza 1,1645 W 47th St,NA,Chicago,IL,60609,3248,COOK,Grocery Store,41.808331,-87.666702,NA,NA,129627,"c(-87.666702, 41.808331)"
1344801,J And A Gas Mart Inc,210 W 103rd St,NA,Chicago,IL,60628,2502,COOK,Grocery Store,41.707481,-87.628876,NA,NA,129677,"c(-87.628876, 41.707481)"
1280954,Sunnyside Stop,4501 N Kedzie Ave,NA,Chicago,IL,60625,4592,COOK,Grocery Store,41.963184,-87.707977,NA,NA,129876,"c(-87.707977, 41.963184)"
1282523,Carniceria La Herradura,10720 W Indian School Rd,Ste 58,Phoenix,AZ,85037,5724,MARICOPA,Grocery Store,33.493629,-112.29147,NA,NA,130641,"c(-112.29147, 33.493629)"
1282598,Garden Fresh Market,6680 Michigan Ave,NA,Detroit,MI,48210,2826,WAYNE,Supermarket,42.331177,-83.126045,NA,Fair Food Network,130655,"c(-83.126045, 42.331177)"
1202958,Big Apple Finer Foods,2345 N Clark St,NA,Chicago,IL,60614,3492,COOK,Supermarket,41.924801,-87.639946,NA,NA,131731,"c(-87.639946, 41.924801)"
1320374,King Cole Foods,40 Clairmount St,NA,Detroit,MI,48202,1507,WAYNE,Super Store,42.382637,-83.082413,NA,NA,132016,"c(-83.082413, 42.382637)"
1320449,Cactus International Mart,12450 N 35th Ave,Ste 1,Phoenix,AZ,85029,3180,MARICOPA,Grocery Store,33.599007,-112.134,NA,NA,132033,"c(-112.134, 33.599007)"
1316870,International African Grocery,23689 W 7 Mile Rd,NA,Detroit,MI,48219,1728,WAYNE,Grocery Store,42.428989,-83.274391,NA,NA,132242,"c(-83.274391, 42.428989)"
1605286,North Loop Market,300 N State St,Ste 1C,Chicago,IL,60654,3070,COOK,Grocery Store,41.887959,-87.629135,NA,NA,132348,"c(-87.629135, 41.887959)"
1319324,Cremeria La Ordena  Llc 1,5954 S Pulaski Rd,NA,Chicago,IL,60629,4516,COOK,Grocery Store,41.784325,-87.723297,NA,NA,132466,"c(-87.723297, 41.784325)"
1181254,Save A Lot 61312,10700 S Halsted St,NA,Chicago,IL,60628,3108,COOK,Supermarket,41.699429,-87.6427,NA,NA,133124,"c(-87.6427, 41.699429)"
1346943,La Super Carniceria Llc,2535 E Bell Rd,Ste 3,Phoenix,AZ,85032,2434,MARICOPA,Grocery Store,33.640408,-112.02728,NA,NA,133272,"c(-112.02728, 33.640408)"
1346776,Sonora Meats Inc,4135 W 26th St,NA,Chicago,IL,60623,4314,COOK,Grocery Store,41.84417,-87.728394,NA,NA,133587,"c(-87.728394, 41.84417)"
1182558,Family African Market 1,20727 W 7 Mile Rd,NA,Detroit,MI,48219,2506,WAYNE,Grocery Store,42.429302,-83.246559,NA,NA,133899,"c(-83.246559, 42.429302)"
1285421,Casa Roman,6978 N Clark St,NA,Chicago,IL,60626,3221,COOK,Grocery Store,42.008823,-87.673958,NA,NA,134829,"c(-87.673958, 42.008823)"
1526487,Obama Fresh Fish & Seafood 1,19001 Telegraph Rd,NA,Detroit,MI,48219,2299,WAYNE,Grocery Store,42.427883,-83.278137,NA,NA,135268,"c(-83.278137, 42.427883)"
1526606,Day and Night Groceries Inc 1,6403 N Oakley Ave,NA,Chicago,IL,60645,5417,COOK,Grocery Store,41.998009,-87.687225,NA,NA,135345,"c(-87.687225, 41.998009)"
1208028,Iguala Grocery,2700 W Francis Pl,NA,Chicago,IL,60647,    ,COOK,Grocery Store,41.919285,-87.694389,NA,NA,135514,"c(-87.694389, 41.919285)"
983016,Amish & Healthy Foods Inc.,1025 N Western Ave,NA,Chicago,IL,60622,3566,COOK,Grocery Store,41.900097,-87.68689,NA,NA,135977,"c(-87.68689, 41.900097)"
1375795,Park To Shop Supermarket Broadway,4879 N Broadway St,NA,Chicago,IL,60640,3603,COOK,Super Store,41.971268,-87.659676,NA,NA,136236,"c(-87.659676, 41.971268)"
1375806,Park To Shop Supermarket Canal,1835 S Canal St,NA,Chicago,IL,60616,1522,COOK,Grocery Store,41.856533,-87.638374,NA,NA,136244,"c(-87.638374, 41.856533)"
1375536,Fry's 88,100 E Jefferson St,NA,Phoenix,AZ,85004,2752,MARICOPA,Super Store,33.447189,-112.07249,NA,NA,136954,"c(-112.07249, 33.447189)"
1184828,Walmart Neighborhood Market 3110,7535 S Ashland Ave,NA,Chicago,IL,60620,4246,COOK,Super Store,41.757259,-87.663551,NA,NA,137108,"c(-87.663551, 41.757259)"
1183720,Dollar Inn Plus Inc ,2758 W Devon Ave,NA,Chicago,IL,60659,1711,COOK,Grocery Store,41.997753,-87.699448,NA,NA,137189,"c(-87.699448, 41.997753)"
1348667,Carneceria Iguala Guerrero,2714 W Cermak Rd,NA,Chicago,IL,60608,3510,COOK,Grocery Store,41.851944,-87.693741,NA,NA,137564,"c(-87.693741, 41.851944)"
1348811,J & J Fruit Market Inc,2732 W Cermak Rd,NA,Chicago,IL,60608,3528,COOK,Grocery Store,41.851933,-87.694443,NA,NA,137839,"c(-87.694443, 41.851933)"
1092766,Kostner Food Basket,24 S Kostner Ave,NA,Chicago,IL,60624,2521,COOK,Grocery Store,41.880375,-87.735512,NA,NA,137850,"c(-87.735512, 41.880375)"
1347639,Burma Asia Market Llc 2,3525 W Northern Ave,NA,Phoenix,AZ,85051,5836,MARICOPA,Grocery Store,33.553051,-112.13585,NA,NA,137913,"c(-112.13585, 33.553051)"
1570703,Carniceria Los Reyes 3 Llc 3,1925 W Camelback Rd,NA,Phoenix,AZ,85015,3439,MARICOPA,Grocery Store,33.509083,-112.10053,NA,NA,139123,"c(-112.10053, 33.509083)"
1527943,Tasty Spot Food & Grill On 67,1508 E 67th St,NA,Chicago,IL,60637,4427,COOK,Grocery Store,41.773579,-87.588432,NA,NA,139318,"c(-87.588432, 41.773579)"
1392805,Yasha From Russia,10240 N 32nd St,NA,Phoenix,AZ,85028,3823,MARICOPA,Grocery Store,33.58036,-112.01308,NA,NA,139387,"c(-112.01308, 33.58036)"
1393713,Frank's Meat & Produce,3405 Russell St,NA,Detroit,MI,48207,2035,WAYNE,Grocery Store,42.350521,-83.043411,NA,NA,139463,"c(-83.043411, 42.350521)"
1393307,J Freshmart Inc,2411 S Wallace St,NA,Chicago,IL,60616,1855,COOK,Grocery Store,41.849045,-87.641479,NA,NA,139825,"c(-87.641479, 41.849045)"
1393976,Chatham Meat & Grocery Inc,8211 S Cottage Grove Ave,NA,Chicago,IL,60619,5301,COOK,Grocery Store,41.745293,-87.605011,NA,NA,139925,"c(-87.605011, 41.745293)"
1630790,Rose Foods Market,821 S Pulaski Rd,NA,Chicago,IL,60624,4032,COOK,Grocery Store,41.870361,-87.725082,NA,NA,139954,"c(-87.725082, 41.870361)"
1325114,Michigan Food Center Inc,5539 S Michigan Ave,NA,Chicago,IL,60637,1012,COOK,Grocery Store,41.79324,-87.622131,NA,NA,140172,"c(-87.622131, 41.79324)"
1265749,Carniceria El Rancho Grande Llc,4227 S Central Ave,NA,Phoenix,AZ,85040,1023,MARICOPA,Supermarket,33.407467,-112.07326,NA,NA,141489,"c(-112.07326, 33.407467)"
1559498,Guerrero Foods Inc,2858 S Pulaski Rd,NA,Chicago,IL,60623,4455,COOK,Grocery Store,41.838886,-87.724678,NA,NA,141740,"c(-87.724678, 41.838886)"
1368659,Yado African And Caribbean Market,1651 E 87th St,NA,Chicago,IL,60617,2728,COOK,Grocery Store,41.736874,-87.583176,NA,NA,141838,"c(-87.583176, 41.736874)"
1300546,H Mart Chicago Llc,711 W Jackson Blvd,NA,Chicago,IL,60661,5414,COOK,Super Store,41.877941,-87.644714,NA,NA,142037,"c(-87.644714, 41.877941)"
1300162,Target 3214,3300 N Ashland Ave,NA,Chicago,IL,60657,2109,COOK,Super Store,41.942131,-87.668777,NA,NA,142543,"c(-87.668777, 41.942131)"
1301426,El Super 55,2211 W Camelback Rd,NA,Phoenix,AZ,85015,3446,MARICOPA,Supermarket,33.509521,-112.10735,NA,NA,142546,"c(-112.10735, 33.509521)"
1327017,A+ Store Inc.,4445 N Sheridan Rd,NA,Chicago,IL,60640,5619,COOK,Supermarket,41.963329,-87.654358,NA,NA,142712,"c(-87.654358, 41.963329)"
1396967,Abc Mart N/A,4801 N 19th Ave,Ste 8,Phoenix,AZ,85015,7423,MARICOPA,Grocery Store,33.508099,-112.09905,GusNIP,Pinnacle Prevention Corp.,143085,"c(-112.09905, 33.508099)"
972499,Summer Market Llc,13815 N 7th St,NA,Phoenix,AZ,85022,4386,MARICOPA,Grocery Store,33.611977,-112.06534,NA,NA,143814,"c(-112.06534, 33.611977)"
990664,Rio Grande Fruit Market Inc,3501 W North Ave,NA,Chicago,IL,60647,4808,COOK,Grocery Store,41.909794,-87.714561,NA,NA,144872,"c(-87.714561, 41.909794)"
1327415,Target T3307,1664 W Division St,NA,Chicago,IL,60622,3922,COOK,Super Store,41.903305,-87.670036,NA,NA,145394,"c(-87.670036, 41.903305)"
1328221,Stop & Go Deli 2 Liquor,3205 W McNichols Rd,NA,Detroit,MI,48221,3042,WAYNE,Grocery Store,42.417229,-83.133156,NA,NA,145615,"c(-83.133156, 42.417229)"
1328850,Gordon Food Service Store MP206,2760 E Jefferson Ave,NA,Detroit,MI,48207,4106,WAYNE,Supermarket,42.33884,-83.021057,NA,NA,145992,"c(-83.021057, 42.33884)"
1638480,Mercadito La Monarca,2732 W 59th St,"Floor 1, Apt./suite 1G",Chicago,IL,60629,1508,COOK,Grocery Store,41.786613,-87.692604,NA,NA,146072,"c(-87.692604, 41.786613)"
1252456,Target 3221,2650 N Clark St,NA,Chicago,IL,60614,1523,COOK,Super Store,41.931282,-87.644302,NA,NA,146550,"c(-87.644302, 41.931282)"
1253317,Nicholas High Quality Meats,4619 W Harrison St,NA,Chicago,IL,60644,5121,COOK,Supermarket,41.873196,-87.740921,NA,NA,146724,"c(-87.740921, 41.873196)"
1596612,Shwe Mitharsu Asian Mart,7110 N 35th Ave,NA,Phoenix,AZ,85051,8312,MARICOPA,Grocery Store,33.541042,-112.13495,NA,NA,147217,"c(-112.13495, 33.541042)"
1359752,71st & State Food & Liquor Inc.,7131 S State St,NA,Chicago,IL,60619,1017,COOK,Grocery Store,41.764584,-87.624527,NA,NA,147379,"c(-87.624527, 41.764584)"
1148345,Panaderia Y Tortilleria Guerrero LLC,2829 N 32nd St,Ste 103,Phoenix,AZ,85008,1264,MARICOPA,Grocery Store,33.479351,-112.01289,NA,NA,147489,"c(-112.01289, 33.479351)"
1323522,Meat Market,13503 W McNichols Rd,NA,Detroit,MI,48235,4155,WAYNE,Supermarket,42.416527,-83.178711,NA,NA,147602,"c(-83.178711, 42.416527)"
1359569,Rahmat Grocery & Meat,2158 W Devon Ave,NA,Chicago,IL,60659,2127,COOK,Grocery Store,41.998051,-87.684822,NA,NA,147762,"c(-87.684822, 41.998051)"
1350065,Jonkia Enterprises Llc,2425 S Wallace St,NA,Chicago,IL,60616,1855,COOK,Grocery Store,41.848736,-87.642006,NA,NA,147854,"c(-87.642006, 41.848736)"
1642201,Zaad Bladna Inc 1,9557 S Jeffery Ave,NA,Chicago,IL,60617,4729,COOK,Grocery Store,41.721218,-87.574898,NA,NA,147915,"c(-87.574898, 41.721218)"
1564042,Jacky Shop 4 Less Inc. 02,3635 W Diversey Ave,NA,Chicago,IL,60647,1161,COOK,Grocery Store,41.931694,-87.718582,NA,NA,148294,"c(-87.718582, 41.931694)"
1350588,H & J Warehouse Inc.,5114 S Racine Ave,NA,Chicago,IL,60609,5011,COOK,Grocery Store,41.800507,-87.655067,NA,NA,148297,"c(-87.655067, 41.800507)"
1372290,Racine One Stop Food Inc,7357 S Racine Ave,NA,Chicago,IL,60636,4111,COOK,Grocery Store,41.75983,-87.653938,NA,NA,148334,"c(-87.653938, 41.75983)"
1563307,Paulina Certified,7622 N Paulina St,NA,Chicago,IL,60626,1018,COOK,Grocery Store,42.020168,-87.673424,NA,NA,149015,"c(-87.673424, 42.020168)"
1306075,Los Altos Ranch Market 6,3415 W Glendale Ave,Ste 15A,Phoenix,AZ,85051,8387,MARICOPA,Super Store,33.538475,-112.13239,NA,NA,149544,"c(-112.13239, 33.538475)"
1306076,Los Altos Ranch Market 5,3223 W Indian School Rd,NA,Phoenix,AZ,85017,4070,MARICOPA,Super Store,33.494907,-112.12788,NA,NA,149545,"c(-112.12788, 33.494907)"
1306078,Los Altos Ranch Market 3,1602 E Roosevelt St,NA,Phoenix,AZ,85006,3678,MARICOPA,Super Store,33.458702,-112.0449,NA,NA,149547,"c(-112.0449, 33.458702)"
1306079,Los Altos Ranch Market 2,5802 W Thomas Rd,NA,Phoenix,AZ,85031,3229,MARICOPA,Super Store,33.48061,-112.18488,NA,NA,149548,"c(-112.18488, 33.48061)"
1306080,Los Altos Ranch Market 1,5833 S Central Ave,NA,Phoenix,AZ,85040,3054,MARICOPA,Super Store,33.393494,-112.07321,NA,NA,149549,"c(-112.07321, 33.393494)"
1378597,Hello Cherry Asian Grocery,6354 N Oakley Ave,NA,Chicago,IL,60659,2006,COOK,Grocery Store,41.997509,-87.68766,NA,NA,149693,"c(-87.68766, 41.997509)"
1378665,Cermak Produce,4804 W Diversey Ave,NA,Chicago,IL,60639,1704,COOK,Super Store,41.931606,-87.746796,NA,NA,149736,"c(-87.746796, 41.931606)"
1257260,Mariano's 8538,3030 N Broadway St,Ste 100,Chicago,IL,60657,5316,COOK,Super Store,41.937393,-87.644325,NA,NA,150170,"c(-87.644325, 41.937393)"
1255456,Gordon Food Service Store MP169,6431 W Fullerton Ave,NA,Chicago,IL,60707,3405,COOK,Supermarket,41.923641,-87.786812,NA,NA,150292,"c(-87.786812, 41.923641)"
1256369,Seafood City Supermarket 25,5033 N Elston Ave,NA,Chicago,IL,60630,1707,COOK,Supermarket,41.972172,-87.746696,NA,NA,150417,"c(-87.746696, 41.972172)"
1398979,Al Rahma Grocery And Halal Foods,2937 E McDowell Rd,NA,Phoenix,AZ,85008,3618,MARICOPA,Grocery Store,33.465748,-112.01792,NA,NA,150650,"c(-112.01792, 33.465748)"
1399232,Ny Fish And Chicken,2748 W Madison St,NA,Chicago,IL,60612,2036,COOK,Grocery Store,41.881439,-87.695831,NA,NA,150746,"c(-87.695831, 41.881439)"
1361636,Farmer's Fresh Market Placeinc,6420 W Fullerton Ave,NA,Chicago,IL,60707,3598,COOK,Super Store,41.925198,-87.786972,NA,NA,151509,"c(-87.786972, 41.925198)"
969343,Rosy's Bakery,3237 W 26th St,NA,Chicago,IL,60623,4034,COOK,Grocery Store,41.844238,-87.706505,NA,NA,151549,"c(-87.706505, 41.844238)"
1361257,H & I Pina Inc,4173 S Archer Ave,NA,Chicago,IL,60632,1870,COOK,Grocery Store,41.817516,-87.698128,NA,NA,151617,"c(-87.698128, 41.817516)"
1399396,Target Store T3317,2434 N Sacramento Ave,NA,Chicago,IL,60647,    ,COOK,Super Store,41.925861,-87.702408,NA,NA,151673,"c(-87.702408, 41.925861)"
1374762,Pete's Wholesale,656 E 75th St,NA,Chicago,IL,60619,2243,COOK,Grocery Store,41.758556,-87.608086,NA,NA,152194,"c(-87.608086, 41.758556)"
1379309,Fresh Stop Produce And Market,930 W Belmont Ave,NA,Chicago,IL,60657,4493,COOK,Grocery Store,41.939968,-87.652832,NA,NA,152443,"c(-87.652832, 41.939968)"
1378865,Asian Grocery Store,2650 W Glenrosa Ave,Ste 10,Phoenix,AZ,85017,4387,MARICOPA,Grocery Store,33.498611,-112.11646,NA,NA,152520,"c(-112.11646, 33.498611)"
1351596,Food Market & Flowers Inc. 43060595,5354 W Diversey Ave,NA,Chicago,IL,60639,1513,COOK,Grocery Store,41.931381,-87.760963,NA,NA,152544,"c(-87.760963, 41.931381)"
1569550,Baba's Mini Market Inc,1002 W 63rd St,NA,Chicago,IL,60621,1314,COOK,Grocery Store,41.779934,-87.649864,NA,NA,152823,"c(-87.649864, 41.779934)"
1380245,Trader Joe's 706,1528 E 55th St,NA,Chicago,IL,60615,    ,COOK,Supermarket,41.795807,-87.58847,NA,NA,153290,"c(-87.58847, 41.795807)"
1379935,Rangoon Burma Llc,6347 N Rockwell St,NA,Chicago,IL,60659,1801,COOK,Grocery Store,41.996998,-87.694687,NA,NA,153383,"c(-87.694687, 41.996998)"
1258040,Tony's Fresh Market 1667,5630 W Belmont Ave,NA,Chicago,IL,60634,5301,COOK,Super Store,41.93858,-87.767952,NA,NA,153490,"c(-87.767952, 41.93858)"
1458226,Target Store T3402,630 N la Salle Dr,NA,Chicago,IL,60654,3725,COOK,Super Store,41.893356,-87.632698,NA,NA,154056,"c(-87.632698, 41.893356)"
1458639,La Hacienda Brands Inc,2420 S Wood St,NA,Chicago,IL,60608,5306,COOK,Super Store,41.847179,-87.671425,NA,NA,154743,"c(-87.671425, 41.847179)"
1363397,Mercado Y Carniceria Sepulveda,1612 W Bell Rd,NA,Phoenix,AZ,85023,3412,MARICOPA,Grocery Store,33.64048,-112.094,NA,NA,155547,"c(-112.094, 33.64048)"
1383762,Local Market,2101 E 71st St,Ste E,Chicago,IL,60649,2119,COOK,Super Store,41.764954,-87.574394,NA,NA,155652,"c(-87.574394, 41.764954)"
1263148,Target 3219,1346 E 53rd St,NA,Chicago,IL,60615,4046,COOK,Super Store,41.799557,-87.593155,NA,NA,156240,"c(-87.593155, 41.799557)"
1385016,Harper Foods,1455 E 57th St,NA,Chicago,IL,60637,1868,COOK,Grocery Store,41.79134,-87.589325,NA,NA,156408,"c(-87.589325, 41.79134)"
1261813,Mariano's 8539,3857 S Dr Martin Luther Jr Dr,NA,Chicago,IL,60653,    ,COOK,Super Store,41.824615,-87.616661,NA,NA,156765,"c(-87.616661, 41.824615)"
1387726,Palms Market,3502 W Greenway Rd,Ste 2,Phoenix,AZ,85053,3847,MARICOPA,Grocery Store,33.625298,-112.13458,NA,NA,157452,"c(-112.13458, 33.625298)"
1387850,Martha's Fresh Market,5958 W Addison St,NA,Chicago,IL,60634,4213,COOK,Grocery Store,41.945976,-87.776337,NA,NA,157743,"c(-87.776337, 41.945976)"
1427060,Super Shopper Food Mart,1351 W 79th St,NA,Chicago,IL,60620,3713,COOK,Grocery Store,41.750214,-87.658157,NA,NA,158092,"c(-87.658157, 41.750214)"
1460312,Valle's Produce #5,6110 W 63rd St,NA,Chicago,IL,60638,4302,COOK,Grocery Store,41.778168,-87.774452,NA,NA,158809,"c(-87.774452, 41.778168)"
1460341,Cermak Fresh Markt,5129 W Belmont Ave,NA,Chicago,IL,60641,4207,COOK,Super Store,41.93845,-87.755577,NA,NA,158842,"c(-87.755577, 41.93845)"
1460488,La Esmeralda ,1005 N Pulaski Rd,Floor 1,Chicago,IL,60651,3641,COOK,Grocery Store,41.899254,-87.72596,NA,NA,158889,"c(-87.72596, 41.899254)"
1568178,Adas Food Market Incorporated,3103 W 63rd St,NA,Chicago,IL,60629,5900,COOK,Grocery Store,41.778931,-87.701088,NA,NA,159555,"c(-87.701088, 41.778931)"
1353163,Evelyn's Food Market,1001 N Pulaski Rd,NA,Chicago,IL,60651,3641,COOK,Grocery Store,41.899139,-87.726135,NA,NA,159848,"c(-87.726135, 41.899139)"
1364360,Annabella Inc,5250 W Fullerton Ave,NA,Chicago,IL,60639,1402,COOK,Grocery Store,41.924122,-87.758156,NA,NA,159979,"c(-87.758156, 41.924122)"
1389976,Fresh Market Place  3,5020 W Fullerton Ave,NA,Chicago,IL,60639,2414,COOK,Supermarket,41.924225,-87.752083,NA,NA,160551,"c(-87.752083, 41.924225)"
1390208,Daily Catch Fish Chicken Plus Seafood,14308 Gratiot Ave,NA,Detroit,MI,48205,2305,WAYNE,Grocery Store,42.435375,-82.977432,NA,NA,160785,"c(-82.977432, 42.435375)"
1390379,Sheeba Meat & Grocery,4307 W Lawrence Ave,NA,Chicago,IL,60630,2652,COOK,Grocery Store,41.968121,-87.735855,NA,NA,161524,"c(-87.735855, 41.968121)"
1330538,Sprouts Farmers Market 41,3320 N 7th Ave,NA,Phoenix,AZ,85013,4170,MARICOPA,Supermarket,33.486813,-112.08321,NA,NA,161661,"c(-112.08321, 33.486813)"
1330319,South Shore Mini Mart Inc,7603 S South Chicago Ave,NA,Chicago,IL,60619,3432,COOK,Grocery Store,41.756893,-87.5924,NA,NA,161914,"c(-87.5924, 41.756893)"
1354045,Jewel Food Store 3082,6014 S Cottage Grove Ave,NA,Chicago,IL,60637,2526,COOK,Supermarket,41.784634,-87.606049,NA,NA,162653,"c(-87.606049, 41.784634)"
1580785,Papaya Detroit Llc,16336 W Warren Ave,NA,Detroit,MI,48228,3703,WAYNE,Super Store,42.343807,-83.205475,NA,NA,162770,"c(-83.205475, 42.343807)"
1381607,Carniceria La Hacienda 1,7215 W Indian School Rd,NA,Phoenix,AZ,85033,3135,MARICOPA,Grocery Store,33.494656,-112.21432,NA,NA,163542,"c(-112.21432, 33.494656)"
1463508,Anmol Meat & Grocery,2906 W Devon Ave,NA,Chicago,IL,60659,1508,COOK,Grocery Store,41.997719,-87.702522,NA,NA,164076,"c(-87.702522, 41.997719)"
1569881,Nakhil Palace,6014 W Irving Park Rd,NA,Chicago,IL,60634,2520,COOK,Grocery Store,41.953308,-87.777504,NA,NA,164443,"c(-87.777504, 41.953308)"
1462975,Lafrique Market,2011 S State St,NA,Chicago,IL,60616,2173,COOK,Grocery Store,41.854908,-87.626732,NA,NA,164678,"c(-87.626732, 41.854908)"
1464066,Twin Mart Food & Tobacco,5360 W Division St,Ste B,Chicago,IL,60651,1372,COOK,Grocery Store,41.902557,-87.76075,NA,NA,165538,"c(-87.76075, 41.902557)"
1331948,K & M Quick Mart Inc,11334 S Michigan Ave,NA,Chicago,IL,60628,4942,COOK,Grocery Store,41.687904,-87.621307,NA,NA,165689,"c(-87.621307, 41.687904)"
1331966,Omar Food Market Inc,5960 W Roosevelt Rd,NA,Chicago,IL,60644,1471,COOK,Grocery Store,41.865707,-87.773788,NA,NA,165693,"c(-87.773788, 41.865707)"
1430744,Kays Wholesale LLC,2939 Russell St,NA,Detroit,MI,48207,4825,WAYNE,Grocery Store,42.348564,-83.041962,NA,NA,165788,"c(-83.041962, 42.348564)"
1430795,Rainbow Food Mart Inc.,2926 W Devon Ave,NA,Chicago,IL,60659,1508,COOK,Grocery Store,41.997707,-87.703156,NA,NA,165866,"c(-87.703156, 41.997707)"
1430132,Chatham Fresh Mart Inc,402 E 83rd St,NA,Chicago,IL,60619,5726,COOK,Grocery Store,41.743896,-87.614426,NA,NA,165879,"c(-87.614426, 41.743896)"
1430996,Mountrose Supermarket & Taqueria Inc.,3440 W Montrose Ave,NA,Chicago,IL,60618,1138,COOK,Grocery Store,41.961262,-87.714661,NA,NA,166047,"c(-87.714661, 41.961262)"
1431136,Baity Market 1,12450 N 35th Ave,Ste 95,Phoenix,AZ,85029,3180,MARICOPA,Grocery Store,33.598774,-112.13402,NA,NA,166097,"c(-112.13402, 33.598774)"
1357419,Target Store T3272,6422 N Sheridan Rd,NA,Chicago,IL,60626,5336,COOK,Super Store,41.999123,-87.660713,NA,NA,166222,"c(-87.660713, 41.999123)"
1382262,Regents Market 1,1644 East Hyde Park Blvd,NA,Chicago,IL,60615,    ,COOK,Grocery Store,41.802567,-87.585541,NA,NA,166513,"c(-87.585541, 41.802567)"
1575939,ALDI 79171,4555 E Cactus Rd,NA,Phoenix,AZ,85032,7743,MARICOPA,Supermarket,33.598816,-111.98518,NA,NA,166651,"c(-111.98518, 33.598816)"
1594835,Baleqeen Market 1 Llc 1,8033 McGraw St,NA,Detroit,MI,48210,2158,WAYNE,Grocery Store,42.334133,-83.143967,NA,NA,166942,"c(-83.143967, 42.334133)"
1431351,The Crab House,1049 W 103rd St,NA,Chicago,IL,60643,2312,COOK,Grocery Store,41.706528,-87.649544,NA,NA,166952,"c(-87.649544, 41.706528)"
1420982,El Corral,10171 N 19th Ave,Ste 1,Phoenix,AZ,85021,1940,MARICOPA,Grocery Store,33.578182,-112.09885,NA,NA,167575,"c(-112.09885, 33.578182)"
1434449,Ryans Food Store,4900 N Pulaski Rd,NA,Chicago,IL,60630,2813,COOK,Grocery Store,41.970203,-87.728355,NA,NA,167972,"c(-87.728355, 41.970203)"
1464610,Dena's Food Inc.,7749 S Halsted St,NA,Chicago,IL,60620,2412,COOK,Grocery Store,41.752922,-87.643791,NA,NA,168111,"c(-87.643791, 41.752922)"
1464529,Artesian Food & Spirits Inc,2432 W 63rd St,NA,Chicago,IL,60629,1256,COOK,Grocery Store,41.779526,-87.685059,NA,NA,168326,"c(-87.685059, 41.779526)"
1401796,7 Seas Supermarket Inc.,1015 W 87th St,Suite A,Chicago,IL,60620,    ,COOK,Grocery Store,41.735584,-87.6493,NA,NA,169158,"c(-87.6493, 41.735584)"
1573489,Englewood Food Wholesale Market Inc,5901 S Racine Ave,NA,Chicago,IL,60636,1915,COOK,Grocery Store,41.786724,-87.65451,NA,NA,169386,"c(-87.65451, 41.786724)"
1340129,69 Loomis Food Market,6849 S Loomis Blvd,NA,Chicago,IL,60636,3403,COOK,Grocery Store,41.769035,-87.659019,NA,NA,169715,"c(-87.659019, 41.769035)"
1432245,Save-a-lot 60035,20811 W 8 Mile Rd,NA,Detroit,MI,48219,1333,WAYNE,Supermarket,42.443211,-83.248428,NA,NA,169747,"c(-83.248428, 42.443211)"
1402281,Caribbean Oasis,2958 N 16th St,NA,Phoenix,AZ,85016,7606,MARICOPA,Grocery Store,33.481934,-112.04771,NA,NA,169933,"c(-112.04771, 33.481934)"
1341459,First Stop Food Mart Inc,4425 N Sheridan Rd,NA,Chicago,IL,60640,5605,COOK,Grocery Store,41.962429,-87.65461,NA,NA,170279,"c(-87.65461, 41.962429)"
1634094,Fresh Marketplace,2600 N Central Ave,NA,Chicago,IL,60639,1324,COOK,Super Store,41.928497,-87.766449,NA,NA,170839,"c(-87.766449, 41.928497)"
1560193,Apple Food Mart,5255 W Madison St,Ste C,Chicago,IL,60644,4101,COOK,Grocery Store,41.879932,-87.757362,NA,NA,170870,"c(-87.757362, 41.879932)"
1559343,South Shore Celluar & More,2541 E 79th St,NA,Chicago,IL,60649,5119,COOK,Grocery Store,41.751732,-87.562172,NA,NA,170876,"c(-87.562172, 41.751732)"
1410263,Fullerton Dollar Plus,5209 W Fullerton Ave,NA,Chicago,IL,60639,1401,COOK,Grocery Store,41.923733,-87.756775,NA,NA,172184,"c(-87.756775, 41.923733)"
1410269,Aldi 40013,201 W Division St,NA,Chicago,IL,60610,1820,COOK,Supermarket,41.903751,-87.634529,NA,NA,172186,"c(-87.634529, 41.903751)"
1435699,4 Guys Shop,4820 W North Ave,NA,Chicago,IL,60639,4530,COOK,Grocery Store,41.909836,-87.746796,NA,NA,172408,"c(-87.746796, 41.909836)"
1435833,Supermercado Tarimoro 2,14512 S Torrence Ave,NA,Chicago,IL,60633,2019,COOK,Grocery Store,41.631374,-87.559525,NA,NA,172452,"c(-87.559525, 41.631374)"
1435946,Luna's Grocery Store Inc,1900 S Leavitt St,NA,Chicago,IL,60608,2524,COOK,Grocery Store,41.855652,-87.681183,NA,NA,172485,"c(-87.681183, 41.855652)"
1403273,Babel Mediterranean Market,18425 N 19th Ave,Ste 124,Phoenix,AZ,85023,1386,MARICOPA,Grocery Store,33.653252,-112.09831,NA,NA,173001,"c(-112.09831, 33.653252)"
1422591,Express Food Mart & Cellular 1,11058 S Wentworth Ave,NA,Chicago,IL,60628,4251,COOK,Grocery Store,41.693077,-87.627975,NA,NA,173229,"c(-87.627975, 41.693077)"
1630409,Alex 75 Food,432 E 75th St,NA,Chicago,IL,60619,2200,COOK,Grocery Store,41.758621,-87.613625,NA,NA,173274,"c(-87.613625, 41.758621)"
1453785,ATW Liquor & Food Inc.,11500 E McNichols Rd,NA,Detroit,MI,48205,3275,WAYNE,Grocery Store,42.419704,-83.005241,NA,NA,173345,"c(-83.005241, 42.419704)"
1585254,Someria Food Mart Inc,2814 W Devon Ave.,1st Floor,Chicago,IL,60659,    ,COOK,Grocery Store,41.997757,-87.700272,NA,NA,174199,"c(-87.700272, 41.997757)"
1477566,Manhattan Fish And Chicken,20100 Plymouth Rd,NA,Detroit,MI,48228,1238,WAYNE,Grocery Store,42.372147,-83.237778,NA,NA,174204,"c(-83.237778, 42.372147)"
1477641,Aldi 79158,1401 E Bell Rd,NA,Phoenix,AZ,85022,2716,MARICOPA,Supermarket,33.639896,-112.05208,NA,NA,174233,"c(-112.05208, 33.639896)"
1477642,Aldi 79157,5775 W Baseline Rd,NA,Phoenix,AZ,85339,    ,MARICOPA,Supermarket,33.377392,-112.18282,NA,NA,174234,"c(-112.18282, 33.377392)"
1477647,Royal Fresh Market Harper,16700 Harper Ave,NA,Detroit,MI,48224,1909,WAYNE,Supermarket,42.413994,-82.939819,NA,NA,174239,"c(-82.939819, 42.413994)"
1424154,Target Store T3349,555 W Webster Ave,NA,Chicago,IL,60614,7610,COOK,Super Store,41.922085,-87.643532,NA,NA,175406,"c(-87.643532, 41.922085)"
1650041,Costco Wholesale 0827,3801 N 33rd Ave,NA,Phoenix,AZ,85017,4508,MARICOPA,Super Store,33.491684,-112.12842,NA,NA,175449,"c(-112.12842, 33.491684)"
1424092,Jordan Future Inc,3358 W le Moyne St,NA,Chicago,IL,60651,2451,COOK,Grocery Store,41.908394,-87.711693,NA,NA,175524,"c(-87.711693, 41.908394)"
1424149,Target Store T3314,4631 W Foster Ave,NA,Chicago,IL,60630,1709,COOK,Super Store,41.975311,-87.742676,NA,NA,175536,"c(-87.742676, 41.975311)"
1640491,T. L. Grocery Store And Restaurant Llc,5038 W Madison St,NA,Chicago,IL,60644,4127,COOK,Grocery Store,41.88081,-87.751686,NA,NA,175543,"c(-87.751686, 41.88081)"
1577723,Lily Supermarket Inc.,9863 S Ewing Ave,NA,Chicago,IL,60617,5564,COOK,Grocery Store,41.715981,-87.534981,NA,NA,176853,"c(-87.534981, 41.715981)"
1512476,Zebee Fish & Chicken Market 1,8233 Livernois Ave,NA,Detroit,MI,48204,3515,WAYNE,Grocery Store,42.354965,-83.138191,NA,NA,176913,"c(-83.138191, 42.354965)"
1478037,Al-tayyab Halal Meat And Grocery Inc,2753 W Devon Ave,FL F,Chicago,IL,60659,1712,COOK,Grocery Store,41.997341,-87.699165,NA,NA,177137,"c(-87.699165, 41.997341)"
1455386,Rich's Delicatessen & Liquor,857 N Western Ave,NA,Chicago,IL,60622,4635,COOK,Grocery Store,41.897408,-87.686546,NA,NA,177388,"c(-87.686546, 41.897408)"
1412619,Hi-mart 3,5825 N Tripp Ave,NA,Chicago,IL,60646,6013,COOK,Super Store,41.986645,-87.732819,NA,NA,177690,"c(-87.732819, 41.986645)"
1368145,Jenny's Food Market,2990 N Milwaukee Ave,NA,Chicago,IL,60618,7393,COOK,Grocery Store,41.935658,-87.718216,NA,NA,177851,"c(-87.718216, 41.935658)"
1437234,South Loop Market,2135 S Michigan Ave,NA,Chicago,IL,60616,5075,COOK,Grocery Store,41.853287,-87.623749,NA,NA,178024,"c(-87.623749, 41.853287)"
1342616,Mercado La Casita,2632 W 51st St,NA,Chicago,IL,60632,1560,COOK,Grocery Store,41.801315,-87.690521,NA,NA,178051,"c(-87.690521, 41.801315)"
1424915,Carniceria Los Vaqueros 1,6440 W Van Buren St,NA,Phoenix,AZ,85043,5003,MARICOPA,Grocery Store,33.451973,-112.1995,NA,NA,179206,"c(-112.1995, 33.451973)"
1425258,Cloves Indian Grocery & Kitchen 02,1930 W Thunderbird Rd,Ste 108,Phoenix,AZ,85023,6369,MARICOPA,Grocery Store,33.611149,-112.10188,NA,NA,179242,"c(-112.10188, 33.611149)"
1630473,Los Cuates Mercado Inc,4531 W Marquette Rd,NA,Chicago,IL,60629,5626,COOK,Grocery Store,41.771038,-87.73616,NA,NA,180011,"c(-87.73616, 41.771038)"
1630349,Luxry Food Mart,2902 W 63rd St,NA,Chicago,IL,60629,2730,COOK,Grocery Store,41.779465,-87.696129,NA,NA,180047,"c(-87.696129, 41.779465)"
1631391,Lawrence Food & Liquors Inc,5933 W Lawrence Ave,NA,Chicago,IL,60630,3129,COOK,Grocery Store,41.967434,-87.776169,NA,NA,180445,"c(-87.776169, 41.967434)"
1366668,Food Basket,7205 S Halsted St,NA,Chicago,IL,60621,1617,COOK,Grocery Store,41.763111,-87.644104,NA,NA,180529,"c(-87.644104, 41.763111)"
1456790,Nohadra Grocery Inc,2959 W Devon Ave,NA,Chicago,IL,60659,1555,COOK,Grocery Store,41.997261,-87.704254,NA,NA,180975,"c(-87.704254, 41.997261)"
1456831,Quality Food & Beverage Inc,2553-57 71st Street,NA,Chicago,IL,60629,2050,COOK,Grocery Store,41.764442,-87.687912,NA,NA,180997,"c(-87.687912, 41.764442)"
1587715,Sara Market,1610 N 36th St,Ste B-104,Phoenix,AZ,85008,    ,MARICOPA,Grocery Store,33.466446,-112.00431,NA,NA,181346,"c(-112.00431, 33.466446)"
1626633,Save A Lot 21653,7908 S Halsted St,NA,Chicago,IL,60620,2557,COOK,Supermarket,41.750088,-87.644363,NA,NA,182363,"c(-87.644363, 41.750088)"
1438701,Atrah Incorporated,2903 W Devon Ave,NA,Chicago,IL,60659,1507,COOK,Grocery Store,41.997318,-87.702301,NA,NA,182583,"c(-87.702301, 41.997318)"
1439616,Alnaklah Llc 1,8803 Michigan Ave,NA,Detroit,MI,48210,2028,WAYNE,Grocery Store,42.329468,-83.149521,NA,NA,182693,"c(-83.149521, 42.329468)"
1439314,S & O Caribbean Grocery,13060 N Cave Creek Rd,NA,Phoenix,AZ,85022,5170,MARICOPA,Grocery Store,33.605759,-112.03662,NA,NA,182984,"c(-112.03662, 33.605759)"
1497513,Savon Foods,15025 W 7 Mile Rd,NA,Detroit,MI,48235,2788,WAYNE,Supermarket,42.430321,-83.194283,NA,NA,183076,"c(-83.194283, 42.430321)"
1457600,Family Halal Store,4141 N 35th Ave,Ste 10,Phoenix,AZ,85017,3864,MARICOPA,Grocery Store,33.496365,-112.13329,NA,NA,183528,"c(-112.13329, 33.496365)"
1491625,Rest & Market Monarcas Llc,602 W Baseline Rd,NA,Phoenix,AZ,85041,7107,MARICOPA,Grocery Store,33.37809,-112.0811,NA,NA,183656,"c(-112.0811, 33.37809)"
1416589,Manar Food Market Inc.,8209 S Exchange Ave,NA,Chicago,IL,60617,2123,COOK,Grocery Store,41.74614,-87.552521,NA,NA,184588,"c(-87.552521, 41.74614)"
1498118,Apna Bazaar,3607 E Bell Rd,Ste 2,Phoenix,AZ,85032,2152,MARICOPA,Grocery Store,33.640045,-112.00436,NA,NA,184839,"c(-112.00436, 33.640045)"
1481752,Seafood Paradise On Jeffery,9529 S Jeffery Ave,NA,Chicago,IL,60617,4729,COOK,Grocery Store,41.721329,-87.574883,NA,NA,185001,"c(-87.574883, 41.721329)"
1499071,Whole Foods Market 10740,3 W Chicago Ave,NA,Chicago,IL,60654,3206,COOK,Super Store,41.896469,-87.628456,NA,NA,186687,"c(-87.628456, 41.896469)"
1493194,Farm On Ogden,3555 W Ogden Ave,NA,Chicago,IL,60623,2583,COOK,Grocery Store,41.854328,-87.714355,NA,NA,187058,"c(-87.714355, 41.854328)"
1482265,Colfax Mart Inc,2554 E 83rd St,NA,Chicago,IL,60617,1906,COOK,Grocery Store,41.744728,-87.561554,NA,NA,187441,"c(-87.561554, 41.744728)"
1482427,Pita Bakery & Grocery,17007 W Warren Ave,NA,Detroit,MI,48228,3506,WAYNE,Grocery Store,42.343163,-83.212555,NA,NA,187590,"c(-83.212555, 42.343163)"
1466735,Rivertown Market 661,1475 E Jefferson Ave,NA,Detroit,MI,48207,3156,WAYNE,Super Store,42.334675,-83.031105,NA,NA,188207,"c(-83.031105, 42.334675)"
1505553,Asian Nest Market,3411 W Northern Ave,Ste D & E,Phoenix,AZ,85051,6558,MARICOPA,Grocery Store,33.552727,-112.13259,NA,NA,189271,"c(-112.13259, 33.552727)"
1484843,Big Sams Food Mart,133 E 75th St,NA,Chicago,IL,60619,1609,COOK,Grocery Store,41.757999,-87.620209,NA,NA,189933,"c(-87.620209, 41.757999)"
1493778,Los Primos Fresh Market & Taqueria,4935 W 47th St,NA,Chicago,IL,60638,2041,COOK,Grocery Store,41.807365,-87.747055,NA,NA,190058,"c(-87.747055, 41.807365)"
1493787,Fine Fair Food & Liquor,3357 W 16th St,NA,Chicago,IL,60623,2145,COOK,Grocery Store,41.858887,-87.710014,NA,NA,190061,"c(-87.710014, 41.858887)"
1485689,Stop & Save Shop,2700 W 25th St,NA,Chicago,IL,60608,4602,COOK,Grocery Store,41.846729,-87.693008,NA,NA,190721,"c(-87.693008, 41.846729)"
1537105,Harbor Seafood Market Inc.,2018 W 63rd St,NA,Chicago,IL,60636,2131,COOK,Grocery Store,41.779686,-87.674782,NA,NA,191081,"c(-87.674782, 41.779686)"
1494684,Seafood Junction,5401 South Wentworth Ave,Unit 5w,Chicago,IL,60609,    ,COOK,Grocery Store,41.796234,-87.630318,NA,NA,191104,"c(-87.630318, 41.796234)"
1494764,Rozi Food Market,10643 N 43rd Ave,NA,Phoenix,AZ,85029,3944,MARICOPA,Grocery Store,33.583008,-112.15145,NA,NA,191149,"c(-112.15145, 33.583008)"
1536690,La Luna Maya,7603 McGraw St,NA,Detroit,MI,48210,1943,WAYNE,Grocery Store,42.335533,-83.140106,NA,NA,191480,"c(-83.140106, 42.335533)"
1536204,Torrance Food Inc,10600 S Torrence Ave,NA,Chicago,IL,60617,6118,COOK,Grocery Store,41.702587,-87.559944,NA,NA,191571,"c(-87.559944, 41.702587)"
1536520,Cermak Fresh Market,1711 W Cermak Rd,NA,Chicago,IL,60608,4315,COOK,Super Store,41.851753,-87.669128,NA,NA,191721,"c(-87.669128, 41.851753)"
1519591,Pick & Save Supermarket,7404 E 7 Mile Rd,NA,Detroit,MI,48234,3178,WAYNE,Super Store,42.433632,-83.028145,NA,NA,193060,"c(-83.028145, 42.433632)"
1519906,Fry's 96,26300 N Norterra Pkwy,NA,Phoenix,AZ,85085,8210,MARICOPA,Super Store,33.712975,-112.10886,NA,NA,193756,"c(-112.10886, 33.712975)"
1470729,Tasty Chicken & Fish Food Mart,1120 W 95th St,NA,Chicago,IL,60643,1406,COOK,Grocery Store,41.721581,-87.651543,NA,NA,194278,"c(-87.651543, 41.721581)"
1495131,Candys Grocery,1366 W Ohio St,NA,Chicago,IL,60642,6431,COOK,Grocery Store,41.8927,-87.66214,NA,NA,194304,"c(-87.66214, 41.8927)"
1487009,Supermercado Martin # 3 Llc,7141 W Addison St,NA,Chicago,IL,60634,3625,COOK,Grocery Store,41.94508,-87.805008,NA,NA,196919,"c(-87.805008, 41.94508)"
1503613,Sun Wing Supermarket,2701 S Wells St,NA,Chicago,IL,60616,2747,COOK,Grocery Store,41.843868,-87.632675,NA,NA,197350,"c(-87.632675, 41.843868)"
1472049,Adrian's Fresh Market #3 Inc 1,3640 N Central Ave,NA,Chicago,IL,60634,2750,COOK,Grocery Store,41.947063,-87.767136,NA,NA,197682,"c(-87.767136, 41.947063)"
1115053,Alrada Bakery,16143 W Warren Ave,NA,Detroit,MI,48228,3762,WAYNE,Grocery Store,42.343529,-83.202919,NA,NA,197840,"c(-83.202919, 42.343529)"
1607270,Watan Market Inc,2705 W Devon Ave,NA,Chicago,IL,60659,1703,COOK,Grocery Store,41.997341,-87.697418,NA,NA,198174,"c(-87.697418, 41.997341)"
1508627,Anwar Makkah Bakery & Grocery NA,16205 W Warren Ave,NA,Detroit,MI,48228,3771,WAYNE,Grocery Store,42.343346,-83.203812,NA,NA,199207,"c(-83.203812, 42.343346)"
1543638,Jerusalem International Market 1,7750 N 35th Ave,NA,Phoenix,AZ,85051,6508,MARICOPA,Grocery Store,33.551273,-112.13489,NA,NA,199611,"c(-112.13489, 33.551273)"
1508307,Southern Belle Louisiana Cajun Spices And Foods 2,1717 W Southern Ave,Ste 104,Phoenix,AZ,85041,4653,MARICOPA,Grocery Store,33.391773,-112.09599,NA,NA,199759,"c(-112.09599, 33.391773)"
1539434,Sea Cucumber City,247 W Cermak Rd,NA,Chicago,IL,60616,1913,COOK,Grocery Store,41.852596,-87.63385,NA,NA,199889,"c(-87.63385, 41.852596)"
1545316,Mandir Inc,847 W 87th St,NA,Chicago,IL,60620,3200,COOK,Grocery Store,41.735676,-87.645638,NA,NA,200172,"c(-87.645638, 41.735676)"
1543973,Mohsen Food Mart,4156 W Cermak Rd,NA,Chicago,IL,60623,2837,COOK,Grocery Store,41.85181,-87.729416,NA,NA,200389,"c(-87.729416, 41.85181)"
1544931,Austin Dollar & Grocery Inc.,5941 W Diversey Ave,NA,Chicago,IL,60639,1137,COOK,Grocery Store,41.930923,-87.775215,NA,NA,200856,"c(-87.775215, 41.930923)"
1598540,Nor Jumah Mubarak,2852 W Devon Ave,NA,Chicago,IL,60659,1513,COOK,Grocery Store,41.997734,-87.701675,NA,NA,201037,"c(-87.701675, 41.997734)"
1116377,Makola African Supermarket 1,1017 W Wilson Ave,NA,Chicago,IL,60640,5614,COOK,Grocery Store,41.965374,-87.655815,NA,NA,201044,"c(-87.655815, 41.965374)"
1263105,Serrellis Finer Foods,6454 W North Ave,NA,Chicago,IL,60707,4031,COOK,Grocery Store,41.909149,-87.787064,NA,NA,201316,"c(-87.787064, 41.909149)"
1270920,Community Grocery,3336 W Bryn Mawr Ave,NA,Chicago,IL,60659,4511,COOK,Grocery Store,41.983059,-87.712791,NA,NA,201375,"c(-87.712791, 41.983059)"
1546184,Food Giant,14040 Greenfield Rd,NA,Detroit,MI,48227,2104,WAYNE,Super Store,42.389153,-83.197189,NA,NA,201822,"c(-83.197189, 42.389153)"
1547156,Wentworth Meat & Produce,10701 S Wentworth Ave,NA,Chicago,IL,60628,3342,COOK,Grocery Store,41.69968,-87.627747,NA,NA,201870,"c(-87.627747, 41.69968)"
1488363,Public Closeout,5941 W Division St,NA,Chicago,IL,60651,1034,COOK,Grocery Store,41.901855,-87.774498,NA,NA,202388,"c(-87.774498, 41.901855)"
1594499,J & C Food Market Inc,3404 W Irving Park Rd,NA,Chicago,IL,60618,3208,COOK,Grocery Store,41.954124,-87.713211,NA,NA,202623,"c(-87.713211, 41.954124)"
1510348,Mr Cs Fresh Fish,18203 W McNichols Rd,NA,Detroit,MI,48219,4111,WAYNE,Grocery Store,42.415276,-83.220253,NA,NA,202647,"c(-83.220253, 42.415276)"
1510430,HJ&B Groceries And African Market LLC 1,4132 E Mcdowell Rd,Ste 5,Phoenix,AZ,85008,4400,MARICOPA,Grocery Store,33.466251,-111.99203,NA,NA,202674,"c(-111.99203, 33.466251)"
1509774,M&th Group Inc,3743 W Chicago Ave,NA,Chicago,IL,60651,3822,COOK,Grocery Store,41.895226,-87.720474,NA,NA,202741,"c(-87.720474, 41.895226)"
1510093,Happy Land International Food 1,8000 Schaefer Hwy,NA,Detroit,MI,48228,2745,WAYNE,Grocery Store,42.351604,-83.176826,NA,NA,202844,"c(-83.176826, 42.351604)"
1540413,Carniceria Mi Guadalajara,7355 W Indian School Rd,NA,Phoenix,AZ,85033,3137,MARICOPA,Grocery Store,33.49464,-112.21787,NA,NA,203065,"c(-112.21787, 33.49464)"
1628226,La Crosse Food Mart 1,4824 W Armitage Ave,NA,Chicago,IL,60639,3213,COOK,Grocery Store,41.917168,-87.747246,NA,NA,203086,"c(-87.747246, 41.917168)"
1630278,R&m Food Mart Inc,5604 W Chicago Ave,NA,Chicago,IL,60651,2617,COOK,Grocery Store,41.895138,-87.765755,NA,NA,203096,"c(-87.765755, 41.895138)"
1185717,Lupita's Grocery,2401 S Christiana Ave,NA,Chicago,IL,60623,4010,COOK,Grocery Store,41.847946,-87.708733,NA,NA,203620,"c(-87.708733, 41.847946)"
1279535,Cremeria La Ordena 3,3234 W 26th St,NA,Chicago,IL,60623,4033,COOK,Grocery Store,41.84454,-87.706589,NA,NA,203708,"c(-87.706589, 41.84454)"
1594424,Detroit People's Food Co-op,8324 Woodward Ave,NA,Detroit,MI,48202,2561,WAYNE,Supermarket,42.376587,-83.077461,NA,NA,204302,"c(-83.077461, 42.376587)"
1550892,Ashar International Market Llc,5723 N California Ave,NA,Chicago,IL,60659,4703,COOK,Grocery Store,41.985706,-87.698822,NA,NA,204368,"c(-87.698822, 41.985706)"
1548358,Michoacana Supermarket Corporation,6850 W Belmont Ave,NA,Chicago,IL,60634,4647,COOK,Supermarket,41.938568,-87.797684,NA,NA,204621,"c(-87.797684, 41.938568)"
1548130,Sugar Market,20427 Plymouth Rd,NA,Detroit,MI,48228,1221,WAYNE,Super Store,42.371834,-83.240219,NA,NA,204949,"c(-83.240219, 42.371834)"
1548217,New Star Fresh Fish Chicken & Seafood,13585 Greenfield Rd,NA,Detroit,MI,48227,2193,WAYNE,Grocery Store,42.386082,-83.198479,NA,NA,204980,"c(-83.198479, 42.386082)"
1281995,Lams International Llc,3446 W Camelback Rd,Ste 125,Phoenix,AZ,85017,3046,MARICOPA,Grocery Store,33.509487,-112.13385,NA,NA,206170,"c(-112.13385, 33.509487)"
1549470,Malik Market 0001,5706 N 27th Ave,NA,Phoenix,AZ,85017,2604,MARICOPA,Grocery Store,33.520668,-112.117,NA,NA,206420,"c(-112.117, 33.520668)"
784341,DOS HERMANOS,1109 W Hatcher Rd,NA,Phoenix,AZ,85021,3044,MARICOPA,Grocery Store,33.571194,-112.08751,NA,NA,206942,"c(-112.08751, 33.571194)"
789856,Target Store 942,2656 N Elston Ave,NA,Chicago,IL,60647,2019,COOK,Super Store,41.930416,-87.685303,NA,NA,207127,"c(-87.685303, 41.930416)"
1603859,Superland Market,17015 Schoolcraft St,NA,Detroit,MI,48227,1345,WAYNE,Supermarket,42.386509,-83.214188,NA,NA,207280,"c(-83.214188, 42.386509)"
858961,North & Pulaski Fresh Market,3850 W North Ave,NA,Chicago,IL,60647,4641,COOK,Super Store,41.909958,-87.723267,NA,NA,207382,"c(-87.723267, 41.909958)"
1565941,Supermercado La Tortilla Inc 1,5917 S Western Ave,NA,Chicago,IL,60636,2017,COOK,Grocery Store,41.786003,-87.682236,NA,NA,207396,"c(-87.682236, 41.786003)"
1137400,Carniceria Los Reyes,1603 N 16th St,NA,Phoenix,AZ,85006,1902,MARICOPA,Grocery Store,33.466232,-112.04766,NA,NA,207572,"c(-112.04766, 33.466232)"
1574120,New India Bazaar ,2544 N 7th St,Ste 101,Phoenix,AZ,85006,1023,MARICOPA,Grocery Store,33.476067,-112.06533,NA,NA,208177,"c(-112.06533, 33.476067)"
1559008,Mama Africa Food Store,6812 N Clark St,NA,Chicago,IL,60626,3207,COOK,Grocery Store,42.005795,-87.673576,NA,NA,208453,"c(-87.673576, 42.005795)"
1542844,Dobry's Market,2351 Junction St,NA,Detroit,MI,48209,1342,WAYNE,Grocery Store,42.321518,-83.10482,NA,NA,209147,"c(-83.10482, 42.321518)"
1586471,Target Store T3447,4728 W Irving Park Rd,NA,Chicago,IL,60641,2701,COOK,Super Store,41.953491,-87.746094,NA,NA,209291,"c(-87.746094, 41.953491)"
1550493,Happy Market,2334 S Wentworth Ave,Ste 103,Chicago,IL,60616,2038,COOK,Grocery Store,41.849869,-87.632271,NA,NA,209293,"c(-87.632271, 41.849869)"
1542751,Diamond Express Mart,2000 W 79th St,NA,Chicago,IL,60620,5720,COOK,Grocery Store,41.750572,-87.673615,NA,NA,209374,"c(-87.673615, 41.750572)"
1528451,La Flor Grocery Store Inc,10500 S Avenue M,NA,Chicago,IL,60617,6215,COOK,Grocery Store,41.704453,-87.537956,NA,NA,211515,"c(-87.537956, 41.704453)"
1166564,Supermercado Antonio's Corp NONE,2656 S Homan Ave,NA,Chicago,IL,60623,4615,COOK,Grocery Store,41.842854,-87.71022,NA,NA,211702,"c(-87.71022, 41.842854)"
768230,Target Store 1889,1154 S Clark St,NA,Chicago,IL,60605,2159,COOK,Super Store,41.869282,-87.630585,NA,NA,212584,"c(-87.630585, 41.869282)"
1303135,Makki Mart,2440 W Devon Ave,NA,Chicago,IL,60659,1913,COOK,Grocery Store,41.997757,-87.691559,NA,NA,213122,"c(-87.691559, 41.997757)"
1095293,Que Rico Supermercado 1,3552 W Armitage Ave,NA,Chicago,IL,60647,3609,COOK,Super Store,41.917374,-87.715492,NA,NA,213652,"c(-87.715492, 41.917374)"
1310003,Baiz Fresh Food,523 N 20th St,NA,Phoenix,AZ,85006,3860,MARICOPA,Supermarket,33.455032,-112.03898,NA,NA,214431,"c(-112.03898, 33.455032)"
1185142,Jeffery Big Market,2016 E 71st St,NA,Chicago,IL,60649,2102,COOK,Grocery Store,41.76627,-87.57576,NA,NA,214885,"c(-87.57576, 41.76627)"
1554683,Deluxe Global Market,6332 W Higgins Ave,NA,Chicago,IL,60630,1809,COOK,Grocery Store,41.976254,-87.7864,NA,NA,215486,"c(-87.7864, 41.976254)"
1554008,Twin Family Store,4210 W Dunlap Ave,NA,Phoenix,AZ,85051,3654,MARICOPA,Grocery Store,33.56868,-112.15062,NA,NA,215614,"c(-112.15062, 33.56868)"
1554015,A & J Food Market Inc,342 W 75th St,NA,Chicago,IL,60621,3445,COOK,Grocery Store,41.758274,-87.633774,NA,NA,215616,"c(-87.633774, 41.758274)"
1166400,Fresh Market Place,2134 N Western Ave,NA,Chicago,IL,60647,4106,COOK,Super Store,41.920956,-87.687546,NA,NA,216054,"c(-87.687546, 41.920956)"
1194445,Hometown Market Inc.,8656 Wyoming St,NA,Detroit,MI,48204,5216,WAYNE,Supermarket,42.358429,-83.15786,NA,NA,216581,"c(-83.15786, 42.358429)"
1295032,Dearborn Wholesale Grocers,4525 W Madison St,NA,Chicago,IL,60624,2230,COOK,Super Store,41.880241,-87.739189,NA,NA,216638,"c(-87.739189, 41.880241)"
1610599,Red Hook Fresh Fish And Chicken Inc,9200 Dexter Ave,NA,Detroit,MI,48206,1808,WAYNE,Grocery Store,42.370674,-83.117439,NA,NA,216965,"c(-83.117439, 42.370674)"
1130730,Altayebat Market,7136 N 35th Ave,NA,Phoenix,AZ,85051,8312,MARICOPA,Grocery Store,33.541821,-112.13436,NA,NA,217331,"c(-112.13436, 33.541821)"
1256729,Danny's Market Inc,5129 N Broadway St,NA,Chicago,IL,60640,3018,COOK,Super Store,41.975605,-87.659805,NA,NA,217344,"c(-87.659805, 41.975605)"
939167,La Mexicana,5045 W Thomas Rd,Ste 103,Phoenix,AZ,85031,4002,MARICOPA,Grocery Store,33.480453,-112.16853,NA,NA,217570,"c(-112.16853, 33.480453)"
1075154,Save-mart Supermarket Inc,7011 Gratiot Ave,NA,Detroit,MI,48207,1973,WAYNE,Supermarket,42.371647,-83.019501,NA,NA,217755,"c(-83.019501, 42.371647)"
1270452,Chin Land Asian Food Market Llc,2515 W Peterson Ave,NA,Chicago,IL,60659,4108,COOK,Grocery Store,41.990234,-87.692749,NA,NA,217813,"c(-87.692749, 41.990234)"
1287950,Carniceria La Hacienda No. 4 Inc.,5159 S Kedzie Ave,NA,Chicago,IL,60632,3126,COOK,Supermarket,41.799198,-87.703362,NA,NA,217900,"c(-87.703362, 41.799198)"
1385361,Fruteria Favela Inc,2959 W 59th St,NA,Chicago,IL,60629,2243,COOK,Grocery Store,41.786171,-87.698318,NA,NA,217970,"c(-87.698318, 41.786171)"
875902,Montrose Deli,5411 W Montrose Ave,NA,Chicago,IL,60641,1325,COOK,Super Store,41.960484,-87.762611,NA,NA,218523,"c(-87.762611, 41.960484)"
808461,Cermak Produce No. 9 Inc.,3311 W 26th St,NA,Chicago,IL,60623,4036,COOK,Super Store,41.844463,-87.70826,NA,NA,218589,"c(-87.70826, 41.844463)"
974421,Mi Tienda Latina,1811 N 24th St,NA,Phoenix,AZ,85008,3567,MARICOPA,Grocery Store,33.467812,-112.0302,NA,NA,218597,"c(-112.0302, 33.467812)"
1555795,Amir Gas Market,15911 Livernois Ave,NA,Detroit,MI,48238,1389,WAYNE,Grocery Store,42.409626,-83.140945,NA,NA,219149,"c(-83.140945, 42.409626)"
1125791,Ameera Food 1,6415 N Western Ave,NA,Chicago,IL,60645,5421,COOK,Grocery Store,41.998253,-87.689842,NA,NA,219484,"c(-87.689842, 41.998253)"
898601,Mercado Latino,3102 W Van Buren St,NA,Phoenix,AZ,85009,4820,MARICOPA,Grocery Store,33.451366,-112.12637,NA,NA,219501,"c(-112.12637, 33.451366)"
1304252,Jasmino Food Mart Inc,5267 W North Ave,NA,Chicago,IL,60639,4429,COOK,Grocery Store,41.909412,-87.758186,NA,NA,219687,"c(-87.758186, 41.909412)"
1260114,Glory Supermarket,12230 E 8 Mile Rd,NA,Detroit,MI,48205,1048,WAYNE,Super Store,42.448891,-83.001091,NA,NA,219979,"c(-83.001091, 42.448891)"
1556598,T & C Grocery Market 1 Inc,4754 N Bernard St,NA,Chicago,IL,60625,5302,COOK,Grocery Store,41.968025,-87.714638,NA,NA,220063,"c(-87.714638, 41.968025)"
1557134,Royal Fresh Market 4,2819 E 7 Mile Rd,NA,Detroit,MI,48234,1502,WAYNE,Supermarket,42.433228,-83.075157,NA,NA,220673,"c(-83.075157, 42.433228)"
831705,Yusef's Grocery,15236 N Cave Creek Rd,NA,Phoenix,AZ,85032,4351,MARICOPA,Grocery Store,33.625526,-112.03077,NA,NA,221363,"c(-112.03077, 33.625526)"
1175114,Shop & Save Market 2100,6312 N Nagle Ave,NA,Chicago,IL,60646,3614,COOK,Super Store,41.995937,-87.787537,NA,NA,221659,"c(-87.787537, 41.995937)"
1123004,Supermarket La Familia 1,2300 W 23rd St,Ste 1,Chicago,IL,60608,3844,COOK,Grocery Store,41.850266,-87.683311,NA,NA,223603,"c(-87.683311, 41.850266)"
1529977,Supermercado Salas,2158 W 21st Pl,NA,Chicago,IL,60608,4848,COOK,Grocery Store,41.853294,-87.680603,NA,NA,224141,"c(-87.680603, 41.853294)"
1600224,Sprouts Farmers Market 51,34750 N North Valley Pkwy,NA,Phoenix,AZ,85086,3250,MARICOPA,Supermarket,33.799862,-112.13153,NA,NA,224173,"c(-112.13153, 33.799862)"
1529668,Chin Cherry Asian Food Inc 1,2732 W Devon Ave,NA,Chicago,IL,60659,1711,COOK,Grocery Store,41.997829,-87.698654,NA,NA,224222,"c(-87.698654, 41.997829)"
1530401,Faustin African Market,7112 N 35th Ave,NA,Phoenix,AZ,85051,8312,MARICOPA,Grocery Store,33.541183,-112.13442,NA,NA,224339,"c(-112.13442, 33.541183)"
1176533,Cermak Produce,6623 N Damen Ave,NA,Chicago,IL,60645,5101,COOK,Super Store,42.002426,-87.680244,NA,NA,224435,"c(-87.680244, 42.002426)"
1286063,Paradise Grocery,8101 S Cottage Grove Ave,NA,Chicago,IL,60619,5103,COOK,Grocery Store,41.747463,-87.605095,NA,NA,224826,"c(-87.605095, 41.747463)"
1370300,Santa Fe Food Market Inc,5001 W Addison St,NA,Chicago,IL,60641,3422,COOK,Grocery Store,41.945908,-87.752258,NA,NA,225468,"c(-87.752258, 41.945908)"
1111043,Dollar Store Of Eight Mile,21201 W 8 Mile Rd,NA,Detroit,MI,48219,1222,WAYNE,Grocery Store,42.443108,-83.252983,NA,NA,225485,"c(-83.252983, 42.443108)"
1157626,Super Carniceria Los Pinos 3 Inc,2903 E Mcdowell Rd,NA,Phoenix,AZ,85008,3618,MARICOPA,Grocery Store,33.465755,-112.01921,NA,NA,225508,"c(-112.01921, 33.465755)"
1241324,Jimenez Fresh Market,5330 W Belmont Ave,NA,Chicago,IL,60641,4103,COOK,Grocery Store,41.938679,-87.760277,NA,NA,225805,"c(-87.760277, 41.938679)"
1181854,Asha Food Mart Inc,4826 N Sheridan Rd,NA,Chicago,IL,60640,    ,COOK,Grocery Store,41.969883,-87.654846,NA,NA,225987,"c(-87.654846, 41.969883)"
906890,Morelia Supermarket Inc,7300 N Western Ave,Ste B,Chicago,IL,60645,1833,COOK,Super Store,42.014202,-87.690269,NA,NA,226028,"c(-87.690269, 42.014202)"
1190900,Ann's Bakery Inc.,2158 W Chicago Ave,NA,Chicago,IL,60622,4820,COOK,Grocery Store,41.895893,-87.68103,NA,NA,226200,"c(-87.68103, 41.895893)"
1560212,Ibrahim Brother Bazar LLC,2729 W Devon Ave,NA,Chicago,IL,60659,1703,COOK,Grocery Store,41.997334,-87.698196,NA,NA,226829,"c(-87.698196, 41.997334)"
1557964,Blue Crab & Seafood Market,5800 W North Ave,NA,Chicago,IL,60639,4041,COOK,Grocery Store,41.909714,-87.770653,NA,NA,226853,"c(-87.770653, 41.909714)"
783490,Target Store 1879,4433 S Pulaski Rd,NA,Chicago,IL,60632,4010,COOK,Super Store,41.812752,-87.723724,NA,NA,227081,"c(-87.723724, 41.812752)"
1519143,Dom's Kitchen & Market 2,1233 N Wells St,NA,Chicago,IL,60610,1905,COOK,Super Store,41.90477,-87.634071,NA,NA,227091,"c(-87.634071, 41.90477)"
1531057,Veracruz Grocery Store,2758 S Ridgeway Ave,NA,Chicago,IL,60623,4523,COOK,Grocery Store,41.84079,-87.718643,NA,NA,227323,"c(-87.718643, 41.84079)"
1530985,Mj Food Mart,734 S Pulaski Rd,NA,Chicago,IL,60624,4058,COOK,Grocery Store,41.87151,-87.725624,NA,NA,227527,"c(-87.725624, 41.87151)"
1531685,Save A Lot 21608,832 W 63rd St,NA,Chicago,IL,60621,1902,COOK,Supermarket,41.78064,-87.646126,NA,NA,227770,"c(-87.646126, 41.78064)"
1170571,SN Grocery Store,2802 S Karlov Ave,NA,Chicago,IL,60623,4439,COOK,Grocery Store,41.84034,-87.726906,NA,NA,229340,"c(-87.726906, 41.84034)"
1306256,Northern Foods Llc,8030 N 27th Ave,NA,Phoenix,AZ,85051,6302,MARICOPA,Super Store,33.553856,-112.11705,NA,NA,229820,"c(-112.11705, 33.553856)"
1215285,Conant Foods & Variety,11618 Conant St,NA,Detroit,MI,48212,3138,WAYNE,Grocery Store,42.405048,-83.054382,NA,NA,229822,"c(-83.054382, 42.405048)"
1165009,Royal Fresh Market,18551 Grand River Ave,NA,Detroit,MI,48223,2318,WAYNE,Supermarket,42.402847,-83.22361,NA,NA,230350,"c(-83.22361, 42.402847)"
1533281,M & H Food & Deli Inc.,10500 S Michigan Ave,NA,Chicago,IL,60628,2706,COOK,Grocery Store,41.703335,-87.620949,NA,NA,230386,"c(-87.620949, 41.703335)"
355929,Fish Corner & Meat,6408 N Campbell Ave,NA,Chicago,IL,60645,5314,COOK,Grocery Store,41.997967,-87.692413,NA,NA,230406,"c(-87.692413, 41.997967)"
1586163,Sami Boy 2,3730 W Division St,NA,Chicago,IL,60651,2253,COOK,Grocery Store,41.902927,-87.720253,NA,NA,230643,"c(-87.720253, 41.902927)"
1533391,Naba Bakery,15723 W Warren Ave,NA,Detroit,MI,48228,3735,WAYNE,Grocery Store,42.343384,-83.199181,NA,NA,230774,"c(-83.199181, 42.343384)"
1181793,Shamrock Foodservice Warehouse 550,2430 W Indian School Rd,NA,Phoenix,AZ,85015,4932,MARICOPA,Super Store,33.495148,-112.11206,NA,NA,230838,"c(-112.11206, 33.495148)"
1194807,Green Apple Mini Mart,1435 N Sedgwick St,NA,Chicago,IL,60610,1234,COOK,Grocery Store,41.908642,-87.638458,NA,NA,230874,"c(-87.638458, 41.908642)"
940293,Shop & Save Market 5,5829 S Archer Ave,NA,Chicago,IL,60638,1646,COOK,Super Store,41.79607,-87.759682,NA,NA,230953,"c(-87.759682, 41.79607)"
1277467,Smoke & Snack Time Inc,3337 W North Ave,NA,Chicago,IL,60647,4901,COOK,Grocery Store,41.909779,-87.71096,NA,NA,231063,"c(-87.71096, 41.909779)"
1596459,Supermercado El Tapatio 1,10300 S Ewing Ave,NA,Chicago,IL,60617,6027,COOK,Grocery Store,41.708099,-87.535606,NA,NA,231807,"c(-87.535606, 41.708099)"
983083,Carniceria Guanajuato #3,3140 N California Ave,NA,Chicago,IL,60618,7034,COOK,Supermarket,41.938728,-87.697838,NA,NA,232485,"c(-87.697838, 41.938728)"
763046,SUPER MERCADO Y CARNICERIA MICHOACAN,3549 W Thomas Rd,Ste 104,Phoenix,AZ,85019,4444,MARICOPA,Grocery Store,33.480434,-112.13601,NA,NA,232630,"c(-112.13601, 33.480434)"
1077487,Golden Land International Market,7031 N 35th Ave,NA,Phoenix,AZ,85051,8310,MARICOPA,Grocery Store,33.539402,-112.13426,NA,NA,232661,"c(-112.13426, 33.539402)"
1241064,Lam's Supermarket,6740 W Indian School Rd,NA,Phoenix,AZ,85033,3225,MARICOPA,Supermarket,33.494846,-112.20461,NA,NA,232692,"c(-112.20461, 33.494846)"
1234977,Fruteria Andys Inc,2658 S Trumbull Ave,NA,Chicago,IL,60623,4624,COOK,Grocery Store,41.84272,-87.711098,NA,NA,232734,"c(-87.711098, 41.84272)"
909545,CREMERIA SANTA MARIA  1,3424 W 26th St,1st Floor,Chicago,IL,60623,4061,COOK,Grocery Store,41.844608,-87.710922,NA,NA,232850,"c(-87.710922, 41.844608)"
1105455,Middle Eastern Market 1,3952 N Harlem Ave,NA,Chicago,IL,60634,2219,COOK,Grocery Store,41.951797,-87.807297,NA,NA,232898,"c(-87.807297, 41.951797)"
1533595,Fresh Fish Express,18509 Grand River Ave,NA,Detroit,MI,48223,2318,WAYNE,Grocery Store,42.40226,-83.223412,NA,NA,233183,"c(-83.223412, 42.40226)"
1123572,Mobile,6700 S Jeffery Blvd,NA,Chicago,IL,60649,1030,COOK,Grocery Store,41.77322,-87.576515,NA,NA,233253,"c(-87.576515, 41.77322)"
1566592,Carniceria Y Taqueria Sinaloa #3 LLC,3650 W Camelback,#11 - #14,Phoenix,AZ,85019,    ,MARICOPA,Grocery Store,33.509975,-112.13822,NA,NA,233387,"c(-112.13822, 33.509975)"
1534386,Fry's 678,16400 W Pat Tillman Blvd,NA,Phoenix,AZ,85085,    ,MARICOPA,Super Store,33.732407,-112.10835,NA,NA,233719,"c(-112.10835, 33.732407)"
1271335,Carniceria Guanajuato,6040 W Diversey Ave,NA,Chicago,IL,60639,1140,COOK,Grocery Store,41.931149,-87.777634,NA,NA,234081,"c(-87.777634, 41.931149)"
1292106,Uptown Deli And Coffee Inc,4759 N Sheridan Rd,NA,Chicago,IL,60640,5051,COOK,Grocery Store,41.968853,-87.65477,NA,NA,234245,"c(-87.65477, 41.968853)"
1286085,Carniceria Los Reyes 2,2647 W Glendale Ave,Suite 7 & 8,Phoenix,AZ,85051,6791,MARICOPA,Grocery Store,33.538494,-112.11584,NA,NA,234412,"c(-112.11584, 33.538494)"
1180698,Econogas & Food Mart / BP Gas,4244 S Wentworth Ave,NA,Chicago,IL,60609,2814,COOK,Grocery Store,41.816872,-87.631248,NA,NA,234735,"c(-87.631248, 41.816872)"
903530,El Rancho Market,8901 N 19th Ave,NA,Phoenix,AZ,85021,4206,MARICOPA,Super Store,33.566658,-112.0994,NA,NA,235175,"c(-112.0994, 33.566658)"
1179441,Jimmys Foods,4456 S Hermitage Ave,NA,Chicago,IL,60609,3143,COOK,Grocery Store,41.812397,-87.668976,NA,NA,235205,"c(-87.668976, 41.812397)"
780329,Target Store 2078,1940 W 33rd St,NA,Chicago,IL,60608,6107,COOK,Super Store,41.834122,-87.673996,NA,NA,235290,"c(-87.673996, 41.834122)"
1286763,La Barca,1221 W 47th St,NA,Chicago,IL,60609,3323,COOK,Grocery Store,41.808701,-87.656097,NA,NA,236309,"c(-87.656097, 41.808701)"
1384882,All Foods Ink,2474 E State St,NA,Chicago,IL,60633,2230,COOK,Grocery Store,41.63039,-87.560677,NA,NA,236326,"c(-87.560677, 41.63039)"
1304495,Yoyo Food Mart Inc,2801 W Harrison St,NA,Chicago,IL,60612,3332,COOK,Grocery Store,41.873531,-87.696259,NA,NA,236355,"c(-87.696259, 41.873531)"
1253223,Elgeeb Grocery,4805 N Pulaski Rd,NA,Chicago,IL,60630,2810,COOK,Grocery Store,41.968407,-87.728012,NA,NA,236834,"c(-87.728012, 41.968407)"
1294809,Tasty Chicken & Salad Food Mart,159 W 95th St,NA,Chicago,IL,60628,1368,COOK,Grocery Store,41.721424,-87.628487,NA,NA,237483,"c(-87.628487, 41.721424)"
1283994,Al Noor Meat And Grocery,2514 W Devon Ave,NA,Chicago,IL,60659,1904,COOK,Grocery Store,41.997734,-87.692986,NA,NA,238069,"c(-87.692986, 41.997734)"
1182282,Sabrina Mini Market Inc,5058 E Mcdowell Rd,NA,Phoenix,AZ,85008,4230,MARICOPA,Grocery Store,33.465721,-111.97288,NA,NA,238415,"c(-111.97288, 33.465721)"
1292875,Naddaf Llc Dba La Razza,10001 N 19th Ave,NA,Phoenix,AZ,85021,1907,MARICOPA,Grocery Store,33.577003,-112.09956,NA,NA,239617,"c(-112.09956, 33.577003)"
1286387,El Rodeo,4300 S Mozart St,NA,Chicago,IL,60632,1235,COOK,Grocery Store,41.815372000000004,-87.695877,NA,NA,240130,"c(-87.695877, 41.815372)"
1602749,Macias Produce Inc,8933 S Commercial Ave,NA,Chicago,IL,60617,3202,COOK,Supermarket,41.732655,-87.550926,NA,NA,240329,"c(-87.550926, 41.732655)"
1243999,Cermak Produce,4000 W Diversey Ave,NA,Chicago,IL,60639,2102,COOK,Super Store,41.931816,-87.727089,NA,NA,240456,"c(-87.727089, 41.931816)"
1101733,Lucky One Food Store Corp.,1854 N Pulaski Rd,NA,Chicago,IL,60639,4916,COOK,Grocery Store,41.915215,-87.726845,NA,NA,241291,"c(-87.726845, 41.915215)"
768232,Target Store 1924,6525 W Diversey Ave,NA,Chicago,IL,60707,2312,COOK,Super Store,41.930904,-87.788651,NA,NA,241651,"c(-87.788651, 41.930904)"
761952,Latino Market Y Carniceria,5714 N 27th Ave,NA,Phoenix,AZ,85017,2604,MARICOPA,Grocery Store,33.52103,-112.11696,NA,NA,241944,"c(-112.11696, 33.52103)"
1550115,A 1fresh Fish And Chicken,15209 Livernois Ave,NA,Detroit,MI,48238,2016,WAYNE,Grocery Store,42.402321,-83.140533,NA,NA,242215,"c(-83.140533, 42.402321)"
1245979,Wcop Inc.,3340 N Pulaski Rd,NA,Chicago,IL,60641,4012,COOK,Supermarket,41.941921,-87.727287,NA,NA,242621,"c(-87.727287, 41.941921)"
1558203,Al Hana Super Market ,8626 Michigan Ave,NA,Detroit,MI,48210,2058,WAYNE,Grocery Store,42.330154,-83.148148,NA,NA,242800,"c(-83.148148, 42.330154)"
1557983,JJ Fish Seafood Market,2025 E 75th St,NA,Chicago,IL,60649,3623,COOK,Grocery Store,41.758701,-87.575096,NA,NA,242862,"c(-87.575096, 41.758701)"
1564201,Willian Family Asian Market,7102 N 35th Ave,Ste 9,Phoenix,AZ,85051,8390,MARICOPA,Grocery Store,33.540604,-112.13496,NA,NA,243744,"c(-112.13496, 33.540604)"
1488804,71 Food Wholesale,2001 W 71st St,NA,Chicago,IL,60636,3710,COOK,Grocery Store,41.764553,-87.673737,NA,NA,243950,"c(-87.673737, 41.764553)"
1566704,Daveens African Food And Grocery,6421 S King Dr,Ste B,Chicago,IL,60637,4479,COOK,Grocery Store,41.777729,-87.615219,NA,NA,244358,"c(-87.615219, 41.777729)"
1575925,Madina Grocers,2507 W Devon Ave,NA,Chicago,IL,60659,1903,COOK,Grocery Store,41.997429,-87.692589,NA,NA,246194,"c(-87.692589, 41.997429)"
1574187,Sanabel Bakery & Grocery,4213 N Kedzie Ave,NA,Chicago,IL,60618,2401,COOK,Grocery Store,41.958046,-87.707794,NA,NA,246240,"c(-87.707794, 41.958046)"
1567589,Bescadria Mi Guaymas 1,7223 W Indian School Rd,Ste A103,Phoenix,AZ,85033,3135,MARICOPA,Grocery Store,33.494503,-112.21455,NA,NA,246463,"c(-112.21455, 33.494503)"
1568482,Vernor Food Center,8801 W Vernor Hwy,NA,Detroit,MI,48209,1484,WAYNE,Supermarket,42.30862,-83.133499,NA,NA,246537,"c(-83.133499, 42.30862)"
1565029,Neighborhood Grocery,500 Manistique St,NA,Detroit,MI,48215,2926,WAYNE,Grocery Store,42.368469,-82.937057,NA,NA,246638,"c(-82.937057, 42.368469)"
1587006,Main Street Food,10302 S Halsted St,NA,Chicago,IL,60628,2322,COOK,Grocery Store,41.70676,-87.643181,NA,NA,247248,"c(-87.643181, 41.70676)"
1579611,De Mi Pais Market,3110 N 35th Ave,NA,Phoenix,AZ,85019,    ,MARICOPA,Grocery Store,33.484875,-112.13477,NA,NA,247306,"c(-112.13477, 33.484875)"
1571320,H & I Pina 63 Inc,3927 W 63rd St,NA,Chicago,IL,60629,4603,COOK,Grocery Store,41.778408,-87.721397,NA,NA,247680,"c(-87.721397, 41.778408)"
1586281,Now Luck LLC,3448 W Foster Ave,NA,Chicago,IL,60625,4819,COOK,Grocery Store,41.975986,-87.715591,NA,NA,247826,"c(-87.715591, 41.975986)"
1587617,1 Stop Market & Grill,2134 W Washington Blvd,NA,Chicago,IL,60612,2312,COOK,Grocery Store,41.883148,-87.680656,NA,NA,247938,"c(-87.680656, 41.883148)"
1591359,Dollar Mix,3858 W 63rd St,NA,Chicago,IL,60629,4624,COOK,Grocery Store,41.778885,-87.720146,NA,NA,248024,"c(-87.720146, 41.778885)"
1587582,Hilal & Hilac LLC,2916 E McDowell Rd,Unit 4/5,Phoenix,AZ,85008,3664,MARICOPA,Grocery Store,33.466396,-112.01883,NA,NA,248636,"c(-112.01883, 33.466396)"
1594147,Carniceria Y Fruteria El Milagrito Inc.,5960 W Lawrence Ave,NA,Chicago,IL,60630,3130,COOK,Grocery Store,41.967861,-87.776817,NA,NA,248643,"c(-87.776817, 41.967861)"
1587060,Sanford Foods Market,501 N Laramie Ave,NA,Chicago,IL,60644,1620,COOK,Grocery Store,41.889446,-87.754921,NA,NA,248791,"c(-87.754921, 41.889446)"
1598775,Big Daddy Food And More,3845 W Roosevelt Rd,NA,Chicago,IL,60624,4232,COOK,Grocery Store,41.865875,-87.721924,NA,NA,248909,"c(-87.721924, 41.865875)"
1599808,Ahsam Farms,6226 N California Ave,NA,Chicago,IL,60659,2608,COOK,Grocery Store,41.994934,-87.699997,NA,NA,249760,"c(-87.699997, 41.994934)"
1598329,A-1 Food & Grocery Inc,2319 W Devon Ave,NA,Chicago,IL,60659,2270,COOK,Grocery Store,41.997498,-87.688271,NA,NA,249956,"c(-87.688271, 41.997498)"
1586971,Super Crystal Market Inc.,2639 W 63rd St,NA,Chicago,IL,60629,1641,COOK,Grocery Store,41.77887,-87.690132,NA,NA,250636,"c(-87.690132, 41.77887)"
285194,Save A Lot 61315,420 S Pulaski Rd,NA,Chicago,IL,60624,3151,COOK,Supermarket,41.874615,-87.726265,NA,NA,250784,"c(-87.726265, 41.874615)"
1604970,Wish Mart,810 E 79th St,NA,Chicago,IL,60619,3108,COOK,Grocery Store,41.751476,-87.604836,NA,NA,250785,"c(-87.604836, 41.751476)"
1600035,Wild Onion Market,7007 N Clark St,NA,Chicago,IL,60626,2483,COOK,Grocery Store,42.00927,-87.673393,NA,NA,250908,"c(-87.673393, 42.00927)"
1606481,Dardashe Inc,4740 N Kedzie Ave,NA,Chicago,IL,60625,4421,COOK,Grocery Store,41.967384,-87.708527,NA,NA,251863,"c(-87.708527, 41.967384)"
1606222,Biladi Market Llc,19000 W Warren Ave,NA,Detroit,MI,48228,3314,WAYNE,Grocery Store,42.343609,-83.22599,NA,NA,252213,"c(-83.22599, 42.343609)"
1604363,Westwood Fresh Market,19376 Plymouth Rd,NA,Detroit,MI,48228,1360,WAYNE,Grocery Store,42.372002,-83.231079,NA,NA,252215,"c(-83.231079, 42.372002)"
1606629,La Lomita Produce Market LLC,3649 E 106th St,NA,Chicago,IL,60617,6638,COOK,Grocery Store,41.70253,-87.534561,NA,NA,252730,"c(-87.534561, 41.70253)"
1606877,Kifah Food Market,3906 W Roosevelt Rd,NA,Chicago,IL,60624,4233,COOK,Grocery Store,41.866478,-87.723083,NA,NA,252937,"c(-87.723083, 41.866478)"
735381,Naser Food Inc,4533 N Sheridan Rd,NA,Chicago,IL,60640,5618,COOK,Grocery Store,41.964725,-87.654305,NA,NA,253075,"c(-87.654305, 41.964725)"
1607099,Joy Road Fish And Chicken 1,19522 Joy Rd,NA,Detroit,MI,48228,2925,WAYNE,Grocery Store,42.357868,-83.232834,NA,NA,253370,"c(-83.232834, 42.357868)"
1616943,The Fresh Market 269,2730 N Halsted St,NA,Chicago,IL,60614,1414,COOK,Supermarket,41.931736,-87.649033,NA,NA,253433,"c(-87.649033, 41.931736)"
1616934,Whole Foods Market 10788,12500 N Tatum Blvd,NA,Phoenix,AZ,85032,    ,MARICOPA,Super Store,33.60099,-111.97951,NA,NA,253446,"c(-111.97951, 33.60099)"
1611041,KW Food Mart,9249 S Halsted St,NA,Chicago,IL,60620,2717,COOK,Grocery Store,41.725452,-87.64286,NA,NA,253746,"c(-87.64286, 41.725452)"
1613242,Mini Mart Specialty Meats,16435 W McNichols Rd,NA,Detroit,MI,48235,3355,WAYNE,Super Store,42.415497,-83.209831,NA,NA,254284,"c(-83.209831, 42.415497)"
1612040,Astoria Marketplace,8 E 9th St,NA,Chicago,IL,60605,2179,COOK,Grocery Store,41.870823,-87.627075,NA,NA,254384,"c(-87.627075, 41.870823)"
1601482,Jad Market,5757 W Division St,NA,Chicago,IL,60651,1118,COOK,Grocery Store,41.901756,-87.770149,NA,NA,254993,"c(-87.770149, 41.901756)"
1613432,El Progresso,3937 W 31st St,NA,Chicago,IL,60623,4936,COOK,Grocery Store,41.836666,-87.723297,NA,NA,255250,"c(-87.723297, 41.836666)"
1599154,Christiana Food LLC,2801 S Christiana Ave,Apt 1,Chicago,IL,60623,4672,COOK,Grocery Store,41.840702,-87.708298,NA,NA,255352,"c(-87.708298, 41.840702)"
874365,Bienvenido Food Mart,1701 N Keystone Ave,NA,Chicago,IL,60639,4903,COOK,Grocery Store,41.911823,-87.727303,NA,NA,255502,"c(-87.727303, 41.911823)"
1620203,Sprouts Farmers Market 49,9824 W. McDowell Rd,NA,Phoenix,AZ,85037,    ,MARICOPA,Supermarket,33.46492,-112.26933,NA,NA,255654,"c(-112.26933, 33.46492)"
1623152,Ha Grocery Inc,3509 W Chicago Ave,NA,Chicago,IL,60651,4045,COOK,Grocery Store,41.895287,-87.714256,NA,NA,256048,"c(-87.714256, 41.895287)"
1619479,Carniceria Ponderosa 3,1909 W Thunderbird Rd,NA,Phoenix,AZ,85023,6310,MARICOPA,Grocery Store,33.610828,-112.10062,NA,NA,256518,"c(-112.10062, 33.610828)"
1614343,Canyon Glatt Kosher 1,6516 N 7th St,NA,Phoenix,AZ,85014,1204,MARICOPA,Grocery Store,33.531704,-112.0657,NA,NA,256653,"c(-112.0657, 33.531704)"
1618026,Ariana Afghan Market,16921 W Warren Ave,NA,Detroit,MI,48228,3504,WAYNE,Grocery Store,42.343197,-83.211441,NA,NA,257102,"c(-83.211441, 42.343197)"
1621635,La Feria Grocery,9704 S Commercial Ave,Ste 1,Chicago,IL,60617,5461,COOK,Grocery Store,41.71888,-87.5513,NA,NA,257660,"c(-87.5513, 41.71888)"
639761,Randys Sausage,1429 Gratiot Ave,Ste 106,Detroit,MI,48207,2745,WAYNE,Grocery Store,42.344418,-83.038208,NA,NA,257707,"c(-83.038208, 42.344418)"
1613793,Happy Foods,6415 N Central Ave,NA,Chicago,IL,60646,2901,COOK,Supermarket,41.998089,-87.763062,NA,NA,257797,"c(-87.763062, 41.998089)"
1516900,Go Grocer #1 GG1,2060 W North Ave,1st Floor,Chicago,IL,60647,5414,COOK,Grocery Store,41.910721,-87.679855,NA,NA,258125,"c(-87.679855, 41.910721)"
1622200,M & R Mini Mart,5607 S Racine Ave,NA,Chicago,IL,60636,1423,COOK,Grocery Store,41.792091,-87.654564,NA,NA,259197,"c(-87.654564, 41.792091)"
1627231,Elmouine1122,3859 W Madison St,NA,Chicago,IL,60624,2335,COOK,Grocery Store,41.880554,-87.72303,NA,NA,259198,"c(-87.72303, 41.880554)"
1615516,Colfax Foods Inc.,2600 E 87th St,NA,Chicago,IL,60617,2407,COOK,Grocery Store,41.737442,-87.560928,NA,NA,259522,"c(-87.560928, 41.737442)"
744366,AL-AMIN GROCERY,6403 N Artesian Ave,NA,Chicago,IL,60645,5301,COOK,Grocery Store,41.997822,-87.691025,NA,NA,259651,"c(-87.691025, 41.997822)"
1596538,Blue Sky Market Inc,3364 W Ogden Ave,NA,Chicago,IL,60623,2651,COOK,Grocery Store,41.856575,-87.710129,NA,NA,259893,"c(-87.710129, 41.856575)"
1623215,All American Spirits Inc.,9027 S Commercial Ave,NA,Chicago,IL,60617,4304,COOK,Grocery Store,41.73106,-87.550888,NA,NA,259948,"c(-87.550888, 41.73106)"
1625702,I & J Market Inc,4617 N Kedzie Ave,NA,Chicago,IL,60625,4404,COOK,Grocery Store,41.965286,-87.708138,NA,NA,260272,"c(-87.708138, 41.965286)"
1627488,Lake Grocery Store Inc,4759 W Lake St,NA,Chicago,IL,60644,2710,COOK,Grocery Store,41.886246,-87.745132,NA,NA,260341,"c(-87.745132, 41.886246)"
1645292,Pietrzyk Pierogi,1429 Gratiot Ave,Ste 109,Detroit,MI,48207,2745,WAYNE,Grocery Store,42.344643,-83.038422,NA,NA,261362,"c(-83.038422, 42.344643)"
1638130,Halabi Food Mart,7300 S South Shore Dr,Floor 1st,Chicago,IL,60649,    ,COOK,Grocery Store,41.763714,-87.560898,NA,NA,261468,"c(-87.560898, 41.763714)"
1634208,Halsted Way Food Mart,7356 S Halsted St,NA,Chicago,IL,60621,1620,COOK,Grocery Store,41.759903,-87.644539,NA,NA,261793,"c(-87.644539, 41.759903)"
1202899,Devon Zabiha Market,2907 W Devon Ave,NA,Chicago,IL,60659,1507,COOK,Grocery Store,41.997288,-87.702431,NA,NA,262025,"c(-87.702431, 41.997288)"
1628183,21st Street Food Mart Inc,2027 S California Ave,NA,Chicago,IL,60608,2405,COOK,Grocery Store,41.853863,-87.695198,NA,NA,262220,"c(-87.695198, 41.853863)"
1642439,Elmouine1122,3859 W Madison St,NA,Chicago,IL,60624,2335,COOK,Grocery Store,41.880566,-87.723076,NA,NA,262646,"c(-87.723076, 41.880566)"
1446457,Anwar Asian Mart Llc,4105 N 51st Ave,Ste 129,Phoenix,AZ,85031,1915,MARICOPA,Grocery Store,33.495998,-112.1666,NA,NA,262769,"c(-112.1666, 33.495998)"
1627790,Moodz Food & Deli,233 W 119th St,NA,Chicago,IL,60628,6003,COOK,Grocery Store,41.677803,-87.628937,NA,NA,262777,"c(-87.628937, 41.677803)"
1626977,Roseranch Farms N/A,525 E 130th St,NA,Chicago,IL,60628,6903,COOK,Grocery Store,41.658371,-87.608879,NA,NA,262895,"c(-87.608879, 41.658371)"
776444,Los Potrillos,3624 W Belmont Ave,NA,Chicago,IL,60618,5304,COOK,Supermarket,41.93924,-87.718414,NA,NA,263198,"c(-87.718414, 41.93924)"
1615395,Aldeera Poultry & Fish Llc,16645 W Warren Ave,NA,Detroit,MI,48228,3501,WAYNE,Grocery Store,42.343231,-83.209503,NA,NA,263310,"c(-83.209503, 42.343231)"
1625818,Eli Cli Food Mart Inc.,741 W 79th St,NA,Chicago,IL,60620,2423,COOK,Grocery Store,41.750484,-87.64328,NA,NA,263445,"c(-87.64328, 41.750484)"
